{"attribution":"OpenStreetMap contributors / ODbL","features":[{"geometry":{"coordinates":[[[135.2784798,34.6658395],[135.2804512,34.6660728],[135.2810878,34.6619673],[135.2817792,34.6578765],[135.2824181,34.6539697],[135.2828246,34.6515533],[135.2828497,34.6514132],[135.27681,34.6513006],[135.2767534,34.6516557],[135.2759705,34.6565436],[135.2752212,34.6610186],[135.2745555,34.6653032],[135.2745691,34.6653062],[135.274549,34.6654155],[135.2746363,34.6654248],[135.2772827,34.6657067],[135.2783167,34.6658214],[135.2784798,34.6658395]]],"type":"Polygon"},"properties":{"pref_code":"28"},"type":"Feature"}],"reason":"Physical land with existing OSM buildings omitted by the administrative source; jobs cell 513572823.","sourceSha256":"f5c7b864c2fdf384609a333fb6a6eb1da6c538ae19735aa384ca0a3dcf161d27","type":"FeatureCollection"}
