{"crs":{"properties":{"name":"urn:ogc:def:crs:OGC:1.3:CRS84"},"type":"name"},"features":[{"geometry":{"coordinates":[[[[139.76613304122787,42.311027571813106],[139.86765188281373,42.66490397855081],[140.04661705957355,42.69440878781638],[140.18598926839985,42.827588302270016],[140.30164692533288,42.776289185249844],[140.52751179485972,43.0053713784339],[140.3245184983095,43.22096179489158],[140.3462778945111,43.33373101770749],[140.4965423089159,43.37263596493319],[140.79728502202025,43.19458809817198],[141.00970197339103,43.23983924085425],[141.16198957699424,43.1441241000947],[141.4211447701987,43.325308512289794],[141.32874692485927,43.72486544168644],[141.62749342151193,43.92393312993616],[141.6472149113968,44.313700729804964],[141.78945631052954,44.60400113289613],[141.57067667320587,45.23349453834458],[141.64319794339897,45.448897471942296],[141.79886408433572,45.40739688238637],[141.93654213312627,45.52301739082927],[142.99118829354816,44.55975958747815],[143.53196122483251,44.26194950971559],[144.2437194791814,44.11342065823002],[144.34757550383014,43.9607079691671],[144.79297000539296,43.931098432848984],[145.34423184553944,44.339427200896154],[145.36709937234497,44.258669704125964],[145.06920506213572,43.74776948732748],[145.34316623911613,43.58372728096111],[145.22352743793132,43.55828548872136],[145.39154399487438,43.29287847314302],[145.8174606132075,43.385360005062026],[145.6147307820943,43.31331807087574],[145.52001028218245,43.16489515127718],[145.14640996920258,43.14462013922427],[145.1726495816471,43.07599043310425],[144.86473120897546,42.94588277620565],[144.84357304851272,43.0154946998359],[144.72895818854255,42.99848470676566],[144.774362231362,42.932610378821856],[144.2746162376869,43.00350810570732],[143.93032247785263,42.8809020849325],[143.39815507160088,42.428993453864784],[143.24905644470186,41.924406718530825],[142.96125433928552,42.11977256661486],[141.76629484556076,42.61918230475737],[141.4159773163524,42.57392748368076],[141.0008720091952,42.30091524842288],[140.72245035038378,42.57345541369417],[140.47345934422697,42.58796210346109],[140.31066382284135,42.410327986117814],[140.29287947883373,42.24694110141951],[140.54955545945603,42.11324905808521],[140.75913545515513,42.11683486890166],[141.18670739587793,41.80217235736194],[140.9662710142007,41.70978946617148],[140.70288315912,41.740155143500004],[140.6384597894571,41.81596123961464],[140.44303246599756,41.68285560056737],[140.42940999141794,41.53495436834377],[140.19720088104765,41.397338806789726],[140.03886651827324,41.44399467478305],[139.9828032884966,41.559623743380975],[140.12226282165517,41.82288371723542],[140.1211508179618,42.000431552720215],[139.76613304122787,42.311027571813106]]],[[[141.12683856183247,45.1862234376356],[141.19897306304765,45.259541677051],[141.33037844904686,45.15046635467298],[141.2366886697695,45.097133327743755],[141.12683856183247,45.1862234376356]]],[[[140.96246828287926,45.476652660978786],[141.0673689088924,45.4243028114367],[141.0430791995793,45.27402840028598],[140.96246828287926,45.476652660978786]]],[[[139.4029881100637,42.17781469114842],[139.55922102588136,42.252102718581746],[139.4505610322249,42.05141795666083],[139.4029881100637,42.17781469114842]]]],"type":"MultiPolygon"},"properties":{"area_km2":78537.11564010583,"pref_code":"01","pref_name_ja":"北海道","source":"e-Stat 2020 Census town/area statistical boundaries","source_crs":"EPSG:4612 / JGD2000","statistical_unit_count":22967,"tile_id":"JP_PREF_01"},"type":"Feature"},{"geometry":{"coordinates":[[[139.85881926228174,40.601904527839615],[139.99742813252965,40.747008679943555],[140.25389274527723,40.80563421012051],[140.32388642088,41.05564402403183],[140.2488143704168,41.13361638902974],[140.34429188365547,41.26297537271949],[140.63925022100656,41.1843185395413],[140.6919386507686,40.869676391513686],[140.8618216678916,40.9079200330301],[140.87207640667344,41.01716468131461],[141.1632425230057,40.89018722600092],[141.27853533843057,41.15750069846868],[141.20174983192402,41.269003708230365],[140.76403319500756,41.14549298428523],[140.91159278651608,41.556230769780825],[141.27370510662158,41.35371721485464],[141.4658211810707,41.42966093230028],[141.38858924529058,41.1571378873727],[141.42677733265822,40.700968445478686],[141.68307457549622,40.45120440062445],[141.53732586424493,40.34742130614084],[141.31470362671908,40.368991481839956],[140.97992987633708,40.21966971712092],[140.97827828815701,40.42107033002241],[140.86133056594556,40.440645667335694],[140.86992724723376,40.50714701738481],[140.65289948592357,40.40339855163837],[140.3885766730461,40.48232813508267],[140.0188015360295,40.42006123586302],[139.9364450810046,40.428085407077134],[139.94130722926835,40.54917659596709],[139.85881926228174,40.601904527839615]]],"type":"Polygon"},"properties":{"area_km2":9791.57136592375,"pref_code":"02","pref_name_ja":"青森県","source":"e-Stat 2020 Census town/area statistical boundaries","source_crs":"EPSG:4612 / JGD2000","statistical_unit_count":4645,"tile_id":"JP_PREF_02"},"type":"Feature"},{"geometry":{"coordinates":[[[140.65335500871797,39.3908407323334],[140.82002654023708,39.65252662647594],[140.78220615281504,39.86772841852748],[140.8789381428527,39.87935524286236],[140.89588429307994,40.213920186442785],[141.70188282258877,40.43199744198849],[141.84920847306506,40.2189378404215],[141.83446179202087,40.074917634064995],[141.95623867645924,39.98390061998931],[141.9762168183773,39.65984696137028],[142.07245278452558,39.547956920305694],[142.0442682872797,39.42534343336933],[141.94622808430574,39.39032936732202],[141.95837509211816,39.22288977440794],[141.8563262083349,39.1470214793273],[141.92127628086033,39.10437217710272],[141.81643272306437,39.10087094559534],[141.8528338258001,39.02890097458234],[141.70272881644186,38.93816730992261],[141.49273435041712,38.99760861899783],[141.43541239660544,38.78290683797065],[141.31626628308442,38.81790715604919],[141.2152228251477,38.74917171311272],[141.1046505409612,38.823061752134514],[141.13780309893818,38.87615246614763],[140.77367461654003,38.958226989915225],[140.78087134646054,39.235919649236635],[140.65335500871797,39.3908407323334]]],"type":"Polygon"},"properties":{"area_km2":15311.801614177364,"pref_code":"03","pref_name_ja":"岩手県","source":"e-Stat 2020 Census town/area statistical boundaries","source_crs":"EPSG:4612 / JGD2000","statistical_unit_count":4044,"tile_id":"JP_PREF_03"},"type":"Feature"},{"geometry":{"coordinates":[[[140.27466191364798,37.98401179386958],[140.27745750074385,38.056707428490334],[140.41811926285877,38.08180479282061],[140.6092077145231,38.449761950744765],[140.53728524034386,38.63469362159823],[140.63518275878315,38.76592661747456],[140.54683030724462,38.88875378043295],[140.82473558486828,38.96435814564366],[141.1399569077435,38.877631575246625],[141.2212619334902,38.74896268701982],[141.31098730146468,38.822561271459335],[141.42955664386497,38.786218096690796],[141.49021809526286,38.99803919013401],[141.64296161964452,38.95887902457922],[141.67514961976144,38.85552988075208],[141.5216029573606,38.787954548276524],[141.5619280563268,38.691277502105805],[141.45709850466724,38.65839514735356],[141.52976399329182,38.64728710000363],[141.46131100823712,38.57136548053871],[141.54310723542588,38.442353005659854],[141.47281368921014,38.42524277456283],[141.55394738904442,38.407982353237635],[141.57687220378747,38.268909434214955],[141.35731170207765,38.41387769918698],[141.16727930936523,38.37132744120321],[141.18714636398707,38.31512264703333],[140.97516982652684,38.201935197160765],[140.93106931100343,37.89638700666548],[140.79541370000916,37.773197349159126],[140.66076401752355,37.899387543555946],[140.27466191364798,37.98401179386958]]],"type":"Polygon"},"properties":{"area_km2":7353.678962507738,"pref_code":"04","pref_name_ja":"宮城県","source":"e-Stat 2020 Census town/area statistical boundaries","source_crs":"EPSG:4612 / JGD2000","statistical_unit_count":5467,"tile_id":"JP_PREF_04"},"type":"Feature"},{"geometry":{"coordinates":[[[139.69300257739124,39.99537155849049],[139.81740454750377,39.959859142014174],[139.9520605457301,40.08439756252173],[140.02559637205593,40.346144995384186],[139.93713741260092,40.428624992269306],[140.38780614150994,40.48710685585955],[140.65199549257144,40.40394704730526],[140.87730849187776,40.511133239645254],[140.8668244716458,40.43778467536163],[140.98527703796066,40.42768355424332],[140.84708224969359,40.07136058348791],[140.87813878108065,39.874833550341705],[140.7858175400053,39.867056312066445],[140.82213653290995,39.64992348955349],[140.65956089602597,39.39709052226583],[140.80814835794231,39.179971520710396],[140.77361772908532,38.95821786340824],[140.5619818467026,38.87307145067982],[140.05545378000775,39.130414984261755],[139.8694783589734,39.118173020309754],[140.0213262752023,39.40529628048302],[140.05824813301535,39.72071337965003],[139.95514241167263,39.88740276641893],[139.75417039035446,39.857713845885264],[139.69300257739124,39.99537155849049]]],"type":"Polygon"},"properties":{"area_km2":11683.80023400911,"pref_code":"05","pref_name_ja":"秋田県","source":"e-Stat 2020 Census town/area statistical boundaries","source_crs":"EPSG:4612 / JGD2000","statistical_unit_count":4393,"tile_id":"JP_PREF_05"},"type":"Feature"},{"geometry":{"coordinates":[[[139.53915467385167,38.5579462392757],[139.75795633614618,38.79345418787359],[139.86952150058457,39.11820832297225],[140.06235562887287,39.13355784062404],[140.36199714406035,39.0260109939952],[140.64605405096887,38.769649250311126],[140.5398746870633,38.636854401287536],[140.61981246437028,38.45538087475809],[140.41771811490958,38.08054501670695],[140.2835888456815,38.050051950888],[140.29886611186464,37.80780496611881],[140.2356761933372,37.74612138451597],[139.6384730787198,37.88001219520703],[139.69871649467777,38.202894959795394],[139.8989815763046,38.28872058575764],[139.70973720651287,38.38683060903651],[139.71598398403287,38.496998420458134],[139.53915467385167,38.5579462392757]]],"type":"Polygon"},"properties":{"area_km2":9344.02857659622,"pref_code":"06","pref_name_ja":"山形県","source":"e-Stat 2020 Census town/area statistical boundaries","source_crs":"EPSG:4612 / JGD2000","statistical_unit_count":4428,"tile_id":"JP_PREF_06"},"type":"Feature"},{"geometry":{"coordinates":[[[139.16477718688432,37.239478327206044],[139.22337641212718,37.449076309848714],[139.58287593614705,37.5128752761016],[139.54928256217207,37.64906521577107],[139.70613183900056,37.855955810388764],[140.12352684066002,37.73426436774151],[140.2801338887873,37.79071333889036],[140.28014755309079,37.97673561263309],[140.66275565133049,37.900278197813364],[140.73197234111746,37.78609932803203],[140.8497303207407,37.79825061658099],[140.86937471909826,37.896333491750774],[140.96758506639006,37.87592578603054],[141.02456457548564,37.23243670465824],[140.9694660924125,36.973103816959025],[140.79060164549531,36.8567012740077],[140.58002704634882,36.94211340562435],[140.5919637179133,36.873038221297996],[140.46407062935833,36.791515360683334],[140.1446917366635,37.10032614768862],[139.95275100519157,37.15438462899328],[139.39330217685037,36.91082915743575],[139.24090141185232,36.92948707468926],[139.24986563755203,37.161187469512754],[139.16477718688432,37.239478327206044]]],"type":"Polygon"},"properties":{"area_km2":13796.770243899535,"pref_code":"07","pref_name_ja":"福島県","source":"e-Stat 2020 Census town/area statistical boundaries","source_crs":"EPSG:4612 / JGD2000","statistical_unit_count":6867,"tile_id":"JP_PREF_07"},"type":"Feature"},{"geometry":{"coordinates":[[[139.68746812171608,36.197785450008084],[139.97345384181764,36.37861060383855],[140.19568864559588,36.40988129426931],[140.22033203725658,36.686967747738976],[140.28712174881005,36.717605800479305],[140.25753635027053,36.93277761986874],[140.46724000417032,36.794907768704206],[140.58610365551678,36.944765636863366],[140.79835189085557,36.85823611395464],[140.55838965080298,36.27040948100708],[140.84854916547232,35.740693187799934],[140.5137817576627,35.95512847190606],[140.1497510375223,35.84385823194941],[139.73029151933437,36.087255720826136],[139.68746812171608,36.197785450008084]]],"type":"Polygon"},"properties":{"area_km2":6130.838581790515,"pref_code":"08","pref_name_ja":"茨城県","source":"e-Stat 2020 Census town/area statistical boundaries","source_crs":"EPSG:4612 / JGD2000","statistical_unit_count":4784,"tile_id":"JP_PREF_08"},"type":"Feature"},{"geometry":{"coordinates":[[[139.32652720015287,36.65079758973651],[139.40015415972806,36.92108290434818],[139.83169493082687,37.1336164906193],[140.09753650947218,37.124223969312986],[140.24944474235195,37.025045527561026],[140.26019418943108,36.51739405144609],[140.18526453018586,36.39848429002447],[139.9720251844716,36.36938876433684],[139.82205393925443,36.23942721549999],[139.67955899508345,36.20066173174027],[139.4269312547646,36.29502989519376],[139.3610905176934,36.3846020837934],[139.4780993982023,36.58397649744883],[139.32652720015287,36.65079758973651]]],"type":"Polygon"},"properties":{"area_km2":6408.314944586362,"pref_code":"09","pref_name_ja":"栃木県","source":"e-Stat 2020 Census town/area statistical boundaries","source_crs":"EPSG:4612 / JGD2000","statistical_unit_count":2874,"tile_id":"JP_PREF_09"},"type":"Feature"},{"geometry":{"coordinates":[[[138.39708196519396,36.49024438859467],[138.51409048050456,36.69066306112572],[138.82022750250593,36.765932194307],[139.09700906492657,37.058603987578955],[139.39341401520173,36.91079447138278],[139.3295842708693,36.634634937556434],[139.48346377437375,36.582003573907976],[139.36867054189347,36.36898337233722],[139.66980284406586,36.21312229879296],[139.12878229622982,36.278452152781036],[139.04187218757815,36.12795489307302],[138.71311552168208,35.98484249646832],[138.57748444992794,36.16810284603975],[138.64646511933185,36.40874358419422],[138.4604117576174,36.40454994344992],[138.39708196519396,36.49024438859467]]],"type":"Polygon"},"properties":{"area_km2":6360.252182408153,"pref_code":"10","pref_name_ja":"群馬県","source":"e-Stat 2020 Census town/area statistical boundaries","source_crs":"EPSG:4612 / JGD2000","statistical_unit_count":2492,"tile_id":"JP_PREF_10"},"type":"Feature"},{"geometry":{"coordinates":[[[138.71133855192696,35.97160039481712],[139.0370697706203,36.13430882235119],[139.12961503476285,36.283517154730376],[139.46274438684188,36.18948691551795],[139.661117933063,36.215162829102866],[139.81545439586193,36.03656592526004],[139.89379083934364,35.78276855222658],[139.39186539570076,35.76310284986238],[139.01779581970345,35.897830048690956],[138.89233889083505,35.8397373189876],[138.71133855192696,35.97160039481712]]],"type":"Polygon"},"properties":{"area_km2":3798.4051207358457,"pref_code":"11","pref_name_ja":"埼玉県","source":"e-Stat 2020 Census town/area statistical boundaries","source_crs":"EPSG:4612 / JGD2000","statistical_unit_count":6407,"tile_id":"JP_PREF_11"},"type":"Feature"},{"geometry":{"coordinates":[[[139.7531543367849,34.97365770467297],[139.85744627653574,34.997157481755295],[139.8700164101527,35.23216064670208],[139.7687691738248,35.38435055830216],[139.94390142766574,35.45215287857617],[139.9434475869729,35.62934329280855],[139.87256062969078,35.62554281436712],[139.89924856136986,35.866416702213854],[139.77917974701487,36.09955766299152],[140.15042594032468,35.84294701241293],[140.51035951574576,35.958043782251025],[140.8716558929908,35.73978111306806],[140.47738878356682,35.55745813168514],[140.3268341519363,35.13936805186743],[140.1192855113986,35.11442775398066],[139.9215097858972,34.906168767865154],[139.7531543367849,34.97365770467297]]],"type":"Polygon"},"properties":{"area_km2":5477.001686675245,"pref_code":"12","pref_name_ja":"千葉県","source":"e-Stat 2020 Census town/area statistical boundaries","source_crs":"EPSG:4612 / JGD2000","statistical_unit_count":6678,"tile_id":"JP_PREF_12"},"type":"Feature"},{"geometry":{"coordinates":[[[[142.19435641015295,27.199284404223445],[142.24168014463257,27.045542758701757],[142.17546816279494,27.031703795503194],[142.19435641015295,27.199284404223445]]],[[[142.11762931441518,26.720476812259907],[142.18917413447355,26.659298337696917],[142.15728677033434,26.579565959645176],[142.11762931441518,26.720476812259907]]],[[[138.94295110792135,35.859950032541384],[139.0238989209455,35.897366625453785],[139.39405273514166,35.766598991685],[139.8212326668374,35.8150217018618],[139.9210878730888,35.70316468670877],[139.80243832424506,35.52087580999572],[139.53328432510503,35.63965301699377],[139.47333175876085,35.501205714786785],[139.0295120595618,35.71652917109139],[138.94295110792135,35.859950032541384]]],[[[139.7383261939278,33.13857174965348],[139.84660005150224,33.116958722386066],[139.8326347735845,33.04536559705236],[139.7383261939278,33.13857174965348]]],[[[139.34883933141407,34.751525580355825],[139.42332247140192,34.78101337303797],[139.4428445833449,34.68120927983337],[139.34883933141407,34.751525580355825]]],[[[139.22439907144212,34.3731734520948],[139.28778655325803,34.42773794842491],[139.2802501047421,34.32496378073077],[139.22439907144212,34.3731734520948]]],[[[139.1198727250704,34.18966534112431],[139.13870860368505,34.24416458440398],[139.19397735941206,34.205678097579664],[139.1198727250704,34.18966534112431]]]],"type":"MultiPolygon"},"properties":{"area_km2":2232.3815125115716,"pref_code":"13","pref_name_ja":"東京都","source":"e-Stat 2020 Census town/area statistical boundaries","source_crs":"EPSG:4612 / JGD2000","statistical_unit_count":6021,"tile_id":"JP_PREF_13"},"type":"Feature"},{"geometry":{"coordinates":[[[138.9154860741852,35.40505986958172],[139.10488586869792,35.52825811182971],[139.1335820399415,35.6730224435321],[139.47051936054376,35.51236754332017],[139.44892673930576,35.61193060056446],[139.52532863689214,35.64280757849873],[139.83293528787422,35.502457169622964],[139.66286642340924,35.38953664491107],[139.7562930785493,35.25581809590331],[139.62909682904447,35.12872331265287],[139.54747763278337,35.30471430820006],[139.4406087324853,35.319098962159686],[139.17054865829155,35.25348180093646],[139.1639547283896,35.136998448042405],[139.02939748232887,35.15001845454421],[138.99997420204917,35.39672115701396],[138.9154860741852,35.40505986958172]]],"type":"Polygon"},"properties":{"area_km2":2559.3411057544877,"pref_code":"14","pref_name_ja":"神奈川県","source":"e-Stat 2020 Census town/area statistical boundaries","source_crs":"EPSG:4612 / JGD2000","statistical_unit_count":5372,"tile_id":"JP_PREF_14"},"type":"Feature"},{"geometry":{"coordinates":[[[[137.6346712990483,36.9799567972332],[138.2212504909586,37.171173731536854],[138.5562421759521,37.380335321463555],[138.83188691457028,37.80974830220563],[139.36680179848733,38.098876933834305],[139.54907684375044,38.553747954581986],[139.72155923872648,38.49604998183793],[139.70916226791473,38.396390274315074],[139.8987486614666,38.2930183919023],[139.6856402511669,38.174173682381664],[139.62803545403358,37.908344293182864],[139.74150120969887,37.81824556954533],[139.54762948460638,37.63277993033253],[139.58520028524842,37.51287266245604],[139.20767720004625,37.42819754572349],[139.16555008011343,37.23697112684854],[139.25389067400755,37.1650710087948],[139.2411928065303,36.94127750794978],[139.09914073276025,37.055741099520205],[138.96941417819258,36.97651741810284],[138.92983308241327,36.83296431958649],[138.70343115311104,36.73659810712839],[138.5589894753537,37.02220251040325],[138.39625168963778,36.99574659815842],[138.28745588288987,36.84574889125529],[138.05396013156215,36.80001476695924],[138.00976604107686,36.90332756784634],[137.8787391213207,36.91095506340356],[137.76174370009974,36.76672636071586],[137.6346712990483,36.9799567972332]]],[[[138.2040444270946,37.82254995323331],[138.34314566578982,37.96726911287591],[138.22723957664516,37.97968081389092],[138.24227655181127,38.087412081218275],[138.51458705576763,38.332058276845366],[138.4502123614189,38.134137835868664],[138.57457728012852,38.062920748342016],[138.50072069262748,37.91998507638874],[138.2040444270946,37.82254995323331]]]],"type":"MultiPolygon"},"properties":{"area_km2":12691.981555054024,"pref_code":"15","pref_name_ja":"新潟県","source":"e-Stat 2020 Census town/area statistical boundaries","source_crs":"EPSG:4612 / JGD2000","statistical_unit_count":8114,"tile_id":"JP_PREF_15"},"type":"Feature"},{"geometry":{"coordinates":[[[136.7894535645897,36.718992932002614],[136.9314888577357,36.9502465603026],[137.05169097113298,36.959284019781634],[137.02623328643818,36.82346712865486],[137.29504306988673,36.75742257244014],[137.4355795561596,36.9309875126346],[137.71124776443583,36.94404123585016],[137.75302404796045,36.593516515864785],[137.5921630575726,36.38967372380245],[137.1619176072137,36.454231194885836],[136.9753302358985,36.27445867410195],[136.9116785997899,36.35789696957073],[136.7921840481291,36.29939816451999],[136.7894535645897,36.718992932002614]]],"type":"Polygon"},"properties":{"area_km2":4305.7909792985765,"pref_code":"16","pref_name_ja":"富山県","source":"e-Stat 2020 Census town/area statistical boundaries","source_crs":"EPSG:4612 / JGD2000","statistical_unit_count":3794,"tile_id":"JP_PREF_16"},"type":"Feature"},{"geometry":{"coordinates":[[[136.24301732139637,36.29685820184442],[136.74605638222232,36.83229208953057],[136.76631028044412,36.99537345054705],[136.6694225501296,37.14989193427092],[136.73743199336792,37.34766949297628],[137.34624906505158,37.51575094383426],[137.23421451182918,37.29685293916761],[136.8931767755372,37.17120513920661],[137.04651100669966,37.16326882594756],[137.05661950707366,36.96772571582253],[136.88899392592427,36.916489824763126],[136.79478136662192,36.7215827737767],[136.7737988238735,36.4213174945171],[136.85205595929594,36.24690074334848],[136.75520221412407,36.08566844064793],[136.35795313373325,36.16532295947124],[136.24301732139637,36.29685820184442]]],"type":"Polygon"},"properties":{"area_km2":4226.778739547126,"pref_code":"17","pref_name_ja":"石川県","source":"e-Stat 2020 Census town/area statistical boundaries","source_crs":"EPSG:4612 / JGD2000","statistical_unit_count":3594,"tile_id":"JP_PREF_17"},"type":"Feature"},{"geometry":{"coordinates":[[[135.44936647128802,35.52588750225184],[135.66083086183653,35.54783676797672],[135.63340692704125,35.48413460413204],[135.71537580401258,35.48902553205864],[135.71442539470718,35.56974130922554],[135.85274971039482,35.58134245050657],[135.8039008224307,35.639333780174375],[135.97449098424133,35.624930584488204],[136.01800366417012,35.76408222917329],[136.08824885904826,35.71107420946995],[135.95773329014128,35.98236646109256],[136.11760550710193,36.25294239685435],[136.24241312169715,36.29656605789797],[136.34965417798932,36.17031146488067],[136.76382635651808,36.07450557927883],[136.7892732589471,35.79939121935645],[136.37402828306904,35.79318992926035],[136.2808598981735,35.65865117893723],[136.15243796607407,35.69400643125231],[136.16979389036507,35.56594344163226],[135.93954543683415,35.50802044175846],[135.8904379666123,35.40316216299735],[135.5360100921358,35.37682771642579],[135.44936647128802,35.52588750225184]]],"type":"Polygon"},"properties":{"area_km2":4214.839056491579,"pref_code":"18","pref_name_ja":"福井県","source":"e-Stat 2020 Census town/area statistical boundaries","source_crs":"EPSG:4612 / JGD2000","statistical_unit_count":3001,"tile_id":"JP_PREF_18"},"type":"Feature"},{"geometry":{"coordinates":[[[138.1802403058628,35.714389627805545],[138.23276259707026,35.87648270189639],[138.38124804862687,35.97188320350232],[138.47312850648922,35.89746843406297],[138.9454887925095,35.85429894349204],[139.13061792610597,35.67280848024877],[139.12965405252473,35.56594544679058],[138.8737359076381,35.38177980716883],[138.68050005423976,35.357715105328026],[138.5612186046654,35.43358837565764],[138.4908018833261,35.16844247344843],[138.36475692452368,35.31124536750103],[138.25467761637051,35.3202884443066],[138.1802403058628,35.714389627805545]]],"type":"Polygon"},"properties":{"area_km2":4470.521525654986,"pref_code":"19","pref_name_ja":"山梨県","source":"e-Stat 2020 Census town/area statistical boundaries","source_crs":"EPSG:4612 / JGD2000","statistical_unit_count":1364,"tile_id":"JP_PREF_19"},"type":"Feature"},{"geometry":{"coordinates":[[[137.32460584806188,35.81195707676599],[137.59302896099206,36.011586953366226],[137.5546939252711,36.140086758003825],[137.65059496504526,36.32283777428466],[137.5868361883155,36.38883734029387],[137.8633476988704,36.912816619072935],[138.01374657487918,36.904028923622214],[138.06189405022923,36.803661849106085],[138.56574347497218,37.02122551120494],[138.69573875271928,36.738723065652685],[138.46307288725504,36.63434331880623],[138.4009423492717,36.441248922114696],[138.64781433084318,36.40954655838582],[138.59390788438802,36.151104334015336],[138.7287195826541,35.90925410991391],[138.4721877831523,35.895974423380785],[138.37722849799613,35.971206950521065],[138.23942398459357,35.88285951377791],[138.14172365895672,35.36989991494612],[137.77903472112015,35.20262870636378],[137.57761361700605,35.199311161040676],[137.62664470606552,35.51151240137093],[137.4620422334787,35.75753338915484],[137.32460584806188,35.81195707676599]]],"type":"Polygon"},"properties":{"area_km2":13555.248297828355,"pref_code":"20","pref_name_ja":"長野県","source":"e-Stat 2020 Census town/area statistical boundaries","source_crs":"EPSG:4612 / JGD2000","statistical_unit_count":3572,"tile_id":"JP_PREF_20"},"type":"Feature"},{"geometry":{"coordinates":[[[136.276033947094,35.65315901920562],[136.37667802804262,35.79511928353351],[136.82893322418585,35.84961054755484],[136.72665432220788,35.9958602634893],[136.86932694638,36.366661975647965],[136.97743393913456,36.278052221009844],[137.15966755570963,36.45674902864051],[137.2790774124275,36.464963554039144],[137.64732721237428,36.34183385825513],[137.5580455282053,36.138133982994695],[137.59470236885463,36.012856163853165],[137.32763863986645,35.8176985476864],[137.46477434108317,35.75646301465308],[137.6317052006636,35.50990062550444],[137.56155845977565,35.283010446226534],[137.42980373809976,35.222834160345684],[137.30540393878334,35.290025430588415],[137.18632820210738,35.25308862462376],[136.96934669296886,35.405494405495354],[136.76922971312683,35.36800407139588],[136.62279751299164,35.14668028969061],[136.53040742730462,35.25434846572317],[136.37741357925069,35.243135803170155],[136.44095952572155,35.38962846464166],[136.276033947094,35.65315901920562]]],"type":"Polygon"},"properties":{"area_km2":10620.038155844919,"pref_code":"21","pref_name_ja":"岐阜県","source":"e-Stat 2020 Census town/area statistical boundaries","source_crs":"EPSG:4612 / JGD2000","statistical_unit_count":7835,"tile_id":"JP_PREF_21"},"type":"Feature"},{"geometry":{"coordinates":[[[137.82771751195617,35.21135466839655],[138.13978175903569,35.37021531255435],[138.2187284795455,35.64459014810159],[138.25581860770356,35.32121324364609],[138.35844488756692,35.317522898592024],[138.431671221732,35.18051269270942],[138.52903789682375,35.204290021634804],[138.58138002242822,35.44566030140461],[138.68784516310197,35.35947823668972],[138.99875873363231,35.402151605951396],[138.9888117142478,35.203412094523124],[139.1114855728443,35.14147291760982],[139.14073794626628,34.89088401103808],[138.99137139111954,34.65967955527471],[138.84338682934694,34.60090686666017],[138.73909581332026,34.69014014830142],[138.76228993889103,34.97139697264469],[138.88760829470866,35.042668111205955],[138.74028504353726,35.13380916160755],[138.56253628531582,35.10345350503485],[138.516369694704,34.984348925849304],[138.35752494641287,34.91451568267645],[138.195660105532,34.66569771912124],[138.2256466061254,34.594583981059834],[137.48510956174772,34.673927521378836],[137.82771751195617,35.21135466839655]]],"type":"Polygon"},"properties":{"area_km2":7788.79869160105,"pref_code":"22","pref_name_ja":"静岡県","source":"e-Stat 2020 Census town/area statistical boundaries","source_crs":"EPSG:4612 / JGD2000","statistical_unit_count":5189,"tile_id":"JP_PREF_22"},"type":"Feature"},{"geometry":{"coordinates":[[[136.67182578507033,35.18779260292312],[136.76916074062646,35.367988082576765],[136.98972541619136,35.42474876019556],[137.18736295025747,35.25451956207096],[137.30799391219045,35.29108989753578],[137.43254912531245,35.22768569984705],[137.56579075165115,35.29012945842917],[137.58575173258015,35.20004718085773],[137.8381369995495,35.21249791947465],[137.64001693781333,34.89236774544824],[137.50264282446236,34.82985283263367],[137.4852542921691,34.67394247495807],[137.0362195880916,34.57809600455537],[137.06860801359494,34.66067717415227],[137.23089769829707,34.6957351114313],[137.16164604943438,34.777210847914624],[136.94365031423447,34.81415240156114],[136.97431082153466,34.69576806774925],[136.85921359972113,34.73848137913477],[136.67182578507033,35.18779260292312]]],"type":"Polygon"},"properties":{"area_km2":5394.217246938932,"pref_code":"23","pref_name_ja":"愛知県","source":"e-Stat 2020 Census town/area statistical boundaries","source_crs":"EPSG:4612 / JGD2000","statistical_unit_count":14687,"tile_id":"JP_PREF_23"},"type":"Feature"},{"geometry":{"coordinates":[[[135.8528844212491,33.8593480095966],[136.09852368597853,34.03341313282036],[136.06903436865835,34.39392717132633],[136.22074805773357,34.48913323227734],[136.0465123350472,34.584713891814864],[136.01996921113394,34.790536623965025],[136.11084313578044,34.90184558662279],[136.35858588273612,34.90255164710929],[136.4155024447534,35.21948014950179],[136.53422144842932,35.257094307162525],[136.77186275515982,35.02437310928695],[136.55139202350418,34.783321114361975],[136.55012260401287,34.6306199529887],[136.77500170604551,34.50965429085614],[136.91681947337264,34.54452929129563],[136.90179785510674,34.27842407966721],[136.6684221851904,34.29991352431546],[136.35171156430968,34.183966111690175],[136.24536012079315,34.052259882358854],[136.27212219095426,33.972568765458846],[136.0995656200963,33.88412198923634],[136.01779893788597,33.73055458875192],[135.8528844212491,33.8593480095966]]],"type":"Polygon"},"properties":{"area_km2":5876.260481396677,"pref_code":"24","pref_name_ja":"三重県","source":"e-Stat 2020 Census town/area statistical boundaries","source_crs":"EPSG:4612 / JGD2000","statistical_unit_count":3558,"tile_id":"JP_PREF_24"},"type":"Feature"},{"geometry":{"coordinates":[[[135.7636871482807,35.34545593115156],[135.93946185006172,35.52032862459058],[136.16330431045967,35.574996249296994],[136.1506577268706,35.698062066731595],[136.28070030875233,35.661061353238956],[136.4443766145475,35.38947990463676],[136.36596078962756,34.90498472506005],[136.13490181756848,34.884748021910184],[136.02815874267503,34.79093983716209],[135.88503815801647,34.87559780967694],[135.81484364046517,35.04539258411234],[135.84461668218734,35.267048295174575],[135.7636871482807,35.34545593115156]]],"type":"Polygon"},"properties":{"area_km2":4017.025949657503,"pref_code":"25","pref_name_ja":"滋賀県","source":"e-Stat 2020 Census town/area statistical boundaries","source_crs":"EPSG:4612 / JGD2000","statistical_unit_count":2826,"tile_id":"JP_PREF_25"},"type":"Feature"},{"geometry":{"coordinates":[[[134.85371043598812,35.589188124570164],[134.87016749699072,35.65966742703543],[135.2231789884839,35.77929448661575],[135.30865498236153,35.693562098197376],[135.20600412801988,35.567333786927264],[135.25447368128528,35.59952255733541],[135.30767065070575,35.51336961850786],[135.47824897808246,35.6058847493325],[135.53170135790882,35.37955161035049],[135.85828297778326,35.28922068058192],[135.86802797880884,34.89444616877106],[136.05572860580895,34.73765492495581],[135.75522865882576,34.72784512501591],[135.61214836114922,34.967392814206924],[135.54083906223013,34.91535076728952],[135.38164442377942,35.0103112572467],[135.38195977016775,35.12730099119325],[134.92477444822043,35.31167249751668],[134.93289349372583,35.406641533956545],[135.0470261898082,35.414565777886494],[135.043007863068,35.51813596926114],[134.85371043598812,35.589188124570164]]],"type":"Polygon"},"properties":{"area_km2":4628.862083456786,"pref_code":"26","pref_name_ja":"京都府","source":"e-Stat 2020 Census town/area statistical boundaries","source_crs":"EPSG:4612 / JGD2000","statistical_unit_count":9572,"tile_id":"JP_PREF_26"},"type":"Feature"},{"geometry":{"coordinates":[[[135.09185382943485,34.31274190247353],[135.22382367599636,34.34803261649086],[135.29227862817015,34.413524635967065],[135.20087174444464,34.42814816888332],[135.3031982086251,34.41690466610124],[135.40157178645728,34.54534688394373],[135.3447066996726,34.6215820190535],[135.4593992017695,34.74163250349497],[135.44188585691253,34.928847337322935],[135.33372674794012,35.039695731999714],[135.54543045490115,34.91883419455186],[135.613330277373,34.97121392768027],[135.74678075931214,34.80153271549193],[135.6575620343534,34.61470950876215],[135.67614553446697,34.39913223988808],[135.09185382943485,34.31274190247353]]],"type":"Polygon"},"properties":{"area_km2":1968.181815909441,"pref_code":"27","pref_name_ja":"大阪府","source":"e-Stat 2020 Census town/area statistical boundaries","source_crs":"EPSG:4612 / JGD2000","statistical_unit_count":8943,"tile_id":"JP_PREF_27"},"type":"Feature"},{"geometry":{"coordinates":[[[[134.2527260435083,34.851787272689805],[134.381969344626,35.22068340181007],[134.5125758128476,35.28093494684916],[134.37001690790066,35.61421650671846],[134.5387683251837,35.670386833831515],[134.86764749546884,35.65909681351227],[134.92725124192134,35.51508088643514],[135.03654523105172,35.53915051251646],[135.04908212315468,35.40766087279306],[134.93520964706536,35.40692487432913],[134.9272056179022,35.31231374214154],[135.38966390878358,35.128756066622756],[135.349219455181,34.96799703854647],[135.46839454588644,34.92667032626914],[135.45988344527785,34.73331653914553],[135.24398066036585,34.61764170028552],[134.96633615505007,34.64395827900818],[134.75186584991516,34.7538657872916],[134.3217616015413,34.721812228431034],[134.2527260435083,34.851787272689805]]],[[[134.658505936879,34.241789423346894],[135.004179547375,34.608500627853445],[134.89514862577465,34.39951184460281],[134.9516797537378,34.266649148890075],[134.73413989357178,34.18874558126469],[134.658505936879,34.241789423346894]]]],"type":"MultiPolygon"},"properties":{"area_km2":8529.092467990173,"pref_code":"28","pref_name_ja":"兵庫県","source":"e-Stat 2020 Census town/area statistical boundaries","source_crs":"EPSG:4612 / JGD2000","statistical_unit_count":10041,"tile_id":"JP_PREF_28"},"type":"Feature"},{"geometry":{"coordinates":[[[135.5397018645243,34.075554139121515],[135.72889830148208,34.2278728875499],[135.65115308186896,34.38129409410418],[135.70967242617667,34.78032535229653],[135.85423612717025,34.70669271425288],[136.05759863863955,34.737147060301936],[136.0530518218296,34.58181047813426],[136.2300353502301,34.492371799566186],[136.07502265700367,34.40060033613918],[136.10430922203588,34.02571871462695],[135.92158936534952,33.977684913778916],[135.87293684568849,33.859079827454266],[135.61778697320037,33.87202588882046],[135.63774847375004,33.98474629154016],[135.5397018645243,34.075554139121515]]],"type":"Polygon"},"properties":{"area_km2":3690.870338150353,"pref_code":"29","pref_name_ja":"奈良県","source":"e-Stat 2020 Census town/area statistical boundaries","source_crs":"EPSG:4612 / JGD2000","statistical_unit_count":3165,"tile_id":"JP_PREF_29"},"type":"Feature"},{"geometry":{"coordinates":[[[134.9979705615378,34.26913915382536],[135.651166044651,34.38320448231191],[135.7302334557664,34.228319981948644],[135.54958103902317,34.09638250355573],[135.61066084299614,33.90435001135579],[135.880150415539,33.91796450346162],[135.8585149621179,33.81597071782831],[136.01294234521862,33.727251714340625],[135.96115146340225,33.58149273994913],[135.79807585344489,33.496323015129576],[135.85354480241975,33.45992941403046],[135.75332238198666,33.43286134307343],[135.4468702069109,33.54939542429594],[135.33046345320912,33.66759065490053],[135.3713068679391,33.723604294409036],[135.0577244948063,33.8797953898515],[135.05901139165275,33.9775267051285],[135.15911641337337,34.03439062835819],[135.0749765465034,34.113044384324034],[135.17333268407066,34.15578529854803],[134.9979705615378,34.26913915382536]]],"type":"Polygon"},"properties":{"area_km2":4807.253937428141,"pref_code":"30","pref_name_ja":"和歌山県","source":"e-Stat 2020 Census town/area statistical boundaries","source_crs":"EPSG:4612 / JGD2000","statistical_unit_count":2665,"tile_id":"JP_PREF_30"},"type":"Feature"},{"geometry":{"coordinates":[[[133.13492167226818,35.09334756068324],[133.15255438095966,35.21894764637036],[133.3079387536947,35.27200996385288],[133.22709295484853,35.54759666696944],[133.40153893714572,35.4539144501536],[133.56386540301736,35.530569144908235],[134.06862734414864,35.51992755794073],[134.37002607179787,35.61421005383146],[134.51376302254386,35.35378937251944],[134.46349826960002,35.23683121815969],[134.17711909929173,35.16924779827535],[134.00404577772932,35.351043885483946],[133.8323767202971,35.248863357927604],[133.60015480206079,35.34108515935817],[133.4033262137067,35.114272621229084],[133.13492167226818,35.09334756068324]]],"type":"Polygon"},"properties":{"area_km2":3507.606984501955,"pref_code":"31","pref_name_ja":"鳥取県","source":"e-Stat 2020 Census town/area statistical boundaries","source_crs":"EPSG:4612 / JGD2000","statistical_unit_count":2503,"tile_id":"JP_PREF_31"},"type":"Feature"},{"geometry":{"coordinates":[[[[133.1765843463595,36.25472553279694],[133.27665654392885,36.35605836256487],[133.38689195327765,36.27050491711792],[133.2551750276489,36.15313520296826],[133.1765843463595,36.25472553279694]]],[[[131.66790543655515,34.504089602096165],[131.69892837776726,34.690093600779946],[131.8443673475722,34.708308219548954],[132.6291841536828,35.28882020290988],[132.62896201018276,35.43476299077841],[133.084567528249,35.60433015638781],[133.32981011028735,35.57001930262676],[133.19940208784848,35.53162838423045],[133.32443484451227,35.37396432427064],[133.31058520602969,35.26793744283244],[133.16629226651747,35.22280554900753],[133.1409173967056,35.075734637833605],[132.8848527465216,35.1047420182766],[132.65018357758774,34.916086758012526],[132.69843573932403,34.842984263558975],[132.24816891188462,34.80521273940909],[131.95918056527728,34.30645251838265],[131.79753358231304,34.317776091412284],[131.79185599998135,34.43038936203147],[131.66790543655515,34.504089602096165]]],[[[132.9459706109959,36.07987413512252],[133.07271839387442,36.15470190819702],[133.15257568114848,36.07466739743143],[132.98827622262672,36.082067741800806],[133.0338363062839,35.991270172108045],[132.9459706109959,36.07987413512252]]]],"type":"MultiPolygon"},"properties":{"area_km2":6727.787078186185,"pref_code":"32","pref_name_ja":"島根県","source":"e-Stat 2020 Census town/area statistical boundaries","source_crs":"EPSG:4612 / JGD2000","statistical_unit_count":1735,"tile_id":"JP_PREF_32"},"type":"Feature"},{"geometry":{"coordinates":[[[133.2667374872093,35.05332538785158],[133.51843085804694,35.1956040849975],[133.5966545191025,35.34512189610613],[133.83096782519343,35.249393836427785],[134.01476282002605,35.35014277152993],[134.17444998033656,35.17268352669502],[134.39333215513474,35.25271177808907],[134.41244409691757,35.184286533645476],[134.26852559837505,35.016123256699366],[134.34268133574983,34.70351578029923],[134.03710317258867,34.574200404255436],[133.9455072228097,34.44893693421785],[133.77290623110002,34.41552501272793],[133.6013397619901,34.4923005058184],[133.51500219526397,34.44300331577731],[133.5736178067869,34.34770620142481],[133.38359513283902,34.619771754956595],[133.2667374872093,35.05332538785158]]],"type":"Polygon"},"properties":{"area_km2":7210.346693660731,"pref_code":"33","pref_name_ja":"岡山県","source":"e-Stat 2020 Census town/area statistical boundaries","source_crs":"EPSG:4612 / JGD2000","statistical_unit_count":5336,"tile_id":"JP_PREF_33"},"type":"Feature"},{"geometry":{"coordinates":[[[132.03621811210812,34.5016378101635],[132.24193730473212,34.806132668515325],[132.7010192810998,34.850028564056466],[132.6340557809943,34.905088696410935],[132.8881337057059,35.10576944780195],[133.24958501566508,35.079138164006096],[133.3194467613577,35.008664850183436],[133.45644111511203,34.49987059784735],[133.40112755751932,34.378072801271784],[133.18164120449623,34.35420367591456],[133.19604581521887,34.27543267421093],[133.0722483609683,34.26012266968515],[133.0618053084295,34.344963299832585],[132.80759131874538,34.309873165886394],[132.70314411507343,34.20685419755505],[132.84227194071158,34.19321288689027],[132.83568272103074,34.25510776579523],[132.94455665853715,34.283940928158955],[132.79542195665422,34.11490389579733],[132.55806452912475,34.19686063718634],[132.59301483318413,34.1151726479674],[132.52171095518804,34.038752210759306],[132.35705480169565,34.28012995489127],[132.14433223044483,34.23685039897615],[132.03621811210812,34.5016378101635]]],"type":"Polygon"},"properties":{"area_km2":8602.495063047245,"pref_code":"34","pref_name_ja":"広島県","source":"e-Stat 2020 Census town/area statistical boundaries","source_crs":"EPSG:4612 / JGD2000","statistical_unit_count":4532,"tile_id":"JP_PREF_34"},"type":"Feature"},{"geometry":{"coordinates":[[[130.83822158647425,34.35124674934179],[131.00162762595184,34.374552383505716],[130.93221207769884,34.39257664116591],[130.97239104569388,34.44235066367597],[131.30231085161824,34.38437374551947],[131.58747711064566,34.67811905369697],[131.6901102624908,34.681476360141204],[131.67347162328443,34.504557407709235],[131.79381224339014,34.43641038027514],[131.7995200113388,34.31852543842177],[131.96948609905454,34.32483040932468],[132.06760301708223,34.46815751453052],[132.14815551302112,34.23907045426232],[132.2684794296349,34.21349308372513],[132.3193903612249,34.11899234872224],[132.21333924652495,34.07935180190805],[132.19214622383382,33.95599518543872],[132.49175827123787,33.95550201244834],[132.3723744599121,33.8480225469983],[132.3005959368997,33.895460443967565],[132.20110879004957,33.84609105046185],[132.13710093394627,33.955064722670905],[132.1600373739084,33.849749976476815],[132.0513036179388,33.77166134052056],[132.0382269374905,33.90068666153423],[131.8180732763432,33.92906112206029],[131.68713545218537,34.04723472663118],[131.48439276284364,33.95646979458385],[131.3881530809302,34.02472240446529],[131.24593187015304,33.88248001646331],[131.07579458107216,34.03468629497139],[130.9112556817843,33.90971231513522],[130.86047007029924,34.11082769726207],[130.93135199255335,34.19783836754681],[130.83822158647425,34.35124674934179]]],"type":"Polygon"},"properties":{"area_km2":6488.770746975802,"pref_code":"35","pref_name_ja":"山口県","source":"e-Stat 2020 Census town/area statistical boundaries","source_crs":"EPSG:4612 / JGD2000","statistical_unit_count":4303,"tile_id":"JP_PREF_35"},"type":"Feature"},{"geometry":{"coordinates":[[[133.66082084752026,33.881637590482974],[133.67922449994904,34.01207120379997],[133.77844611418865,34.07930608127059],[133.9953399085463,34.07486625972644],[134.1738405446332,34.177434051918304],[134.4179514239333,34.16062541632146],[134.6060118738898,34.25203132533478],[134.59862559228407,34.00535316997655],[134.75027448592155,33.83453435291879],[134.3990780734687,33.65321947005081],[134.3208119300898,33.539739794360635],[134.19326581288487,33.561588279717576],[134.1669420192876,33.68567375601392],[134.05833153405976,33.690981489472264],[134.02906943556218,33.82355875455954],[133.91327013440358,33.790261959969996],[133.66082084752026,33.881637590482974]]],"type":"Polygon"},"properties":{"area_km2":4163.339689669229,"pref_code":"36","pref_name_ja":"徳島県","source":"e-Stat 2020 Census town/area statistical boundaries","source_crs":"EPSG:4612 / JGD2000","statistical_unit_count":1661,"tile_id":"JP_PREF_36"},"type":"Feature"},{"geometry":{"coordinates":[[[[133.5575172742335,34.26135287849634],[133.72473975514913,34.25514574906138],[133.82110341840794,34.325316688021395],[133.75498717607115,34.370480753708875],[133.79588845885942,34.42570939176565],[133.8297415150447,34.36498012954118],[134.01500940229974,34.356759997539896],[134.06117398060633,34.43393555652342],[134.44069766108294,34.19965008312678],[133.67955659208653,34.01256436010675],[133.5982066158271,34.04280615523323],[133.6474655494915,34.17525366033452],[133.5575172742335,34.26135287849634]]],[[[134.1362502056883,34.47652389329802],[134.36689855833467,34.56129776643379],[134.34926875620374,34.436824346729885],[134.1362502056883,34.47652389329802]]]],"type":"MultiPolygon"},"properties":{"area_km2":1907.9504416862264,"pref_code":"37","pref_name_ja":"香川県","source":"e-Stat 2020 Census town/area statistical boundaries","source_crs":"EPSG:4612 / JGD2000","statistical_unit_count":1010,"tile_id":"JP_PREF_37"},"type":"Feature"},{"geometry":{"coordinates":[[[[132.013400786322,33.343233998925385],[132.65306999238462,33.69754225879018],[132.63739882441692,33.89530181477888],[132.7525379926038,33.909923601083854],[132.89153182032243,34.11878003984234],[133.01192173356415,34.13034167136437],[133.02788978821602,34.20902392954117],[132.8613573831501,34.19334419679455],[132.98719218278478,34.23140770939768],[132.97445415539912,34.297652829136595],[133.13087002107886,34.21889188735234],[133.23770297715365,34.28074044367701],[132.9846553966153,34.10553893403314],[133.1335633168571,33.92905164524668],[133.59839565402766,34.04351128388705],[133.68508014305033,34.00707362276595],[133.66072717849806,33.88159941239551],[133.1958381013973,33.79279807579791],[133.0152510012881,33.4808236545466],[132.81600741200307,33.46428034936149],[132.90039898305187,33.319266938068694],[132.69588328541562,33.13748257917848],[132.61982711967974,33.17427037298147],[132.65541135827118,32.92511530856439],[132.42513395193745,32.92781297039595],[132.50189242316904,33.0050605295225],[132.3782800605506,33.02349675305572],[132.47066536504983,33.105597066928645],[132.3364228328761,33.208734607207674],[132.48012988289682,33.18526938366727],[132.51993790303646,33.25109908072628],[132.37071877236357,33.318751055485954],[132.3672540222308,33.47571276390971],[132.013400786322,33.343233998925385]]],[[[132.5779778485783,33.96877638895518],[132.65835371380945,34.01819110081338],[132.69718929371612,33.96612219136956],[132.5779778485783,33.96877638895518]]]],"type":"MultiPolygon"},"properties":{"area_km2":5741.7536439322585,"pref_code":"38","pref_name_ja":"愛媛県","source":"e-Stat 2020 Census town/area statistical boundaries","source_crs":"EPSG:4612 / JGD2000","statistical_unit_count":3160,"tile_id":"JP_PREF_38"},"type":"Feature"},{"geometry":{"coordinates":[[[132.6149407839847,33.16961008776639],[132.69374650552186,33.14157845210918],[132.89692984852007,33.31452389746691],[132.8100139813496,33.46495170447156],[133.00960577698956,33.47945165572272],[133.07529712574464,33.65099803735784],[133.27726675116293,33.830909983681025],[133.64378697129223,33.88319446854223],[133.90469716579327,33.795246724136064],[134.03288915688205,33.82831656252081],[134.06736130622426,33.69375436989492],[134.17482506295386,33.68458336482883],[134.19571377621148,33.56829594511587],[134.31396904716183,33.53815538198221],[134.17562467080293,33.24399717521214],[133.93456042947395,33.4868718679211],[133.74164678858932,33.537506381200146],[133.2772156036784,33.37498266211855],[133.2233179724149,33.15347157798926],[133.00230618365006,32.989717724206066],[132.95180198709477,32.817995342816396],[133.02078895404304,32.72335386549795],[132.89242894004133,32.789059077063314],[132.62514593367834,32.75517296331302],[132.68765453176724,32.973201205105],[132.6149407839847,33.16961008776639]]],"type":"Polygon"},"properties":{"area_km2":7140.8806268613835,"pref_code":"39","pref_name_ja":"高知県","source":"e-Stat 2020 Census town/area statistical boundaries","source_crs":"EPSG:4612 / JGD2000","statistical_unit_count":2308,"tile_id":"JP_PREF_39"},"type":"Feature"},{"geometry":{"coordinates":[[[130.03973124324713,33.46987888868893],[130.22488784341868,33.693538769648505],[130.34416879616637,33.66153795271536],[130.45012064750898,33.727840895678256],[130.46884930225272,33.8648216042172],[130.72495729634812,33.940305635758456],[130.7271584206875,34.02626689081872],[130.90679829809693,33.9067483607107],[131.03022154616187,33.974845085356286],[131.03885914678793,33.83543684368552],[130.97585204996912,33.81875919256449],[131.0956571043333,33.62612986967366],[131.18480378007365,33.62039972072143],[131.1771986679758,33.507191101337],[130.899006300871,33.444916083287374],[130.85341914563378,33.10919570481957],[130.6773583796657,33.162573308098445],[130.50555682813243,33.00290785991164],[130.38983916171128,32.99801123835048],[130.33943307202827,33.20358865785818],[130.5352283454656,33.347907229640114],[130.5326122042308,33.43991933208552],[130.41128948683485,33.39502415002496],[130.27345349306805,33.47852525873035],[130.03973124324713,33.46987888868893]]],"type":"Polygon"},"properties":{"area_km2":5249.806420032811,"pref_code":"40","pref_name_ja":"福岡県","source":"e-Stat 2020 Census town/area statistical boundaries","source_crs":"EPSG:4612 / JGD2000","statistical_unit_count":7835,"tile_id":"JP_PREF_40"},"type":"Feature"},{"geometry":{"coordinates":[[[129.75894389523455,33.29064567524533],[129.8639642682593,33.37837380407321],[129.78285638960844,33.45131291923679],[129.8810461460773,33.5676771508205],[130.00226518536604,33.44658912674052],[130.54111218214717,33.420578760861254],[130.3455709188069,33.14127538923201],[130.24070295147513,33.192171858816884],[130.13488399074842,33.10878663738668],[130.2180742031697,32.95055014290037],[130.0085412352846,33.0194643231532],[129.75894389523455,33.29064567524533]]],"type":"Polygon"},"properties":{"area_km2":2465.2527430876867,"pref_code":"41","pref_name_ja":"佐賀県","source":"e-Stat 2020 Census town/area statistical boundaries","source_crs":"EPSG:4612 / JGD2000","statistical_unit_count":2300,"tile_id":"JP_PREF_41"},"type":"Feature"},{"geometry":{"coordinates":[[[[129.33179201904252,33.178113095734936],[129.43705173548713,33.29753775801387],[129.43437263749172,33.44261353835545],[129.44698611265977,33.350422085943165],[129.5354791676081,33.414287287857256],[129.64037130433138,33.36901973863938],[129.69497096333265,33.43027118018917],[129.70810832956445,33.349365628752714],[129.82997182217113,33.40682870761611],[129.76160225623028,33.295346079507624],[129.81880501278437,33.18499979096016],[130.2028871123703,32.95832908859451],[130.14416860871083,32.85158245532844],[130.34099719356885,32.85525684107982],[130.35938479536452,32.68864891479743],[130.16757222313277,32.59057415987078],[130.1255590727713,32.68797425149061],[130.208927027045,32.7455035845664],[130.08768575761707,32.79336493905958],[129.7751769841252,32.54916364943662],[129.79303356949174,32.776238992626304],[129.58454128698597,32.93736914874514],[129.64504120868284,33.024586847515415],[129.53429230663983,33.00788877451321],[129.67344016439836,33.08868579149032],[129.54490134968034,33.23034329661765],[129.56927589696193,33.35089215591265],[129.43775302275637,33.19327389460552],[129.33179201904252,33.178113095734936]],[[129.75862140756195,33.03449492956128],[129.82855149899518,32.85321105653148],[129.97939925229394,32.85284671620353],[129.90028622731097,32.92811416257601],[129.93153051294578,33.02638435134022],[129.75862140756195,33.03449492956128]]],[[[129.62423790592538,33.72889838095585],[129.673592457553,33.86875598835623],[129.77290078797145,33.84262773691344],[129.78939345092684,33.74104804651216],[129.62423790592538,33.72889838095585]]],[[[129.1664041757294,34.09850406752614],[129.31961278385032,34.64703341459525],[129.4502048365985,34.72630810548893],[129.49751224225375,34.66859869744398],[129.3795662485808,34.45002175973629],[129.4132791836379,34.31634714957584],[129.28233730084227,34.13061968372451],[129.1664041757294,34.09850406752614]]],[[[128.5979899912735,32.61307044191086],[128.66378522333645,32.78466810517655],[128.87235444838765,32.748167257972774],[128.83508962492618,32.83572526610187],[128.96489025220123,32.882540930759426],[129.1372505386249,33.22729227076865],[129.0918145669137,33.01293308895095],[129.1974867741279,33.009870990946325],[129.06354889439623,32.81309639120027],[128.91163963992102,32.817272122793824],[128.8944699107565,32.64380482450122],[128.77272649117958,32.643319142873985],[128.77183261383482,32.57352565254587],[128.5979899912735,32.61307044191086]]]],"type":"MultiPolygon"},"properties":{"area_km2":4189.972996963567,"pref_code":"42","pref_name_ja":"長崎県","source":"e-Stat 2020 Census town/area statistical boundaries","source_crs":"EPSG:4612 / JGD2000","statistical_unit_count":4231,"tile_id":"JP_PREF_42"},"type":"Feature"},{"geometry":{"coordinates":[[[129.9898022568629,32.200019471432384],[130.0118938755532,32.52968267983738],[130.18859959296054,32.54789201348046],[130.234055158981,32.463274370664095],[130.6039747748433,32.716353106207286],[130.4139082445401,33.00250885532833],[130.6799667904035,33.17137565181881],[130.9830919683136,33.02407949998679],[130.9905192672537,33.18275160178835],[131.1480399621922,33.15488232546408],[131.32956812059842,32.83302624088324],[131.01946433995047,32.54667144831243],[131.108971417914,32.16018408241987],[130.82078535480966,32.094936211258855],[130.60492547185626,32.17927414489479],[130.40207896721054,32.12058997439568],[130.36021043472235,32.1964375891808],[130.56766879069994,32.43402775134821],[130.5227805846992,32.53064150542741],[130.60702105121237,32.62657390979601],[130.44228506625208,32.54535849549997],[130.4364497400764,32.38190296194819],[130.3449160852789,32.312322513503155],[130.27628019438282,32.31598747112006],[130.32558469868684,32.38763891651976],[130.26687964736126,32.40650988495955],[130.05164806776892,32.15675034100459],[129.9898022568629,32.200019471432384]]],"type":"Polygon"},"properties":{"area_km2":7427.53728663336,"pref_code":"43","pref_name_ja":"熊本県","source":"e-Stat 2020 Census town/area statistical boundaries","source_crs":"EPSG:4612 / JGD2000","statistical_unit_count":3101,"tile_id":"JP_PREF_43"},"type":"Feature"},{"geometry":{"coordinates":[[[130.82409797099328,33.25117484810232],[130.926842323602,33.478504372984],[131.162956409882,33.509608647854506],[131.21415445883937,33.64027147337009],[131.39551169382136,33.57640964546735],[131.63601351065645,33.682129580930926],[131.73957999051262,33.466324060740426],[131.5932179070819,33.34730205896961],[131.50948966324253,33.36193080761816],[131.5181533022369,33.270060365931705],[131.90250576150436,33.267838704289865],[131.81149444904452,33.12965680302217],[132.01784295940504,33.108864682991594],[131.93912495431405,32.97652934852795],[132.08537932605796,32.933028317386935],[131.8752475648658,32.74078717668017],[131.76718551321568,32.83702066051335],[131.5362353134354,32.75881433889966],[131.2611405307266,32.8812454855447],[131.10627637945925,33.18594197317898],[130.9890149743084,33.173463571648675],[130.99132567795888,33.02414068932341],[130.84299750982157,33.09397857439069],[130.82409797099328,33.25117484810232]]],"type":"Polygon"},"properties":{"area_km2":6422.579795551094,"pref_code":"44","pref_name_ja":"大分県","source":"e-Stat 2020 Census town/area statistical boundaries","source_crs":"EPSG:4612 / JGD2000","statistical_unit_count":2427,"tile_id":"JP_PREF_44"},"type":"Feature"},{"geometry":{"coordinates":[[[130.70332685202817,32.05832778957889],[131.10330378234798,32.159158396612774],[131.00919723398715,32.51511769652047],[131.2653168735428,32.82636727556991],[131.4752234477222,32.8372040905806],[131.56113042767933,32.75540563657541],[131.85874209675887,32.82140188606833],[131.88562172545576,32.745889419028074],[131.69550514870272,32.570047923778006],[131.73151918455127,32.48787091570565],[131.5778845782161,32.27172096527647],[131.34661257717147,31.36352382521761],[131.16010689575322,31.459404947646966],[131.18568923412337,31.622625923360534],[131.05439741473498,31.633247487797593],[130.70332685202817,32.05832778957889]]],"type":"Polygon"},"properties":{"area_km2":7751.916396821601,"pref_code":"45","pref_name_ja":"宮崎県","source":"e-Stat 2020 Census town/area statistical boundaries","source_crs":"EPSG:4612 / JGD2000","statistical_unit_count":2602,"tile_id":"JP_PREF_45"},"type":"Feature"},{"geometry":{"coordinates":[[[[130.09058933105024,32.18050681436282],[130.24960414704378,32.310675441067005],[130.18493696240597,32.11643294109744],[130.61041483235027,32.1867670389221],[131.0308674313572,31.6643727242047],[131.1885797201969,31.623578685650372],[131.19967929411786,31.515352254845013],[131.01828572961844,31.387872802011348],[131.1319833037344,31.280463337922015],[130.96252348460277,31.137692380071435],[130.65864619942028,30.991692231597945],[130.8032254615053,31.334421222287272],[130.70436456257542,31.546487616691053],[130.60351342317304,31.573020331935126],[130.5179361775944,31.44204855937654],[130.57349675974206,31.311507220245336],[130.6818756574756,31.277822798358645],[130.63573513689147,31.185477562637367],[130.21443525161973,31.249658171489546],[130.1074119859995,31.416653211537696],[130.2714467333112,31.42763944124265],[130.33357840928014,31.60519339977201],[130.16685477087094,31.79153676216964],[130.20664585505426,32.06267596566595],[130.09058933105024,32.18050681436282]],[[130.57533271299405,31.611391884668173],[130.7242969933314,31.621319651609415],[130.75337505803347,31.55859256846477],[130.8227639844445,31.659659326982283],[130.68335008471672,31.733073717383395],[130.57533271299405,31.611391884668173]]],[[[130.84838169292664,30.464586702518442],[131.05646911994523,30.83988855983194],[131.08290345437462,30.697320932605805],[130.9611549884844,30.366862062733027],[130.87094975228533,30.344926889721613],[130.84838169292664,30.464586702518442]]],[[[130.37648502656538,30.382915728298098],[130.4987827011085,30.469419429240038],[130.6629853914682,30.386111057840637],[130.66326092183306,30.315203694814755],[130.44898737282443,30.233970487052652],[130.37648502656538,30.382915728298098]]],[[[129.91307604361222,28.3116091610797],[130.03378372422458,28.36933699620648],[129.96468468151446,28.279548501012574],[129.91307604361222,28.3116091610797]]],[[[129.65802234648547,31.65880090200776],[129.83534921467344,31.882074230069534],[129.96462595917606,31.86517220624734],[129.80152413413856,31.77952693483253],[129.7136167666046,31.621780034443532],[129.65802234648547,31.65880090200776]]],[[[129.13467387488208,28.254266933864436],[129.5440357924241,28.462807309225497],[129.6220607238488,28.477862306936224],[129.63643533852346,28.416671172679703],[129.68975756098473,28.530716361039445],[129.71048225256578,28.42195100014818],[129.45982052182944,28.289608732956463],[129.47689053215336,28.210620387997785],[129.31900621056496,28.061978420312272],[129.21530730670028,28.076954989008886],[129.16469882239244,28.196595730906445],[129.24165987406414,28.213282250766376],[129.13467387488208,28.254266933864436]]],[[[128.87941806300964,27.826440151683453],[128.97221902887458,27.892105473102777],[129.03798049033313,27.768927806423356],[128.98751873258544,27.669648276018986],[128.88128505279852,27.721576079908846],[128.87941806300964,27.826440151683453]]],[[[128.52012925314094,27.372979121714685],[128.713728325998,27.434878658466538],[128.5767737531236,27.33063964761779],[128.52012925314094,27.372979121714685]]]],"type":"MultiPolygon"},"properties":{"area_km2":9240.038552995524,"pref_code":"46","pref_name_ja":"鹿児島県","source":"e-Stat 2020 Census town/area statistical boundaries","source_crs":"EPSG:4612 / JGD2000","statistical_unit_count":2145,"tile_id":"JP_PREF_46"},"type":"Feature"},{"geometry":{"coordinates":[[[[127.63618245940017,26.220575130577714],[127.75650527741405,26.29715141148052],[127.71153077676591,26.440648834690577],[127.97972712660625,26.565002491029464],[127.8588773086701,26.630158916164728],[127.87996716832951,26.70984385205982],[128.02637717400663,26.711408284629417],[128.05290788936858,26.635215374594598],[128.24978495930313,26.870973867340158],[128.30586671803584,26.84469093661385],[128.27837712613447,26.675332659613755],[127.97204561088667,26.46610949200517],[127.96817145962221,26.209266275383175],[127.67692249320912,26.07452685045489],[127.63618245940017,26.220575130577714]]],[[[126.70782734222854,26.35812510915669],[126.86737399061673,26.34195749153728],[126.81028233967288,26.29100888901117],[126.70782734222854,26.35812510915669]]],[[[125.23104973627818,24.934819871670076],[125.46920615664895,24.718693404365737],[125.24097023290224,24.71645621392177],[125.23104973627818,24.934819871670076]]],[[[125.13503486519595,24.824187762268796],[125.16321428873782,24.8655155074656],[125.22167888655348,24.813914550034248],[125.13503486519595,24.824187762268796]]],[[[124.0691320360215,24.4312859336785],[124.11523879523398,24.485092083702078],[124.21747294759686,24.45911162681243],[124.34074142856912,24.605149663631483],[124.23921186365769,24.346472986741333],[124.08197368991776,24.312247762599394],[124.14212261407225,24.407766001199942],[124.0691320360215,24.4312859336785]]],[[[123.6616295919802,24.308794386153128],[123.7766245548549,24.438499226708203],[123.94391919266167,24.367619556329636],[123.87806704220361,24.255353235378838],[123.6616295919802,24.308794386153128]]]],"type":"MultiPolygon"},"properties":{"area_km2":2786.4777803965458,"pref_code":"47","pref_name_ja":"沖縄県","source":"e-Stat 2020 Census town/area statistical boundaries","source_crs":"EPSG:4612 / JGD2000","statistical_unit_count":1471,"tile_id":"JP_PREF_47"},"type":"Feature"}],"name":"japan-prefecture-boundaries.preview","type":"FeatureCollection"}
