{
  "features": [
    {
      "geometry": {
        "coordinates": [
          [
            [
              -73.47275156729681,
              39.613723894093624
            ],
            [
              -73.45306094651934,
              40.49005366648574
            ],
            [
              -74.36980573812328,
              40.498689586118495
            ],
            [
              -74.37783052205542,
              39.62209742534135
            ],
            [
              -73.47275156729681,
              39.613723894093624
            ]
          ]
        ],
        "type": "Polygon"
      },
      "id": "NY_CP00_RM01",
      "properties": {
        "column": 0,
        "gameCityCode": "NY_CP00_RM01",
        "id": "NY_CP00_RM01",
        "row": -1,
        "stateIntersectionKm2": 0.098357,
        "status": "sliver"
      },
      "type": "Feature"
    },
    {
      "geometry": {
        "coordinates": [
          [
            [
              -74.36980573812328,
              40.498689586118495
            ],
            [
              -74.36142043065041,
              41.3751470116748
            ],
            [
              -75.2905964442446,
              41.37655191014284
            ],
            [
              -75.28678032245674,
              40.50005200544032
            ],
            [
              -74.36980573812328,
              40.498689586118495
            ]
          ]
        ],
        "type": "Polygon"
      },
      "id": "NY_CM01_RP00",
      "properties": {
        "column": -1,
        "gameCityCode": "NY_CM01_RP00",
        "id": "NY_CM01_RP00",
        "row": 0,
        "stateIntersectionKm2": 294.628004,
        "status": "normal"
      },
      "type": "Feature"
    },
    {
      "geometry": {
        "coordinates": [
          [
            [
              -73.45306094651934,
              40.49005366648574
            ],
            [
              -73.4324860255007,
              41.36624187257424
            ],
            [
              -74.36142043065041,
              41.3751470116748
            ],
            [
              -74.36980573812328,
              40.498689586118495
            ],
            [
              -73.45306094651934,
              40.49005366648574
            ]
          ]
        ],
        "type": "Polygon"
      },
      "id": "NY_CP00_RP00",
      "properties": {
        "column": 0,
        "gameCityCode": "NY_CP00_RP00",
        "id": "NY_CP00_RP00",
        "row": 0,
        "stateIntersectionKm2": 4119.642755,
        "status": "normal"
      },
      "type": "Feature"
    },
    {
      "geometry": {
        "coordinates": [
          [
            [
              -72.5368797960823,
              40.474153405451695
            ],
            [
              -72.50414422253851,
              41.34984611859816
            ],
            [
              -73.4324860255007,
              41.36624187257424
            ],
            [
              -73.45306094651934,
              40.49005366648574
            ],
            [
              -72.5368797960823,
              40.474153405451695
            ]
          ]
        ],
        "type": "Polygon"
      },
      "id": "NY_CP01_RP00",
      "properties": {
        "column": 1,
        "gameCityCode": "NY_CP01_RP00",
        "id": "NY_CP01_RP00",
        "row": 0,
        "stateIntersectionKm2": 2220.947036,
        "status": "normal"
      },
      "type": "Feature"
    },
    {
      "geometry": {
        "coordinates": [
          [
            [
              -71.6215948422536,
              40.45100564691924
            ],
            [
              -71.57674460358231,
              41.32597745133483
            ],
            [
              -72.50414422253851,
              41.34984611859816
            ],
            [
              -72.5368797960823,
              40.474153405451695
            ],
            [
              -71.6215948422536,
              40.45100564691924
            ]
          ]
        ],
        "type": "Polygon"
      },
      "id": "NY_CP02_RP00",
      "properties": {
        "column": 2,
        "gameCityCode": "NY_CP02_RP00",
        "id": "NY_CP02_RP00",
        "row": 0,
        "stateIntersectionKm2": 754.842118,
        "status": "normal"
      },
      "type": "Feature"
    },
    {
      "geometry": {
        "coordinates": [
          [
            [
              -79.00269413205326,
              41.30726022900041
            ],
            [
              -79.05745268645289,
              42.18147674218205
            ],
            [
              -79.9951215753872,
              42.144406013788895
            ],
            [
              -79.92782239771316,
              41.27130289184595
            ],
            [
              -79.00269413205326,
              41.30726022900041
            ]
          ]
        ],
        "type": "Polygon"
      },
      "id": "NY_CM06_RP01",
      "properties": {
        "column": -6,
        "gameCityCode": "NY_CM06_RP01",
        "id": "NY_CM06_RP01",
        "row": 1,
        "stateIntersectionKm2": 1108.953797,
        "status": "normal"
      },
      "type": "Feature"
    },
    {
      "geometry": {
        "coordinates": [
          [
            [
              -78.07606058276083,
              41.33579050399204
            ],
            [
              -78.11819970601218,
              42.210891341987114
            ],
            [
              -79.05745268645289,
              42.18147674218205
            ],
            [
              -79.00269413205326,
              41.30726022900041
            ],
            [
              -78.07606058276083,
              41.33579050399204
            ]
          ]
        ],
        "type": "Polygon"
      },
      "id": "NY_CM05_RP01",
      "properties": {
        "column": -5,
        "gameCityCode": "NY_CM05_RP01",
        "id": "NY_CM05_RP01",
        "row": 1,
        "stateIntersectionKm2": 1709.077082,
        "status": "normal"
      },
      "type": "Feature"
    },
    {
      "geometry": {
        "coordinates": [
          [
            [
              -77.14826727821361,
              41.35686301919034
            ],
            [
              -77.17772610777429,
              42.23261753737785
            ],
            [
              -78.11819970601218,
              42.210891341987114
            ],
            [
              -78.07606058276083,
              41.33579050399204
            ],
            [
              -77.14826727821361,
              41.35686301919034
            ]
          ]
        ],
        "type": "Polygon"
      },
      "id": "NY_CM04_RP01",
      "properties": {
        "column": -4,
        "gameCityCode": "NY_CM04_RP01",
        "id": "NY_CM04_RP01",
        "row": 1,
        "stateIntersectionKm2": 1926.151006,
        "status": "normal"
      },
      "type": "Feature"
    },
    {
      "geometry": {
        "coordinates": [
          [
            [
              -76.21966249603433,
              41.37045504866167
            ],
            [
              -76.23639837173774,
              42.24663143157807
            ],
            [
              -77.17772610777429,
              42.23261753737785
            ],
            [
              -77.14826727821361,
              41.35686301919034
            ],
            [
              -76.21966249603433,
              41.37045504866167
            ]
          ]
        ],
        "type": "Polygon"
      },
      "id": "NY_CM03_RP01",
      "properties": {
        "column": -3,
        "gameCityCode": "NY_CM03_RP01",
        "id": "NY_CM03_RP01",
        "row": 1,
        "stateIntersectionKm2": 2071.67881,
        "status": "normal"
      },
      "type": "Feature"
    },
    {
      "geometry": {
        "coordinates": [
          [
            [
              -75.2905964442446,
              41.37655191014284
            ],
            [
              -75.29458508923994,
              42.25291758477143
            ],
            [
              -76.23639837173774,
              42.24663143157807
            ],
            [
              -76.21966249603433,
              41.37045504866167
            ],
            [
              -75.2905964442446,
              41.37655191014284
            ]
          ]
        ],
        "type": "Polygon"
      },
      "id": "NY_CM02_RP01",
      "properties": {
        "column": -2,
        "gameCityCode": "NY_CM02_RP01",
        "id": "NY_CM02_RP01",
        "row": 1,
        "stateIntersectionKm2": 2188.436559,
        "status": "normal"
      },
      "type": "Feature"
    },
    {
      "geometry": {
        "coordinates": [
          [
            [
              -74.36142043065041,
              41.3751470116748
            ],
            [
              -74.35265605465452,
              42.25146906459063
            ],
            [
              -75.29458508923994,
              42.25291758477143
            ],
            [
              -75.2905964442446,
              41.37655191014284
            ],
            [
              -74.36142043065041,
              41.3751470116748
            ]
          ]
        ],
        "type": "Polygon"
      },
      "id": "NY_CM01_RP01",
      "properties": {
        "column": -1,
        "gameCityCode": "NY_CM01_RP01",
        "id": "NY_CM01_RP01",
        "row": 1,
        "stateIntersectionKm2": 6245.813033,
        "status": "normal"
      },
      "type": "Feature"
    },
    {
      "geometry": {
        "coordinates": [
          [
            [
              -73.4324860255007,
              41.36624187257424
            ],
            [
              -73.4109813494552,
              42.2422874688255
            ],
            [
              -74.35265605465452,
              42.25146906459063
            ],
            [
              -74.36142043065041,
              41.3751470116748
            ],
            [
              -73.4324860255007,
              41.36624187257424
            ]
          ]
        ],
        "type": "Polygon"
      },
      "id": "NY_CP00_RP01",
      "properties": {
        "column": 0,
        "gameCityCode": "NY_CP00_RP01",
        "id": "NY_CP00_RP01",
        "row": 1,
        "stateIntersectionKm2": 6864.575663,
        "status": "normal"
      },
      "type": "Feature"
    },
    {
      "geometry": {
        "coordinates": [
          [
            [
              -79.05745268645289,
              42.18147674218205
            ],
            [
              -79.11469661571904,
              43.0554991192467
            ],
            [
              -80.06547030218675,
              43.017284377106776
            ],
            [
              -79.9951215753872,
              42.144406013788895
            ],
            [
              -79.05745268645289,
              42.18147674218205
            ]
          ]
        ],
        "type": "Polygon"
      },
      "id": "NY_CM06_RP02",
      "properties": {
        "column": -6,
        "gameCityCode": "NY_CM06_RP02",
        "id": "NY_CM06_RP02",
        "row": 2,
        "stateIntersectionKm2": 1714.80067,
        "status": "normal"
      },
      "type": "Feature"
    },
    {
      "geometry": {
        "coordinates": [
          [
            [
              -78.11819970601218,
              42.210891341987114
            ],
            [
              -78.16225393369906,
              43.08582245358854
            ],
            [
              -79.11469661571904,
              43.0554991192467
            ],
            [
              -79.05745268645289,
              42.18147674218205
            ],
            [
              -78.11819970601218,
              42.210891341987114
            ]
          ]
        ],
        "type": "Polygon"
      },
      "id": "NY_CM05_RP02",
      "properties": {
        "column": -5,
        "gameCityCode": "NY_CM05_RP02",
        "id": "NY_CM05_RP02",
        "row": 2,
        "stateIntersectionKm2": 6971.324507,
        "status": "normal"
      },
      "type": "Feature"
    },
    {
      "geometry": {
        "coordinates": [
          [
            [
              -77.17772610777429,
              42.23261753737785
            ],
            [
              -77.20852505070881,
              43.108220422294174
            ],
            [
              -78.16225393369906,
              43.08582245358854
            ],
            [
              -78.11819970601218,
              42.210891341987114
            ],
            [
              -77.17772610777429,
              42.23261753737785
            ]
          ]
        ],
        "type": "Polygon"
      },
      "id": "NY_CM04_RP02",
      "properties": {
        "column": -4,
        "gameCityCode": "NY_CM04_RP02",
        "id": "NY_CM04_RP02",
        "row": 2,
        "stateIntersectionKm2": 7560.21,
        "status": "normal"
      },
      "type": "Feature"
    },
    {
      "geometry": {
        "coordinates": [
          [
            [
              -76.23639837173774,
              42.24663143157807
            ],
            [
              -76.25389605439668,
              43.12266788045562
            ],
            [
              -77.20852505070881,
              43.108220422294174
            ],
            [
              -77.17772610777429,
              42.23261753737785
            ],
            [
              -76.23639837173774,
              42.24663143157807
            ]
          ]
        ],
        "type": "Polygon"
      },
      "id": "NY_CM03_RP02",
      "properties": {
        "column": -3,
        "gameCityCode": "NY_CM03_RP02",
        "id": "NY_CM03_RP02",
        "row": 2,
        "stateIntersectionKm2": 7560.21,
        "status": "normal"
      },
      "type": "Feature"
    },
    {
      "geometry": {
        "coordinates": [
          [
            [
              -75.29458508923994,
              42.25291758477143
            ],
            [
              -75.29875534568087,
              43.12914858057401
            ],
            [
              -76.25389605439668,
              43.12266788045562
            ],
            [
              -76.23639837173774,
              42.24663143157807
            ],
            [
              -75.29458508923994,
              42.25291758477143
            ]
          ]
        ],
        "type": "Polygon"
      },
      "id": "NY_CM02_RP02",
      "properties": {
        "column": -2,
        "gameCityCode": "NY_CM02_RP02",
        "id": "NY_CM02_RP02",
        "row": 2,
        "stateIntersectionKm2": 7560.21,
        "status": "normal"
      },
      "type": "Feature"
    },
    {
      "geometry": {
        "coordinates": [
          [
            [
              -74.35265605465452,
              42.25146906459063
            ],
            [
              -74.3434926437689,
              43.12765522731695
            ],
            [
              -75.29875534568087,
              43.12914858057401
            ],
            [
              -75.29458508923994,
              42.25291758477143
            ],
            [
              -74.35265605465452,
              42.25146906459063
            ]
          ]
        ],
        "type": "Polygon"
      },
      "id": "NY_CM01_RP02",
      "properties": {
        "column": -1,
        "gameCityCode": "NY_CM01_RP02",
        "id": "NY_CM01_RP02",
        "row": 2,
        "stateIntersectionKm2": 7560.21,
        "status": "normal"
      },
      "type": "Feature"
    },
    {
      "geometry": {
        "coordinates": [
          [
            [
              -73.4109813494552,
              42.2422874688255
            ],
            [
              -73.38849798249363,
              43.11818950214902
            ],
            [
              -74.3434926437689,
              43.12765522731695
            ],
            [
              -74.35265605465452,
              42.25146906459063
            ],
            [
              -73.4109813494552,
              42.2422874688255
            ]
          ]
        ],
        "type": "Polygon"
      },
      "id": "NY_CP00_RP02",
      "properties": {
        "column": 0,
        "gameCityCode": "NY_CP00_RP02",
        "id": "NY_CP00_RP02",
        "row": 2,
        "stateIntersectionKm2": 7539.03849,
        "status": "normal"
      },
      "type": "Feature"
    },
    {
      "geometry": {
        "coordinates": [
          [
            [
              -72.46993042445492,
              42.225382920187
            ],
            [
              -72.4341607045739,
              43.100762057652496
            ],
            [
              -73.38849798249363,
              43.11818950214902
            ],
            [
              -73.4109813494552,
              42.2422874688255
            ],
            [
              -72.46993042445492,
              42.225382920187
            ]
          ]
        ],
        "type": "Polygon"
      },
      "id": "NY_CP01_RP02",
      "properties": {
        "column": 1,
        "gameCityCode": "NY_CP01_RP02",
        "id": "NY_CP01_RP02",
        "row": 2,
        "stateIntersectionKm2": 632.160809,
        "status": "normal"
      },
      "type": "Feature"
    },
    {
      "geometry": {
        "coordinates": [
          [
            [
              -78.16225393369906,
              43.08582245358854
            ],
            [
              -78.20832620554027,
              43.960581381311954
            ],
            [
              -79.17455918497201,
              43.92932342236221
            ],
            [
              -79.11469661571904,
              43.0554991192467
            ],
            [
              -78.16225393369906,
              43.08582245358854
            ]
          ]
        ],
        "type": "Polygon"
      },
      "id": "NY_CM05_RP03",
      "properties": {
        "column": -5,
        "gameCityCode": "NY_CM05_RP03",
        "id": "NY_CM05_RP03",
        "row": 3,
        "stateIntersectionKm2": 2161.677044,
        "status": "normal"
      },
      "type": "Feature"
    },
    {
      "geometry": {
        "coordinates": [
          [
            [
              -77.20852505070881,
              43.108220422294174
            ],
            [
              -77.24073627075889,
              43.983670316651754
            ],
            [
              -78.20832620554027,
              43.960581381311954
            ],
            [
              -78.16225393369906,
              43.08582245358854
            ],
            [
              -77.20852505070881,
              43.108220422294174
            ]
          ]
        ],
        "type": "Polygon"
      },
      "id": "NY_CM04_RP03",
      "properties": {
        "column": -4,
        "gameCityCode": "NY_CM04_RP03",
        "id": "NY_CM04_RP03",
        "row": 3,
        "stateIntersectionKm2": 1849.39033,
        "status": "normal"
      },
      "type": "Feature"
    },
    {
      "geometry": {
        "coordinates": [
          [
            [
              -76.25389605439668,
              43.12266788045562
            ],
            [
              -76.272196614504,
              43.99856375073
            ],
            [
              -77.24073627075889,
              43.983670316651754
            ],
            [
              -77.20852505070881,
              43.108220422294174
            ],
            [
              -76.25389605439668,
              43.12266788045562
            ]
          ]
        ],
        "type": "Polygon"
      },
      "id": "NY_CM03_RP03",
      "properties": {
        "column": -3,
        "gameCityCode": "NY_CM03_RP03",
        "id": "NY_CM03_RP03",
        "row": 3,
        "stateIntersectionKm2": 2253.039948,
        "status": "normal"
      },
      "type": "Feature"
    },
    {
      "geometry": {
        "coordinates": [
          [
            [
              -75.29875534568087,
              43.12914858057401
            ],
            [
              -75.30311700972578,
              44.00524457347418
            ],
            [
              -76.272196614504,
              43.99856375073
            ],
            [
              -76.25389605439668,
              43.12266788045562
            ],
            [
              -75.29875534568087,
              43.12914858057401
            ]
          ]
        ],
        "type": "Polygon"
      },
      "id": "NY_CM02_RP03",
      "properties": {
        "column": -2,
        "gameCityCode": "NY_CM02_RP03",
        "id": "NY_CM02_RP03",
        "row": 3,
        "stateIntersectionKm2": 7276.533316,
        "status": "normal"
      },
      "type": "Feature"
    },
    {
      "geometry": {
        "coordinates": [
          [
            [
              -74.3434926437689,
              43.12765522731695
            ],
            [
              -74.33390867656932,
              44.003705101884066
            ],
            [
              -75.30311700972578,
              44.00524457347418
            ],
            [
              -75.29875534568087,
              43.12914858057401
            ],
            [
              -74.3434926437689,
              43.12765522731695
            ]
          ]
        ],
        "type": "Polygon"
      },
      "id": "NY_CM01_RP03",
      "properties": {
        "column": -1,
        "gameCityCode": "NY_CM01_RP03",
        "id": "NY_CM01_RP03",
        "row": 3,
        "stateIntersectionKm2": 7560.21,
        "status": "normal"
      },
      "type": "Feature"
    },
    {
      "geometry": {
        "coordinates": [
          [
            [
              -73.38849798249363,
              43.11818950214902
            ],
            [
              -73.36498318059392,
              43.993947106795716
            ],
            [
              -74.33390867656932,
              44.003705101884066
            ],
            [
              -74.3434926437689,
              43.12765522731695
            ],
            [
              -73.38849798249363,
              43.11818950214902
            ]
          ]
        ],
        "type": "Polygon"
      },
      "id": "NY_CP00_RP03",
      "properties": {
        "column": 0,
        "gameCityCode": "NY_CP00_RP03",
        "id": "NY_CP00_RP03",
        "row": 3,
        "stateIntersectionKm2": 7466.296848,
        "status": "normal"
      },
      "type": "Feature"
    },
    {
      "geometry": {
        "coordinates": [
          [
            [
              -72.4341607045739,
              43.100762057652496
            ],
            [
              -72.39675132862544,
              43.975981806710045
            ],
            [
              -73.36498318059392,
              43.993947106795716
            ],
            [
              -73.38849798249363,
              43.11818950214902
            ],
            [
              -72.4341607045739,
              43.100762057652496
            ]
          ]
        ],
        "type": "Polygon"
      },
      "id": "NY_CP01_RP03",
      "properties": {
        "column": 1,
        "gameCityCode": "NY_CP01_RP03",
        "id": "NY_CP01_RP03",
        "row": 3,
        "stateIntersectionKm2": 569.100357,
        "status": "normal"
      },
      "type": "Feature"
    },
    {
      "geometry": {
        "coordinates": [
          [
            [
              -76.272196614504,
              43.99856375073
            ],
            [
              -76.29134437346372,
              44.874318498287245
            ],
            [
              -77.2744376361507,
              44.85896590977802
            ],
            [
              -77.24073627075889,
              43.983670316651754
            ],
            [
              -76.272196614504,
              43.99856375073
            ]
          ]
        ],
        "type": "Polygon"
      },
      "id": "NY_CM03_RP04",
      "properties": {
        "column": -3,
        "gameCityCode": "NY_CM03_RP04",
        "id": "NY_CM03_RP04",
        "row": 4,
        "stateIntersectionKm2": 101.841245,
        "status": "normal"
      },
      "type": "Feature"
    },
    {
      "geometry": {
        "coordinates": [
          [
            [
              -75.30311700972578,
              44.00524457347418
            ],
            [
              -75.30768065340503,
              44.881205364091905
            ],
            [
              -76.29134437346372,
              44.874318498287245
            ],
            [
              -76.272196614504,
              43.99856375073
            ],
            [
              -75.30311700972578,
              44.00524457347418
            ]
          ]
        ],
        "type": "Polygon"
      },
      "id": "NY_CM02_RP04",
      "properties": {
        "column": -2,
        "gameCityCode": "NY_CM02_RP04",
        "id": "NY_CM02_RP04",
        "row": 4,
        "stateIntersectionKm2": 4186.377734,
        "status": "normal"
      },
      "type": "Feature"
    },
    {
      "geometry": {
        "coordinates": [
          [
            [
              -74.33390867656932,
              44.003705101884066
            ],
            [
              -74.32388092733336,
              44.87961840942631
            ],
            [
              -75.30768065340503,
              44.881205364091905
            ],
            [
              -75.30311700972578,
              44.00524457347418
            ],
            [
              -74.33390867656932,
              44.003705101884066
            ]
          ]
        ],
        "type": "Polygon"
      },
      "id": "NY_CM01_RP04",
      "properties": {
        "column": -1,
        "gameCityCode": "NY_CM01_RP04",
        "id": "NY_CM01_RP04",
        "row": 4,
        "stateIntersectionKm2": 7539.767714,
        "status": "normal"
      },
      "type": "Feature"
    },
    {
      "geometry": {
        "coordinates": [
          [
            [
              -73.36498318059392,
              43.993947106795716
            ],
            [
              -73.34038002653259,
              44.86955950074715
            ],
            [
              -74.32388092733336,
              44.87961840942631
            ],
            [
              -74.33390867656932,
              44.003705101884066
            ],
            [
              -73.36498318059392,
              43.993947106795716
            ]
          ]
        ],
        "type": "Polygon"
      },
      "id": "NY_CP00_RP04",
      "properties": {
        "column": 0,
        "gameCityCode": "NY_CP00_RP04",
        "id": "NY_CP00_RP04",
        "row": 4,
        "stateIntersectionKm2": 7405.932865,
        "status": "normal"
      },
      "type": "Feature"
    },
    {
      "geometry": {
        "coordinates": [
          [
            [
              -72.39675132862544,
              43.975981806710045
            ],
            [
              -72.35761194776086,
              44.85104046201471
            ],
            [
              -73.34038002653259,
              44.86955950074715
            ],
            [
              -73.36498318059392,
              43.993947106795716
            ],
            [
              -72.39675132862544,
              43.975981806710045
            ]
          ]
        ],
        "type": "Polygon"
      },
      "id": "NY_CP01_RP04",
      "properties": {
        "column": 1,
        "gameCityCode": "NY_CP01_RP04",
        "id": "NY_CP01_RP04",
        "row": 4,
        "stateIntersectionKm2": 108.500403,
        "status": "normal"
      },
      "type": "Feature"
    },
    {
      "geometry": {
        "coordinates": [
          [
            [
              -74.32388092733336,
              44.87961840942631
            ],
            [
              -74.31338429908415,
              45.75539498951402
            ],
            [
              -75.31245770064056,
              45.75703087763019
            ],
            [
              -75.30768065340503,
              44.881205364091905
            ],
            [
              -74.32388092733336,
              44.87961840942631
            ]
          ]
        ],
        "type": "Polygon"
      },
      "id": "NY_CM01_RP05",
      "properties": {
        "column": -1,
        "gameCityCode": "NY_CM01_RP05",
        "id": "NY_CM01_RP05",
        "row": 5,
        "stateIntersectionKm2": 755.932071,
        "status": "normal"
      },
      "type": "Feature"
    },
    {
      "geometry": {
        "coordinates": [
          [
            [
              -73.34038002653259,
              44.86955950074715
            ],
            [
              -73.3146270215373,
              45.74502598154282
            ],
            [
              -74.31338429908415,
              45.75539498951402
            ],
            [
              -74.32388092733336,
              44.87961840942631
            ],
            [
              -73.34038002653259,
              44.86955950074715
            ]
          ]
        ],
        "type": "Polygon"
      },
      "id": "NY_CP00_RP05",
      "properties": {
        "column": 0,
        "gameCityCode": "NY_CP00_RP05",
        "id": "NY_CP00_RP05",
        "row": 5,
        "stateIntersectionKm2": 1068.320112,
        "status": "normal"
      },
      "type": "Feature"
    },
    {
      "geometry": {
        "coordinates": [
          [
            [
              -72.35761194776086,
              44.85104046201471
            ],
            [
              -72.31664495267906,
              45.725936326583906
            ],
            [
              -73.3146270215373,
              45.74502598154282
            ],
            [
              -73.34038002653259,
              44.86955950074715
            ],
            [
              -72.35761194776086,
              44.85104046201471
            ]
          ]
        ],
        "type": "Polygon"
      },
      "id": "NY_CP01_RP05",
      "properties": {
        "column": 1,
        "gameCityCode": "NY_CP01_RP05",
        "id": "NY_CP01_RP05",
        "row": 5,
        "stateIntersectionKm2": 0.015105,
        "status": "sliver"
      },
      "type": "Feature"
    }
  ],
  "name": "PROTOTYPE New York NYC-scale ownership grid",
  "type": "FeatureCollection"
}
