{
"type": "FeatureCollection",
"name": "japan-prefecture-boundaries.preview",
"crs": { "type": "name", "properties": { "name": "urn:ogc:def:crs:OGC:1.3:CRS84" } },
"features": [
{ "type": "Feature", "properties": { "pref_code": "01", "pref_name_ja": "北海道", "statistical_unit_count": 22967, "tile_id": "JP_PREF_01", "area_km2": 78537.115640105825, "source": "e-Stat 2020 Census town/area statistical boundaries", "source_crs": "EPSG:4612 / JGD2000" }, "geometry": { "type": "MultiPolygon", "coordinates": [ [ [ [ 139.766133041227874, 42.311027571813106 ], [ 139.867651882813732, 42.664903978550811 ], [ 140.046617059573549, 42.694408787816378 ], [ 140.185989268399851, 42.827588302270016 ], [ 140.301646925332875, 42.776289185249844 ], [ 140.52751179485972, 43.0053713784339 ], [ 140.324518498309487, 43.220961794891579 ], [ 140.346277894511104, 43.333731017707493 ], [ 140.496542308915906, 43.372635964933188 ], [ 140.797285022020247, 43.194588098171977 ], [ 141.009701973391032, 43.239839240854252 ], [ 141.161989576994245, 43.1441241000947 ], [ 141.421144770198708, 43.325308512289794 ], [ 141.328746924859274, 43.72486544168644 ], [ 141.627493421511929, 43.92393312993616 ], [ 141.647214911396787, 44.313700729804964 ], [ 141.789456310529545, 44.60400113289613 ], [ 141.570676673205867, 45.23349453834458 ], [ 141.643197943398974, 45.448897471942296 ], [ 141.798864084335719, 45.407396882386372 ], [ 141.936542133126267, 45.523017390829267 ], [ 142.991188293548163, 44.559759587478148 ], [ 143.531961224832514, 44.261949509715592 ], [ 144.243719479181408, 44.113420658230019 ], [ 144.347575503830143, 43.960707969167103 ], [ 144.792970005392959, 43.931098432848984 ], [ 145.34423184553944, 44.339427200896154 ], [ 145.367099372344967, 44.258669704125964 ], [ 145.069205062135723, 43.747769487327481 ], [ 145.34316623911613, 43.583727280961106 ], [ 145.223527437931324, 43.55828548872136 ], [ 145.391543994874382, 43.29287847314302 ], [ 145.817460613207487, 43.385360005062026 ], [ 145.614730782094313, 43.313318070875738 ], [ 145.520010282182454, 43.164895151277179 ], [ 145.14640996920258, 43.144620139224273 ], [ 145.172649581647107, 43.075990433104252 ], [ 144.864731208975456, 42.94588277620565 ], [ 144.843573048512724, 43.015494699835898 ], [ 144.728958188542549, 42.998484706765659 ], [ 144.774362231362005, 42.932610378821856 ], [ 144.274616237686899, 43.003508105707319 ], [ 143.930322477852627, 42.880902084932501 ], [ 143.398155071600883, 42.428993453864784 ], [ 143.249056444701864, 41.924406718530825 ], [ 142.961254339285517, 42.119772566614863 ], [ 141.766294845560765, 42.619182304757373 ], [ 141.415977316352411, 42.573927483680762 ], [ 141.000872009195206, 42.300915248422882 ], [ 140.722450350383781, 42.57345541369417 ], [ 140.473459344226967, 42.587962103461088 ], [ 140.310663822841349, 42.410327986117814 ], [ 140.292879478833726, 42.246941101419509 ], [ 140.54955545945603, 42.113249058085209 ], [ 140.759135455155132, 42.116834868901663 ], [ 141.186707395877932, 41.80217235736194 ], [ 140.966271014200686, 41.709789466171479 ], [ 140.702883159120006, 41.740155143500004 ], [ 140.638459789457102, 41.815961239614637 ], [ 140.443032465997561, 41.682855600567372 ], [ 140.429409991417941, 41.534954368343769 ], [ 140.19720088104765, 41.397338806789726 ], [ 140.038866518273238, 41.443994674783049 ], [ 139.982803288496598, 41.559623743380975 ], [ 140.12226282165517, 41.82288371723542 ], [ 140.121150817961791, 42.000431552720215 ], [ 139.766133041227874, 42.311027571813106 ] ] ], [ [ [ 141.126838561832471, 45.186223437635597 ], [ 141.198973063047646, 45.259541677050997 ], [ 141.330378449046862, 45.150466354672979 ], [ 141.236688669769507, 45.097133327743755 ], [ 141.126838561832471, 45.186223437635597 ] ] ], [ [ [ 140.962468282879257, 45.476652660978786 ], [ 141.067368908892405, 45.424302811436696 ], [ 141.043079199579296, 45.274028400285978 ], [ 140.962468282879257, 45.476652660978786 ] ] ], [ [ [ 139.402988110063689, 42.17781469114842 ], [ 139.559221025881357, 42.252102718581746 ], [ 139.450561032224897, 42.051417956660828 ], [ 139.402988110063689, 42.17781469114842 ] ] ] ] } },
{ "type": "Feature", "properties": { "pref_code": "02", "pref_name_ja": "青森県", "statistical_unit_count": 4645, "tile_id": "JP_PREF_02", "area_km2": 9791.5713659237499, "source": "e-Stat 2020 Census town/area statistical boundaries", "source_crs": "EPSG:4612 / JGD2000" }, "geometry": { "type": "Polygon", "coordinates": [ [ [ 139.858819262281742, 40.601904527839615 ], [ 139.997428132529649, 40.747008679943555 ], [ 140.253892745277227, 40.805634210120509 ], [ 140.323886420880001, 41.055644024031828 ], [ 140.248814370416795, 41.13361638902974 ], [ 140.344291883655472, 41.262975372719488 ], [ 140.639250221006563, 41.184318539541302 ], [ 140.691938650768606, 40.869676391513686 ], [ 140.861821667891604, 40.907920033030102 ], [ 140.872076406673443, 41.017164681314611 ], [ 141.163242523005692, 40.890187226000918 ], [ 141.278535338430572, 41.157500698468681 ], [ 141.201749831924019, 41.269003708230365 ], [ 140.764033195007556, 41.145492984285227 ], [ 140.911592786516081, 41.556230769780825 ], [ 141.273705106621577, 41.35371721485464 ], [ 141.465821181070709, 41.42966093230028 ], [ 141.388589245290575, 41.157137887372699 ], [ 141.426777332658219, 40.700968445478686 ], [ 141.683074575496221, 40.451204400624448 ], [ 141.537325864244934, 40.347421306140838 ], [ 141.31470362671908, 40.368991481839956 ], [ 140.979929876337081, 40.219669717120922 ], [ 140.978278288157014, 40.42107033002241 ], [ 140.861330565945565, 40.440645667335694 ], [ 140.869927247233761, 40.50714701738481 ], [ 140.65289948592357, 40.403398551638368 ], [ 140.388576673046089, 40.482328135082668 ], [ 140.018801536029514, 40.420061235863017 ], [ 139.936445081004592, 40.428085407077134 ], [ 139.941307229268347, 40.54917659596709 ], [ 139.858819262281742, 40.601904527839615 ] ] ] } },
{ "type": "Feature", "properties": { "pref_code": "03", "pref_name_ja": "岩手県", "statistical_unit_count": 4044, "tile_id": "JP_PREF_03", "area_km2": 15311.801614177364, "source": "e-Stat 2020 Census town/area statistical boundaries", "source_crs": "EPSG:4612 / JGD2000" }, "geometry": { "type": "Polygon", "coordinates": [ [ [ 140.653355008717966, 39.390840732333402 ], [ 140.82002654023708, 39.65252662647594 ], [ 140.782206152815036, 39.867728418527477 ], [ 140.878938142852689, 39.87935524286236 ], [ 140.895884293079945, 40.213920186442785 ], [ 141.701882822588772, 40.431997441988493 ], [ 141.849208473065062, 40.218937840421503 ], [ 141.834461792020875, 40.074917634064995 ], [ 141.956238676459236, 39.983900619989313 ], [ 141.97621681837731, 39.659846961370278 ], [ 142.072452784525581, 39.547956920305694 ], [ 142.044268287279692, 39.425343433369328 ], [ 141.946228084305744, 39.390329367322018 ], [ 141.95837509211816, 39.222889774407939 ], [ 141.856326208334906, 39.1470214793273 ], [ 141.921276280860326, 39.104372177102718 ], [ 141.816432723064366, 39.100870945595339 ], [ 141.852833825800104, 39.028900974582342 ], [ 141.702728816441862, 38.938167309922612 ], [ 141.492734350417123, 38.99760861899783 ], [ 141.435412396605443, 38.78290683797065 ], [ 141.316266283084417, 38.817907156049188 ], [ 141.215222825147691, 38.749171713112723 ], [ 141.104650540961188, 38.823061752134514 ], [ 141.137803098938178, 38.87615246614763 ], [ 140.773674616540035, 38.958226989915225 ], [ 140.780871346460543, 39.235919649236635 ], [ 140.653355008717966, 39.390840732333402 ] ] ] } },
{ "type": "Feature", "properties": { "pref_code": "04", "pref_name_ja": "宮城県", "statistical_unit_count": 5467, "tile_id": "JP_PREF_04", "area_km2": 7353.6789625077381, "source": "e-Stat 2020 Census town/area statistical boundaries", "source_crs": "EPSG:4612 / JGD2000" }, "geometry": { "type": "Polygon", "coordinates": [ [ [ 140.274661913647975, 37.984011793869577 ], [ 140.27745750074385, 38.056707428490334 ], [ 140.418119262858767, 38.081804792820613 ], [ 140.609207714523109, 38.449761950744765 ], [ 140.537285240343863, 38.634693621598231 ], [ 140.635182758783145, 38.765926617474562 ], [ 140.546830307244619, 38.88875378043295 ], [ 140.824735584868279, 38.964358145643658 ], [ 141.13995690774351, 38.877631575246625 ], [ 141.221261933490212, 38.748962687019819 ], [ 141.310987301464678, 38.822561271459335 ], [ 141.42955664386497, 38.786218096690796 ], [ 141.490218095262861, 38.998039190134008 ], [ 141.642961619644524, 38.958879024579218 ], [ 141.675149619761441, 38.85552988075208 ], [ 141.521602957360614, 38.787954548276524 ], [ 141.561928056326792, 38.691277502105805 ], [ 141.457098504667243, 38.658395147353559 ], [ 141.529763993291823, 38.647287100003631 ], [ 141.461311008237118, 38.571365480538709 ], [ 141.543107235425879, 38.442353005659854 ], [ 141.472813689210142, 38.425242774562832 ], [ 141.553947389044424, 38.407982353237635 ], [ 141.576872203787474, 38.268909434214955 ], [ 141.357311702077652, 38.413877699186983 ], [ 141.167279309365227, 38.371327441203213 ], [ 141.187146363987068, 38.315122647033327 ], [ 140.975169826526837, 38.201935197160765 ], [ 140.931069311003426, 37.896387006665478 ], [ 140.795413700009163, 37.773197349159126 ], [ 140.660764017523547, 37.899387543555946 ], [ 140.274661913647975, 37.984011793869577 ] ] ] } },
{ "type": "Feature", "properties": { "pref_code": "05", "pref_name_ja": "秋田県", "statistical_unit_count": 4393, "tile_id": "JP_PREF_05", "area_km2": 11683.80023400911, "source": "e-Stat 2020 Census town/area statistical boundaries", "source_crs": "EPSG:4612 / JGD2000" }, "geometry": { "type": "Polygon", "coordinates": [ [ [ 139.69300257739124, 39.99537155849049 ], [ 139.81740454750377, 39.959859142014174 ], [ 139.952060545730092, 40.08439756252173 ], [ 140.025596372055929, 40.346144995384186 ], [ 139.937137412600919, 40.428624992269306 ], [ 140.387806141509941, 40.487106855859551 ], [ 140.651995492571444, 40.403947047305259 ], [ 140.877308491877756, 40.511133239645254 ], [ 140.866824471645799, 40.437784675361627 ], [ 140.985277037960657, 40.427683554243323 ], [ 140.847082249693585, 40.071360583487909 ], [ 140.878138781080651, 39.874833550341705 ], [ 140.785817540005297, 39.867056312066445 ], [ 140.822136532909951, 39.649923489553487 ], [ 140.659560896025965, 39.397090522265827 ], [ 140.808148357942315, 39.179971520710396 ], [ 140.773617729085316, 38.958217863408237 ], [ 140.561981846702594, 38.873071450679817 ], [ 140.055453780007753, 39.130414984261755 ], [ 139.869478358973396, 39.118173020309754 ], [ 140.021326275202313, 39.405296280483022 ], [ 140.058248133015354, 39.720713379650029 ], [ 139.955142411672625, 39.88740276641893 ], [ 139.75417039035446, 39.857713845885264 ], [ 139.69300257739124, 39.99537155849049 ] ] ] } },
{ "type": "Feature", "properties": { "pref_code": "06", "pref_name_ja": "山形県", "statistical_unit_count": 4428, "tile_id": "JP_PREF_06", "area_km2": 9344.0285765962199, "source": "e-Stat 2020 Census town/area statistical boundaries", "source_crs": "EPSG:4612 / JGD2000" }, "geometry": { "type": "Polygon", "coordinates": [ [ [ 139.539154673851669, 38.557946239275701 ], [ 139.757956336146179, 38.793454187873593 ], [ 139.869521500584568, 39.118208322972251 ], [ 140.062355628872865, 39.133557840624043 ], [ 140.361997144060354, 39.0260109939952 ], [ 140.646054050968871, 38.769649250311126 ], [ 140.539874687063303, 38.636854401287536 ], [ 140.619812464370284, 38.455380874758092 ], [ 140.417718114909576, 38.080545016706949 ], [ 140.283588845681493, 38.050051950887998 ], [ 140.298866111864641, 37.807804966118809 ], [ 140.235676193337213, 37.746121384515973 ], [ 139.638473078719812, 37.88001219520703 ], [ 139.698716494677768, 38.202894959795394 ], [ 139.898981576304607, 38.288720585757638 ], [ 139.70973720651287, 38.386830609036508 ], [ 139.715983984032874, 38.496998420458134 ], [ 139.539154673851669, 38.557946239275701 ] ] ] } },
{ "type": "Feature", "properties": { "pref_code": "07", "pref_name_ja": "福島県", "statistical_unit_count": 6867, "tile_id": "JP_PREF_07", "area_km2": 13796.770243899535, "source": "e-Stat 2020 Census town/area statistical boundaries", "source_crs": "EPSG:4612 / JGD2000" }, "geometry": { "type": "Polygon", "coordinates": [ [ [ 139.164777186884322, 37.239478327206044 ], [ 139.22337641212718, 37.449076309848714 ], [ 139.582875936147047, 37.512875276101603 ], [ 139.549282562172067, 37.649065215771067 ], [ 139.706131839000562, 37.855955810388764 ], [ 140.12352684066002, 37.73426436774151 ], [ 140.280133888787304, 37.790713338890363 ], [ 140.280147553090785, 37.976735612633092 ], [ 140.662755651330485, 37.900278197813364 ], [ 140.731972341117455, 37.78609932803203 ], [ 140.84973032074069, 37.798250616580987 ], [ 140.869374719098261, 37.896333491750774 ], [ 140.967585066390058, 37.875925786030542 ], [ 141.024564575485641, 37.232436704658241 ], [ 140.969466092412489, 36.973103816959025 ], [ 140.790601645495315, 36.856701274007698 ], [ 140.580027046348818, 36.942113405624347 ], [ 140.591963717913302, 36.873038221297996 ], [ 140.464070629358332, 36.791515360683334 ], [ 140.144691736663503, 37.100326147688619 ], [ 139.952751005191573, 37.154384628993277 ], [ 139.393302176850369, 36.910829157435749 ], [ 139.24090141185232, 36.929487074689263 ], [ 139.249865637552034, 37.161187469512754 ], [ 139.164777186884322, 37.239478327206044 ] ] ] } },
{ "type": "Feature", "properties": { "pref_code": "08", "pref_name_ja": "茨城県", "statistical_unit_count": 4784, "tile_id": "JP_PREF_08", "area_km2": 6130.8385817905146, "source": "e-Stat 2020 Census town/area statistical boundaries", "source_crs": "EPSG:4612 / JGD2000" }, "geometry": { "type": "Polygon", "coordinates": [ [ [ 139.68746812171608, 36.197785450008084 ], [ 139.973453841817644, 36.378610603838553 ], [ 140.19568864559588, 36.409881294269312 ], [ 140.220332037256583, 36.686967747738976 ], [ 140.287121748810051, 36.717605800479305 ], [ 140.257536350270527, 36.932777619868737 ], [ 140.467240004170321, 36.794907768704206 ], [ 140.58610365551678, 36.944765636863366 ], [ 140.798351890855571, 36.858236113954639 ], [ 140.55838965080298, 36.270409481007079 ], [ 140.848549165472321, 35.740693187799934 ], [ 140.513781757662713, 35.955128471906058 ], [ 140.149751037522293, 35.843858231949412 ], [ 139.730291519334372, 36.087255720826136 ], [ 139.68746812171608, 36.197785450008084 ] ] ] } },
{ "type": "Feature", "properties": { "pref_code": "09", "pref_name_ja": "栃木県", "statistical_unit_count": 2874, "tile_id": "JP_PREF_09", "area_km2": 6408.3149445863619, "source": "e-Stat 2020 Census town/area statistical boundaries", "source_crs": "EPSG:4612 / JGD2000" }, "geometry": { "type": "Polygon", "coordinates": [ [ [ 139.326527200152867, 36.650797589736513 ], [ 139.400154159728061, 36.921082904348182 ], [ 139.83169493082687, 37.133616490619303 ], [ 140.097536509472178, 37.124223969312986 ], [ 140.249444742351955, 37.025045527561026 ], [ 140.260194189431076, 36.51739405144609 ], [ 140.185264530185862, 36.39848429002447 ], [ 139.97202518447159, 36.36938876433684 ], [ 139.822053939254431, 36.239427215499987 ], [ 139.679558995083454, 36.200661731740269 ], [ 139.426931254764611, 36.295029895193757 ], [ 139.361090517693412, 36.384602083793403 ], [ 139.478099398202289, 36.58397649744883 ], [ 139.326527200152867, 36.650797589736513 ] ] ] } },
{ "type": "Feature", "properties": { "pref_code": "10", "pref_name_ja": "群馬県", "statistical_unit_count": 2492, "tile_id": "JP_PREF_10", "area_km2": 6360.2521824081532, "source": "e-Stat 2020 Census town/area statistical boundaries", "source_crs": "EPSG:4612 / JGD2000" }, "geometry": { "type": "Polygon", "coordinates": [ [ [ 138.397081965193962, 36.490244388594668 ], [ 138.514090480504564, 36.690663061125719 ], [ 138.820227502505929, 36.765932194306998 ], [ 139.097009064926567, 37.058603987578955 ], [ 139.393414015201728, 36.910794471382779 ], [ 139.329584270869304, 36.634634937556434 ], [ 139.483463774373746, 36.582003573907976 ], [ 139.368670541893465, 36.368983372337219 ], [ 139.669802844065856, 36.21312229879296 ], [ 139.128782296229815, 36.278452152781036 ], [ 139.04187218757815, 36.127954893073017 ], [ 138.713115521682084, 35.984842496468318 ], [ 138.577484449927937, 36.168102846039751 ], [ 138.64646511933185, 36.40874358419422 ], [ 138.460411757617408, 36.404549943449922 ], [ 138.397081965193962, 36.490244388594668 ] ] ] } },
{ "type": "Feature", "properties": { "pref_code": "11", "pref_name_ja": "埼玉県", "statistical_unit_count": 6407, "tile_id": "JP_PREF_11", "area_km2": 3798.4051207358457, "source": "e-Stat 2020 Census town/area statistical boundaries", "source_crs": "EPSG:4612 / JGD2000" }, "geometry": { "type": "Polygon", "coordinates": [ [ [ 138.711338551926957, 35.971600394817123 ], [ 139.037069770620292, 36.134308822351187 ], [ 139.12961503476285, 36.283517154730376 ], [ 139.462744386841877, 36.189486915517953 ], [ 139.661117933062997, 36.215162829102866 ], [ 139.815454395861934, 36.036565925260042 ], [ 139.893790839343637, 35.782768552226578 ], [ 139.391865395700762, 35.763102849862378 ], [ 139.017795819703451, 35.897830048690956 ], [ 138.892338890835049, 35.839737318987602 ], [ 138.711338551926957, 35.971600394817123 ] ] ] } },
{ "type": "Feature", "properties": { "pref_code": "12", "pref_name_ja": "千葉県", "statistical_unit_count": 6678, "tile_id": "JP_PREF_12", "area_km2": 5477.0016866752449, "source": "e-Stat 2020 Census town/area statistical boundaries", "source_crs": "EPSG:4612 / JGD2000" }, "geometry": { "type": "Polygon", "coordinates": [ [ [ 139.753154336784888, 34.973657704672974 ], [ 139.85744627653574, 34.997157481755295 ], [ 139.870016410152687, 35.232160646702077 ], [ 139.768769173824808, 35.38435055830216 ], [ 139.943901427665736, 35.452152878576172 ], [ 139.943447586972894, 35.629343292808549 ], [ 139.872560629690781, 35.625542814367122 ], [ 139.899248561369859, 35.866416702213854 ], [ 139.779179747014865, 36.099557662991522 ], [ 140.150425940324681, 35.842947012412928 ], [ 140.510359515745762, 35.958043782251025 ], [ 140.871655892990788, 35.739781113068062 ], [ 140.477388783566823, 35.557458131685138 ], [ 140.32683415193631, 35.139368051867429 ], [ 140.119285511398601, 35.114427753980657 ], [ 139.9215097858972, 34.906168767865154 ], [ 139.753154336784888, 34.973657704672974 ] ] ] } },
{ "type": "Feature", "properties": { "pref_code": "13", "pref_name_ja": "東京都", "statistical_unit_count": 6021, "tile_id": "JP_PREF_13", "area_km2": 2232.3815125115716, "source": "e-Stat 2020 Census town/area statistical boundaries", "source_crs": "EPSG:4612 / JGD2000" }, "geometry": { "type": "MultiPolygon", "coordinates": [ [ [ [ 142.194356410152949, 27.199284404223445 ], [ 142.241680144632568, 27.045542758701757 ], [ 142.175468162794942, 27.031703795503194 ], [ 142.194356410152949, 27.199284404223445 ] ] ], [ [ [ 142.117629314415183, 26.720476812259907 ], [ 142.189174134473546, 26.659298337696917 ], [ 142.157286770334338, 26.579565959645176 ], [ 142.117629314415183, 26.720476812259907 ] ] ], [ [ [ 138.942951107921346, 35.859950032541384 ], [ 139.023898920945499, 35.897366625453785 ], [ 139.394052735141656, 35.766598991685001 ], [ 139.821232666837403, 35.815021701861802 ], [ 139.921087873088794, 35.703164686708767 ], [ 139.80243832424506, 35.520875809995722 ], [ 139.533284325105029, 35.639653016993769 ], [ 139.47333175876085, 35.501205714786785 ], [ 139.029512059561796, 35.716529171091388 ], [ 138.942951107921346, 35.859950032541384 ] ] ], [ [ [ 139.738326193927804, 33.13857174965348 ], [ 139.846600051502236, 33.116958722386066 ], [ 139.832634773584488, 33.04536559705236 ], [ 139.738326193927804, 33.13857174965348 ] ] ], [ [ [ 139.348839331414069, 34.751525580355825 ], [ 139.423322471401917, 34.781013373037972 ], [ 139.442844583344908, 34.681209279833368 ], [ 139.348839331414069, 34.751525580355825 ] ] ], [ [ [ 139.224399071442122, 34.373173452094797 ], [ 139.28778655325803, 34.427737948424912 ], [ 139.280250104742095, 34.324963780730769 ], [ 139.224399071442122, 34.373173452094797 ] ] ], [ [ [ 139.119872725070394, 34.189665341124311 ], [ 139.138708603685046, 34.244164584403983 ], [ 139.19397735941206, 34.205678097579664 ], [ 139.119872725070394, 34.189665341124311 ] ] ] ] } },
{ "type": "Feature", "properties": { "pref_code": "14", "pref_name_ja": "神奈川県", "statistical_unit_count": 5372, "tile_id": "JP_PREF_14", "area_km2": 2559.3411057544877, "source": "e-Stat 2020 Census town/area statistical boundaries", "source_crs": "EPSG:4612 / JGD2000" }, "geometry": { "type": "Polygon", "coordinates": [ [ [ 138.915486074185196, 35.40505986958172 ], [ 139.10488586869792, 35.528258111829707 ], [ 139.133582039941501, 35.673022443532098 ], [ 139.470519360543761, 35.512367543320167 ], [ 139.448926739305762, 35.611930600564463 ], [ 139.525328636892141, 35.642807578498733 ], [ 139.832935287874221, 35.502457169622964 ], [ 139.662866423409241, 35.389536644911068 ], [ 139.756293078549305, 35.255818095903308 ], [ 139.629096829044471, 35.128723312652873 ], [ 139.547477632783369, 35.304714308200062 ], [ 139.440608732485288, 35.319098962159686 ], [ 139.170548658291551, 35.253481800936463 ], [ 139.163954728389598, 35.136998448042405 ], [ 139.029397482328875, 35.15001845454421 ], [ 138.999974202049174, 35.396721157013957 ], [ 138.915486074185196, 35.40505986958172 ] ] ] } },
{ "type": "Feature", "properties": { "pref_code": "15", "pref_name_ja": "新潟県", "statistical_unit_count": 8114, "tile_id": "JP_PREF_15", "area_km2": 12691.981555054024, "source": "e-Stat 2020 Census town/area statistical boundaries", "source_crs": "EPSG:4612 / JGD2000" }, "geometry": { "type": "MultiPolygon", "coordinates": [ [ [ [ 137.634671299048307, 36.9799567972332 ], [ 138.221250490958596, 37.171173731536854 ], [ 138.556242175952093, 37.380335321463555 ], [ 138.831886914570276, 37.809748302205627 ], [ 139.36680179848733, 38.098876933834305 ], [ 139.549076843750441, 38.553747954581986 ], [ 139.721559238726485, 38.496049981837928 ], [ 139.709162267914735, 38.396390274315074 ], [ 139.898748661466612, 38.293018391902301 ], [ 139.685640251166888, 38.174173682381664 ], [ 139.628035454033579, 37.908344293182864 ], [ 139.741501209698868, 37.818245569545333 ], [ 139.547629484606375, 37.632779930332532 ], [ 139.585200285248419, 37.51287266245604 ], [ 139.207677200046248, 37.428197545723492 ], [ 139.165550080113434, 37.236971126848537 ], [ 139.25389067400755, 37.165071008794797 ], [ 139.241192806530307, 36.941277507949778 ], [ 139.099140732760247, 37.055741099520205 ], [ 138.969414178192579, 36.976517418102837 ], [ 138.929833082413268, 36.832964319586488 ], [ 138.70343115311104, 36.736598107128387 ], [ 138.558989475353712, 37.022202510403247 ], [ 138.396251689637779, 36.995746598158419 ], [ 138.287455882889873, 36.84574889125529 ], [ 138.05396013156215, 36.800014766959237 ], [ 138.009766041076858, 36.90332756784634 ], [ 137.878739121320706, 36.910955063403563 ], [ 137.761743700099743, 36.766726360715857 ], [ 137.634671299048307, 36.9799567972332 ] ] ], [ [ [ 138.204044427094601, 37.822549953233313 ], [ 138.34314566578982, 37.967269112875911 ], [ 138.227239576645161, 37.979680813890923 ], [ 138.242276551811273, 38.087412081218275 ], [ 138.514587055767635, 38.332058276845366 ], [ 138.450212361418892, 38.134137835868664 ], [ 138.574577280128523, 38.062920748342016 ], [ 138.500720692627482, 37.919985076388741 ], [ 138.204044427094601, 37.822549953233313 ] ] ] ] } },
{ "type": "Feature", "properties": { "pref_code": "16", "pref_name_ja": "富山県", "statistical_unit_count": 3794, "tile_id": "JP_PREF_16", "area_km2": 4305.7909792985765, "source": "e-Stat 2020 Census town/area statistical boundaries", "source_crs": "EPSG:4612 / JGD2000" }, "geometry": { "type": "Polygon", "coordinates": [ [ [ 136.789453564589707, 36.718992932002614 ], [ 136.931488857735701, 36.950246560302602 ], [ 137.051690971132984, 36.959284019781634 ], [ 137.026233286438185, 36.823467128654862 ], [ 137.295043069886731, 36.757422572440142 ], [ 137.43557955615961, 36.930987512634601 ], [ 137.711247764435825, 36.944041235850158 ], [ 137.753024047960452, 36.593516515864785 ], [ 137.592163057572606, 36.389673723802453 ], [ 137.161917607213695, 36.454231194885836 ], [ 136.975330235898497, 36.27445867410195 ], [ 136.911678599789894, 36.357896969570731 ], [ 136.792184048129087, 36.299398164519992 ], [ 136.789453564589707, 36.718992932002614 ] ] ] } },
{ "type": "Feature", "properties": { "pref_code": "17", "pref_name_ja": "石川県", "statistical_unit_count": 3594, "tile_id": "JP_PREF_17", "area_km2": 4226.778739547126, "source": "e-Stat 2020 Census town/area statistical boundaries", "source_crs": "EPSG:4612 / JGD2000" }, "geometry": { "type": "Polygon", "coordinates": [ [ [ 136.243017321396366, 36.296858201844422 ], [ 136.746056382222321, 36.832292089530569 ], [ 136.766310280444117, 36.995373450547049 ], [ 136.66942255012961, 37.149891934270919 ], [ 136.73743199336792, 37.34766949297628 ], [ 137.34624906505158, 37.515750943834263 ], [ 137.23421451182918, 37.296852939167607 ], [ 136.893176775537199, 37.171205139206613 ], [ 137.04651100669966, 37.163268825947561 ], [ 137.056619507073663, 36.967725715822532 ], [ 136.888993925924268, 36.916489824763126 ], [ 136.794781366621919, 36.721582773776703 ], [ 136.773798823873506, 36.421317494517098 ], [ 136.852055959295939, 36.246900743348483 ], [ 136.755202214124068, 36.085668440647929 ], [ 136.357953133733247, 36.16532295947124 ], [ 136.243017321396366, 36.296858201844422 ] ] ] } },
{ "type": "Feature", "properties": { "pref_code": "18", "pref_name_ja": "福井県", "statistical_unit_count": 3001, "tile_id": "JP_PREF_18", "area_km2": 4214.839056491579, "source": "e-Stat 2020 Census town/area statistical boundaries", "source_crs": "EPSG:4612 / JGD2000" }, "geometry": { "type": "Polygon", "coordinates": [ [ [ 135.449366471288016, 35.525887502251841 ], [ 135.66083086183653, 35.547836767976719 ], [ 135.63340692704125, 35.484134604132038 ], [ 135.715375804012581, 35.489025532058641 ], [ 135.714425394707177, 35.569741309225542 ], [ 135.852749710394818, 35.581342450506568 ], [ 135.803900822430705, 35.639333780174375 ], [ 135.974490984241328, 35.624930584488204 ], [ 136.018003664170124, 35.76408222917329 ], [ 136.088248859048264, 35.711074209469949 ], [ 135.957733290141277, 35.98236646109256 ], [ 136.117605507101928, 36.252942396854351 ], [ 136.242413121697155, 36.296566057897969 ], [ 136.349654177989322, 36.170311464880669 ], [ 136.763826356518081, 36.074505579278828 ], [ 136.789273258947105, 35.799391219356451 ], [ 136.374028283069038, 35.79318992926035 ], [ 136.280859898173503, 35.658651178937227 ], [ 136.152437966074075, 35.694006431252312 ], [ 136.169793890365071, 35.565943441632257 ], [ 135.939545436834152, 35.508020441758461 ], [ 135.890437966612296, 35.403162162997347 ], [ 135.536010092135797, 35.376827716425787 ], [ 135.449366471288016, 35.525887502251841 ] ] ] } },
{ "type": "Feature", "properties": { "pref_code": "19", "pref_name_ja": "山梨県", "statistical_unit_count": 1364, "tile_id": "JP_PREF_19", "area_km2": 4470.5215256549864, "source": "e-Stat 2020 Census town/area statistical boundaries", "source_crs": "EPSG:4612 / JGD2000" }, "geometry": { "type": "Polygon", "coordinates": [ [ [ 138.18024030586281, 35.714389627805545 ], [ 138.232762597070263, 35.876482701896393 ], [ 138.381248048626873, 35.971883203502323 ], [ 138.473128506489218, 35.897468434062972 ], [ 138.945488792509508, 35.85429894349204 ], [ 139.13061792610597, 35.672808480248769 ], [ 139.129654052524728, 35.565945446790579 ], [ 138.873735907638093, 35.381779807168833 ], [ 138.680500054239758, 35.357715105328026 ], [ 138.561218604665413, 35.433588375657642 ], [ 138.4908018833261, 35.16844247344843 ], [ 138.364756924523675, 35.31124536750103 ], [ 138.254677616370515, 35.320288444306598 ], [ 138.18024030586281, 35.714389627805545 ] ] ] } },
{ "type": "Feature", "properties": { "pref_code": "20", "pref_name_ja": "長野県", "statistical_unit_count": 3572, "tile_id": "JP_PREF_20", "area_km2": 13555.248297828355, "source": "e-Stat 2020 Census town/area statistical boundaries", "source_crs": "EPSG:4612 / JGD2000" }, "geometry": { "type": "Polygon", "coordinates": [ [ [ 137.324605848061879, 35.811957076765992 ], [ 137.593028960992058, 36.011586953366226 ], [ 137.554693925271096, 36.140086758003825 ], [ 137.650594965045258, 36.322837774284658 ], [ 137.586836188315488, 36.388837340293868 ], [ 137.863347698870399, 36.912816619072935 ], [ 138.013746574879178, 36.904028923622214 ], [ 138.061894050229228, 36.803661849106085 ], [ 138.56574347497218, 37.021225511204939 ], [ 138.695738752719279, 36.738723065652685 ], [ 138.463072887255038, 36.634343318806231 ], [ 138.400942349271702, 36.441248922114696 ], [ 138.647814330843175, 36.40954655838582 ], [ 138.593907884388017, 36.151104334015336 ], [ 138.728719582654094, 35.90925410991391 ], [ 138.472187783152293, 35.895974423380785 ], [ 138.377228497996128, 35.971206950521065 ], [ 138.239423984593572, 35.882859513777909 ], [ 138.141723658956721, 35.369899914946117 ], [ 137.779034721120155, 35.202628706363782 ], [ 137.577613617006051, 35.199311161040676 ], [ 137.62664470606552, 35.511512401370929 ], [ 137.462042233478712, 35.757533389154837 ], [ 137.324605848061879, 35.811957076765992 ] ] ] } },
{ "type": "Feature", "properties": { "pref_code": "21", "pref_name_ja": "岐阜県", "statistical_unit_count": 7835, "tile_id": "JP_PREF_21", "area_km2": 10620.038155844919, "source": "e-Stat 2020 Census town/area statistical boundaries", "source_crs": "EPSG:4612 / JGD2000" }, "geometry": { "type": "Polygon", "coordinates": [ [ [ 136.276033947093993, 35.653159019205617 ], [ 136.376678028042619, 35.795119283533509 ], [ 136.828933224185846, 35.849610547554839 ], [ 136.726654322207878, 35.995860263489298 ], [ 136.869326946379999, 36.366661975647965 ], [ 136.977433939134556, 36.278052221009844 ], [ 137.159667555709632, 36.456749028640509 ], [ 137.279077412427512, 36.464963554039144 ], [ 137.647327212374279, 36.341833858255129 ], [ 137.558045528205298, 36.138133982994695 ], [ 137.594702368854627, 36.012856163853165 ], [ 137.32763863986645, 35.817698547686398 ], [ 137.464774341083171, 35.756463014653079 ], [ 137.631705200663589, 35.509900625504443 ], [ 137.561558459775654, 35.283010446226534 ], [ 137.429803738099764, 35.222834160345684 ], [ 137.305403938783343, 35.290025430588415 ], [ 137.186328202107376, 35.253088624623757 ], [ 136.969346692968855, 35.405494405495354 ], [ 136.769229713126833, 35.36800407139588 ], [ 136.622797512991639, 35.146680289690607 ], [ 136.530407427304624, 35.254348465723169 ], [ 136.377413579250685, 35.243135803170155 ], [ 136.440959525721553, 35.38962846464166 ], [ 136.276033947093993, 35.653159019205617 ] ] ] } },
{ "type": "Feature", "properties": { "pref_code": "22", "pref_name_ja": "静岡県", "statistical_unit_count": 5189, "tile_id": "JP_PREF_22", "area_km2": 7788.7986916010505, "source": "e-Stat 2020 Census town/area statistical boundaries", "source_crs": "EPSG:4612 / JGD2000" }, "geometry": { "type": "Polygon", "coordinates": [ [ [ 137.827717511956166, 35.211354668396552 ], [ 138.139781759035685, 35.37021531255435 ], [ 138.21872847954549, 35.644590148101592 ], [ 138.25581860770356, 35.321213243646092 ], [ 138.358444887566918, 35.317522898592024 ], [ 138.431671221731989, 35.180512692709421 ], [ 138.529037896823752, 35.204290021634804 ], [ 138.58138002242822, 35.445660301404608 ], [ 138.687845163101969, 35.359478236689718 ], [ 138.998758733632314, 35.402151605951396 ], [ 138.988811714247788, 35.203412094523124 ], [ 139.111485572844288, 35.141472917609818 ], [ 139.140737946266285, 34.890884011038082 ], [ 138.991371391119543, 34.659679555274707 ], [ 138.84338682934694, 34.600906866660168 ], [ 138.739095813320262, 34.690140148301417 ], [ 138.76228993889103, 34.97139697264469 ], [ 138.887608294708656, 35.042668111205955 ], [ 138.740285043537256, 35.133809161607552 ], [ 138.562536285315815, 35.10345350503485 ], [ 138.516369694703997, 34.984348925849304 ], [ 138.357524946412866, 34.914515682676452 ], [ 138.195660105531999, 34.665697719121241 ], [ 138.225646606125395, 34.594583981059834 ], [ 137.48510956174772, 34.673927521378836 ], [ 137.827717511956166, 35.211354668396552 ] ] ] } },
{ "type": "Feature", "properties": { "pref_code": "23", "pref_name_ja": "愛知県", "statistical_unit_count": 14687, "tile_id": "JP_PREF_23", "area_km2": 5394.2172469389316, "source": "e-Stat 2020 Census town/area statistical boundaries", "source_crs": "EPSG:4612 / JGD2000" }, "geometry": { "type": "Polygon", "coordinates": [ [ [ 136.671825785070325, 35.187792602923118 ], [ 136.769160740626461, 35.367988082576765 ], [ 136.989725416191362, 35.424748760195563 ], [ 137.187362950257466, 35.254519562070961 ], [ 137.307993912190454, 35.291089897535777 ], [ 137.432549125312448, 35.227685699847051 ], [ 137.56579075165115, 35.29012945842917 ], [ 137.58575173258015, 35.20004718085773 ], [ 137.838136999549505, 35.21249791947465 ], [ 137.640016937813328, 34.89236774544824 ], [ 137.502642824462356, 34.829852832633669 ], [ 137.485254292169088, 34.673942474958068 ], [ 137.036219588091598, 34.57809600455537 ], [ 137.06860801359494, 34.660677174152269 ], [ 137.230897698297071, 34.695735111431297 ], [ 137.161646049434381, 34.777210847914624 ], [ 136.943650314234475, 34.814152401561138 ], [ 136.974310821534658, 34.695768067749249 ], [ 136.85921359972113, 34.738481379134768 ], [ 136.671825785070325, 35.187792602923118 ] ] ] } },
{ "type": "Feature", "properties": { "pref_code": "24", "pref_name_ja": "三重県", "statistical_unit_count": 3558, "tile_id": "JP_PREF_24", "area_km2": 5876.2604813966773, "source": "e-Stat 2020 Census town/area statistical boundaries", "source_crs": "EPSG:4612 / JGD2000" }, "geometry": { "type": "Polygon", "coordinates": [ [ [ 135.852884421249087, 33.859348009596602 ], [ 136.098523685978535, 34.033413132820357 ], [ 136.06903436865835, 34.393927171326332 ], [ 136.220748057733573, 34.489133232277339 ], [ 136.046512335047197, 34.584713891814864 ], [ 136.01996921113394, 34.790536623965025 ], [ 136.110843135780442, 34.901845586622791 ], [ 136.358585882736122, 34.902551647109291 ], [ 136.4155024447534, 35.219480149501791 ], [ 136.534221448429321, 35.257094307162525 ], [ 136.771862755159816, 35.024373109286948 ], [ 136.551392023504178, 34.783321114361975 ], [ 136.55012260401287, 34.630619952988702 ], [ 136.775001706045515, 34.50965429085614 ], [ 136.916819473372641, 34.544529291295632 ], [ 136.901797855106736, 34.278424079667211 ], [ 136.668422185190394, 34.299913524315457 ], [ 136.351711564309682, 34.183966111690175 ], [ 136.245360120793151, 34.052259882358854 ], [ 136.272122190954263, 33.972568765458846 ], [ 136.099565620096314, 33.884121989236341 ], [ 136.017798937885971, 33.730554588751922 ], [ 135.852884421249087, 33.859348009596602 ] ] ] } },
{ "type": "Feature", "properties": { "pref_code": "25", "pref_name_ja": "滋賀県", "statistical_unit_count": 2826, "tile_id": "JP_PREF_25", "area_km2": 4017.0259496575031, "source": "e-Stat 2020 Census town/area statistical boundaries", "source_crs": "EPSG:4612 / JGD2000" }, "geometry": { "type": "Polygon", "coordinates": [ [ [ 135.763687148280695, 35.345455931151562 ], [ 135.939461850061718, 35.520328624590583 ], [ 136.163304310459665, 35.574996249296994 ], [ 136.150657726870605, 35.698062066731595 ], [ 136.28070030875233, 35.661061353238956 ], [ 136.444376614547508, 35.389479904636758 ], [ 136.365960789627565, 34.904984725060046 ], [ 136.134901817568476, 34.884748021910184 ], [ 136.028158742675032, 34.790939837162092 ], [ 135.885038158016471, 34.87559780967694 ], [ 135.81484364046517, 35.045392584112342 ], [ 135.844616682187336, 35.267048295174575 ], [ 135.763687148280695, 35.345455931151562 ] ] ] } },
{ "type": "Feature", "properties": { "pref_code": "26", "pref_name_ja": "京都府", "statistical_unit_count": 9572, "tile_id": "JP_PREF_26", "area_km2": 4628.8620834567864, "source": "e-Stat 2020 Census town/area statistical boundaries", "source_crs": "EPSG:4612 / JGD2000" }, "geometry": { "type": "Polygon", "coordinates": [ [ [ 134.85371043598812, 35.589188124570164 ], [ 134.870167496990717, 35.65966742703543 ], [ 135.223178988483909, 35.779294486615747 ], [ 135.308654982361531, 35.693562098197376 ], [ 135.206004128019885, 35.567333786927264 ], [ 135.254473681285276, 35.599522557335412 ], [ 135.307670650705745, 35.513369618507859 ], [ 135.478248978082462, 35.605884749332503 ], [ 135.531701357908815, 35.379551610350489 ], [ 135.858282977783261, 35.28922068058192 ], [ 135.86802797880884, 34.894446168771061 ], [ 136.055728605808952, 34.737654924955812 ], [ 135.755228658825757, 34.727845125015911 ], [ 135.612148361149224, 34.967392814206924 ], [ 135.540839062230134, 34.915350767289517 ], [ 135.38164442377942, 35.010311257246698 ], [ 135.381959770167754, 35.127300991193252 ], [ 134.924774448220433, 35.311672497516682 ], [ 134.932893493725828, 35.406641533956545 ], [ 135.047026189808207, 35.414565777886494 ], [ 135.043007863067999, 35.518135969261138 ], [ 134.85371043598812, 35.589188124570164 ] ] ] } },
{ "type": "Feature", "properties": { "pref_code": "27", "pref_name_ja": "大阪府", "statistical_unit_count": 8943, "tile_id": "JP_PREF_27", "area_km2": 1968.181815909441, "source": "e-Stat 2020 Census town/area statistical boundaries", "source_crs": "EPSG:4612 / JGD2000" }, "geometry": { "type": "Polygon", "coordinates": [ [ [ 135.091853829434854, 34.312741902473533 ], [ 135.223823675996357, 34.348032616490862 ], [ 135.292278628170152, 34.413524635967065 ], [ 135.20087174444464, 34.428148168883318 ], [ 135.303198208625105, 34.416904666101239 ], [ 135.401571786457282, 34.545346883943729 ], [ 135.344706699672599, 34.621582019053498 ], [ 135.459399201769486, 34.741632503494969 ], [ 135.441885856912535, 34.928847337322935 ], [ 135.333726747940119, 35.039695731999714 ], [ 135.545430454901151, 34.918834194551863 ], [ 135.613330277372995, 34.971213927680267 ], [ 135.746780759312145, 34.801532715491931 ], [ 135.65756203435339, 34.614709508762147 ], [ 135.676145534466968, 34.399132239888083 ], [ 135.091853829434854, 34.312741902473533 ] ] ] } },
{ "type": "Feature", "properties": { "pref_code": "28", "pref_name_ja": "兵庫県", "statistical_unit_count": 10041, "tile_id": "JP_PREF_28", "area_km2": 8529.0924679901727, "source": "e-Stat 2020 Census town/area statistical boundaries", "source_crs": "EPSG:4612 / JGD2000" }, "geometry": { "type": "MultiPolygon", "coordinates": [ [ [ [ 134.252726043508289, 34.851787272689805 ], [ 134.381969344625986, 35.220683401810071 ], [ 134.512575812847587, 35.280934946849158 ], [ 134.370016907900663, 35.614216506718464 ], [ 134.538768325183696, 35.670386833831515 ], [ 134.867647495468844, 35.659096813512271 ], [ 134.92725124192134, 35.515080886435143 ], [ 135.036545231051718, 35.539150512516457 ], [ 135.049082123154676, 35.407660872793059 ], [ 134.935209647065363, 35.406924874329128 ], [ 134.927205617902189, 35.312313742141541 ], [ 135.389663908783575, 35.128756066622756 ], [ 135.349219455180986, 34.967997038546471 ], [ 135.46839454588644, 34.926670326269139 ], [ 135.459883445277853, 34.733316539145527 ], [ 135.24398066036585, 34.617641700285517 ], [ 134.966336155050072, 34.643958279008181 ], [ 134.751865849915163, 34.753865787291602 ], [ 134.321761601541311, 34.721812228431034 ], [ 134.252726043508289, 34.851787272689805 ] ] ], [ [ [ 134.65850593687901, 34.241789423346894 ], [ 135.004179547375003, 34.608500627853445 ], [ 134.895148625774652, 34.399511844602813 ], [ 134.951679753737807, 34.266649148890075 ], [ 134.734139893571779, 34.188745581264691 ], [ 134.65850593687901, 34.241789423346894 ] ] ] ] } },
{ "type": "Feature", "properties": { "pref_code": "29", "pref_name_ja": "奈良県", "statistical_unit_count": 3165, "tile_id": "JP_PREF_29", "area_km2": 3690.8703381503528, "source": "e-Stat 2020 Census town/area statistical boundaries", "source_crs": "EPSG:4612 / JGD2000" }, "geometry": { "type": "Polygon", "coordinates": [ [ [ 135.539701864524289, 34.075554139121515 ], [ 135.728898301482076, 34.2278728875499 ], [ 135.651153081868955, 34.381294094104177 ], [ 135.709672426176667, 34.780325352296529 ], [ 135.854236127170253, 34.706692714252881 ], [ 136.057598638639547, 34.737147060301936 ], [ 136.053051821829598, 34.581810478134258 ], [ 136.230035350230111, 34.492371799566186 ], [ 136.075022657003672, 34.400600336139178 ], [ 136.10430922203588, 34.025718714626947 ], [ 135.921589365349519, 33.977684913778916 ], [ 135.872936845688486, 33.859079827454266 ], [ 135.617786973200367, 33.87202588882046 ], [ 135.637748473750037, 33.984746291540162 ], [ 135.539701864524289, 34.075554139121515 ] ] ] } },
{ "type": "Feature", "properties": { "pref_code": "30", "pref_name_ja": "和歌山県", "statistical_unit_count": 2665, "tile_id": "JP_PREF_30", "area_km2": 4807.2539374281414, "source": "e-Stat 2020 Census town/area statistical boundaries", "source_crs": "EPSG:4612 / JGD2000" }, "geometry": { "type": "Polygon", "coordinates": [ [ [ 134.997970561537812, 34.269139153825357 ], [ 135.651166044651006, 34.383204482311911 ], [ 135.73023345576641, 34.228319981948644 ], [ 135.549581039023167, 34.096382503555731 ], [ 135.61066084299614, 33.904350011355788 ], [ 135.880150415538992, 33.917964503461619 ], [ 135.858514962117908, 33.815970717828307 ], [ 136.012942345218619, 33.727251714340625 ], [ 135.961151463402246, 33.581492739949127 ], [ 135.798075853444885, 33.496323015129576 ], [ 135.853544802419748, 33.459929414030462 ], [ 135.753322381986663, 33.432861343073426 ], [ 135.446870206910887, 33.549395424295938 ], [ 135.33046345320912, 33.667590654900529 ], [ 135.371306867939097, 33.723604294409036 ], [ 135.057724494806308, 33.879795389851502 ], [ 135.059011391652746, 33.977526705128497 ], [ 135.159116413373368, 34.034390628358189 ], [ 135.074976546503393, 34.113044384324034 ], [ 135.173332684070658, 34.155785298548032 ], [ 134.997970561537812, 34.269139153825357 ] ] ] } },
{ "type": "Feature", "properties": { "pref_code": "31", "pref_name_ja": "鳥取県", "statistical_unit_count": 2503, "tile_id": "JP_PREF_31", "area_km2": 3507.6069845019551, "source": "e-Stat 2020 Census town/area statistical boundaries", "source_crs": "EPSG:4612 / JGD2000" }, "geometry": { "type": "Polygon", "coordinates": [ [ [ 133.134921672268177, 35.093347560683242 ], [ 133.152554380959657, 35.21894764637036 ], [ 133.307938753694714, 35.272009963852881 ], [ 133.22709295484853, 35.54759666696944 ], [ 133.401538937145716, 35.453914450153597 ], [ 133.56386540301736, 35.530569144908235 ], [ 134.068627344148638, 35.519927557940733 ], [ 134.370026071797867, 35.614210053831457 ], [ 134.513763022543856, 35.353789372519437 ], [ 134.463498269600024, 35.236831218159693 ], [ 134.17711909929173, 35.16924779827535 ], [ 134.004045777729317, 35.351043885483946 ], [ 133.832376720297106, 35.248863357927604 ], [ 133.600154802060786, 35.341085159358173 ], [ 133.403326213706691, 35.114272621229084 ], [ 133.134921672268177, 35.093347560683242 ] ] ] } },
{ "type": "Feature", "properties": { "pref_code": "32", "pref_name_ja": "島根県", "statistical_unit_count": 1735, "tile_id": "JP_PREF_32", "area_km2": 6727.7870781861848, "source": "e-Stat 2020 Census town/area statistical boundaries", "source_crs": "EPSG:4612 / JGD2000" }, "geometry": { "type": "MultiPolygon", "coordinates": [ [ [ [ 133.176584346359505, 36.25472553279694 ], [ 133.276656543928851, 36.356058362564873 ], [ 133.386891953277654, 36.270504917117918 ], [ 133.255175027648903, 36.153135202968258 ], [ 133.176584346359505, 36.25472553279694 ] ] ], [ [ [ 131.667905436555145, 34.504089602096165 ], [ 131.69892837776726, 34.690093600779946 ], [ 131.844367347572188, 34.708308219548954 ], [ 132.629184153682786, 35.288820202909882 ], [ 132.628962010182761, 35.43476299077841 ], [ 133.084567528249011, 35.60433015638781 ], [ 133.329810110287355, 35.570019302626761 ], [ 133.199402087848483, 35.531628384230451 ], [ 133.324434844512268, 35.373964324270638 ], [ 133.310585206029685, 35.267937442832441 ], [ 133.166292266517473, 35.222805549007532 ], [ 133.140917396705589, 35.075734637833605 ], [ 132.884852746521602, 35.104742018276603 ], [ 132.65018357758774, 34.916086758012526 ], [ 132.698435739324026, 34.842984263558975 ], [ 132.248168911884619, 34.805212739409093 ], [ 131.959180565277279, 34.306452518382649 ], [ 131.797533582313037, 34.317776091412284 ], [ 131.791855999981351, 34.43038936203147 ], [ 131.667905436555145, 34.504089602096165 ] ] ], [ [ [ 132.945970610995886, 36.079874135122523 ], [ 133.072718393874425, 36.154701908197019 ], [ 133.152575681148477, 36.074667397431433 ], [ 132.988276222626723, 36.082067741800806 ], [ 133.033836306283888, 35.991270172108045 ], [ 132.945970610995886, 36.079874135122523 ] ] ] ] } },
{ "type": "Feature", "properties": { "pref_code": "33", "pref_name_ja": "岡山県", "statistical_unit_count": 5336, "tile_id": "JP_PREF_33", "area_km2": 7210.346693660731, "source": "e-Stat 2020 Census town/area statistical boundaries", "source_crs": "EPSG:4612 / JGD2000" }, "geometry": { "type": "Polygon", "coordinates": [ [ [ 133.266737487209298, 35.053325387851579 ], [ 133.518430858046941, 35.195604084997498 ], [ 133.596654519102486, 35.345121896106129 ], [ 133.830967825193426, 35.249393836427785 ], [ 134.01476282002605, 35.350142771529931 ], [ 134.174449980336561, 35.172683526695018 ], [ 134.393332155134743, 35.252711778089072 ], [ 134.412444096917568, 35.184286533645476 ], [ 134.268525598375049, 35.016123256699366 ], [ 134.34268133574983, 34.703515780299227 ], [ 134.037103172588672, 34.574200404255436 ], [ 133.945507222809709, 34.448936934217848 ], [ 133.772906231100023, 34.415525012727933 ], [ 133.60133976199009, 34.492300505818399 ], [ 133.515002195263975, 34.443003315777311 ], [ 133.573617806786899, 34.347706201424813 ], [ 133.383595132839019, 34.619771754956595 ], [ 133.266737487209298, 35.053325387851579 ] ] ] } },
{ "type": "Feature", "properties": { "pref_code": "34", "pref_name_ja": "広島県", "statistical_unit_count": 4532, "tile_id": "JP_PREF_34", "area_km2": 8602.4950630472449, "source": "e-Stat 2020 Census town/area statistical boundaries", "source_crs": "EPSG:4612 / JGD2000" }, "geometry": { "type": "Polygon", "coordinates": [ [ [ 132.036218112108116, 34.501637810163501 ], [ 132.241937304732119, 34.806132668515325 ], [ 132.701019281099803, 34.850028564056466 ], [ 132.634055780994288, 34.905088696410935 ], [ 132.888133705705911, 35.105769447801947 ], [ 133.249585015665076, 35.079138164006096 ], [ 133.31944676135771, 35.008664850183436 ], [ 133.456441115112028, 34.499870597847348 ], [ 133.401127557519317, 34.378072801271784 ], [ 133.181641204496231, 34.354203675914562 ], [ 133.196045815218866, 34.275432674210933 ], [ 133.072248360968302, 34.260122669685153 ], [ 133.061805308429513, 34.344963299832585 ], [ 132.807591318745381, 34.309873165886394 ], [ 132.703144115073428, 34.206854197555053 ], [ 132.842271940711584, 34.193212886890272 ], [ 132.835682721030736, 34.255107765795231 ], [ 132.944556658537152, 34.283940928158955 ], [ 132.795421956654224, 34.114903895797333 ], [ 132.558064529124749, 34.19686063718634 ], [ 132.593014833184128, 34.115172647967398 ], [ 132.521710955188041, 34.038752210759306 ], [ 132.357054801695654, 34.280129954891272 ], [ 132.144332230444832, 34.236850398976152 ], [ 132.036218112108116, 34.501637810163501 ] ] ] } },
{ "type": "Feature", "properties": { "pref_code": "35", "pref_name_ja": "山口県", "statistical_unit_count": 4303, "tile_id": "JP_PREF_35", "area_km2": 6488.7707469758016, "source": "e-Stat 2020 Census town/area statistical boundaries", "source_crs": "EPSG:4612 / JGD2000" }, "geometry": { "type": "Polygon", "coordinates": [ [ [ 130.838221586474248, 34.35124674934179 ], [ 131.001627625951841, 34.374552383505716 ], [ 130.932212077698836, 34.39257664116591 ], [ 130.972391045693882, 34.442350663675967 ], [ 131.302310851618245, 34.384373745519468 ], [ 131.587477110645665, 34.678119053696967 ], [ 131.690110262490805, 34.681476360141204 ], [ 131.673471623284428, 34.504557407709235 ], [ 131.793812243390136, 34.436410380275142 ], [ 131.799520011338814, 34.318525438421773 ], [ 131.969486099054535, 34.324830409324683 ], [ 132.067603017082234, 34.468157514530517 ], [ 132.148155513021123, 34.239070454262318 ], [ 132.268479429634908, 34.213493083725133 ], [ 132.31939036122489, 34.118992348722237 ], [ 132.213339246524953, 34.079351801908047 ], [ 132.192146223833817, 33.955995185438717 ], [ 132.49175827123787, 33.955502012448342 ], [ 132.372374459912095, 33.848022546998301 ], [ 132.300595936899697, 33.895460443967565 ], [ 132.201108790049574, 33.846091050461851 ], [ 132.137100933946272, 33.955064722670905 ], [ 132.160037373908409, 33.849749976476815 ], [ 132.0513036179388, 33.771661340520559 ], [ 132.038226937490492, 33.90068666153423 ], [ 131.818073276343199, 33.92906112206029 ], [ 131.687135452185373, 34.047234726631181 ], [ 131.48439276284364, 33.956469794583853 ], [ 131.388153080930209, 34.024722404465287 ], [ 131.245931870153044, 33.882480016463312 ], [ 131.075794581072159, 34.034686294971387 ], [ 130.911255681784297, 33.909712315135224 ], [ 130.860470070299243, 34.110827697262067 ], [ 130.931351992553346, 34.197838367546808 ], [ 130.838221586474248, 34.35124674934179 ] ] ] } },
{ "type": "Feature", "properties": { "pref_code": "36", "pref_name_ja": "徳島県", "statistical_unit_count": 1661, "tile_id": "JP_PREF_36", "area_km2": 4163.3396896692293, "source": "e-Stat 2020 Census town/area statistical boundaries", "source_crs": "EPSG:4612 / JGD2000" }, "geometry": { "type": "Polygon", "coordinates": [ [ [ 133.660820847520256, 33.881637590482974 ], [ 133.679224499949044, 34.01207120379997 ], [ 133.778446114188654, 34.079306081270587 ], [ 133.995339908546299, 34.074866259726441 ], [ 134.173840544633208, 34.177434051918304 ], [ 134.417951423933289, 34.160625416321459 ], [ 134.606011873889798, 34.252031325334777 ], [ 134.598625592284066, 34.005353169976551 ], [ 134.750274485921551, 33.834534352918787 ], [ 134.399078073468701, 33.653219470050807 ], [ 134.320811930089803, 33.539739794360635 ], [ 134.193265812884874, 33.561588279717576 ], [ 134.166942019287603, 33.685673756013919 ], [ 134.058331534059761, 33.690981489472264 ], [ 134.029069435562178, 33.823558754559542 ], [ 133.913270134403575, 33.790261959969996 ], [ 133.660820847520256, 33.881637590482974 ] ] ] } },
{ "type": "Feature", "properties": { "pref_code": "37", "pref_name_ja": "香川県", "statistical_unit_count": 1010, "tile_id": "JP_PREF_37", "area_km2": 1907.9504416862264, "source": "e-Stat 2020 Census town/area statistical boundaries", "source_crs": "EPSG:4612 / JGD2000" }, "geometry": { "type": "MultiPolygon", "coordinates": [ [ [ [ 133.557517274233504, 34.261352878496339 ], [ 133.72473975514913, 34.255145749061377 ], [ 133.821103418407944, 34.325316688021395 ], [ 133.754987176071154, 34.370480753708875 ], [ 133.795888458859423, 34.42570939176565 ], [ 133.829741515044702, 34.364980129541181 ], [ 134.015009402299739, 34.356759997539896 ], [ 134.061173980606327, 34.433935556523423 ], [ 134.440697661082936, 34.199650083126777 ], [ 133.679556592086527, 34.012564360106751 ], [ 133.59820661582711, 34.04280615523323 ], [ 133.6474655494915, 34.175253660334519 ], [ 133.557517274233504, 34.261352878496339 ] ] ], [ [ [ 134.136250205688299, 34.476523893298022 ], [ 134.366898558334668, 34.561297766433789 ], [ 134.349268756203742, 34.436824346729885 ], [ 134.136250205688299, 34.476523893298022 ] ] ] ] } },
{ "type": "Feature", "properties": { "pref_code": "38", "pref_name_ja": "愛媛県", "statistical_unit_count": 3160, "tile_id": "JP_PREF_38", "area_km2": 5741.7536439322585, "source": "e-Stat 2020 Census town/area statistical boundaries", "source_crs": "EPSG:4612 / JGD2000" }, "geometry": { "type": "MultiPolygon", "coordinates": [ [ [ [ 132.013400786321995, 33.343233998925385 ], [ 132.653069992384616, 33.697542258790179 ], [ 132.63739882441692, 33.895301814778882 ], [ 132.752537992603806, 33.909923601083854 ], [ 132.891531820322427, 34.118780039842342 ], [ 133.011921733564151, 34.13034167136437 ], [ 133.027889788216015, 34.209023929541168 ], [ 132.861357383150107, 34.193344196794548 ], [ 132.987192182784781, 34.231407709397679 ], [ 132.974454155399116, 34.297652829136595 ], [ 133.130870021078863, 34.218891887352342 ], [ 133.237702977153646, 34.280740443677011 ], [ 132.984655396615295, 34.105538934033142 ], [ 133.133563316857106, 33.92905164524668 ], [ 133.598395654027655, 34.04351128388705 ], [ 133.685080143050328, 34.007073622765951 ], [ 133.660727178498064, 33.881599412395509 ], [ 133.1958381013973, 33.792798075797911 ], [ 133.015251001288107, 33.480823654546597 ], [ 132.816007412003074, 33.464280349361488 ], [ 132.900398983051872, 33.319266938068694 ], [ 132.695883285415619, 33.137482579178482 ], [ 132.619827119679741, 33.174270372981468 ], [ 132.655411358271181, 32.925115308564394 ], [ 132.425133951937454, 32.927812970395948 ], [ 132.501892423169039, 33.005060529522503 ], [ 132.378280060550594, 33.023496753055717 ], [ 132.470665365049825, 33.105597066928645 ], [ 132.33642283287611, 33.208734607207674 ], [ 132.480129882896819, 33.185269383667269 ], [ 132.519937903036464, 33.251099080726277 ], [ 132.370718772363574, 33.318751055485954 ], [ 132.36725402223081, 33.475712763909712 ], [ 132.013400786321995, 33.343233998925385 ] ] ], [ [ [ 132.577977848578314, 33.968776388955177 ], [ 132.658353713809447, 34.018191100813382 ], [ 132.697189293716121, 33.966122191369557 ], [ 132.577977848578314, 33.968776388955177 ] ] ] ] } },
{ "type": "Feature", "properties": { "pref_code": "39", "pref_name_ja": "高知県", "statistical_unit_count": 2308, "tile_id": "JP_PREF_39", "area_km2": 7140.8806268613835, "source": "e-Stat 2020 Census town/area statistical boundaries", "source_crs": "EPSG:4612 / JGD2000" }, "geometry": { "type": "Polygon", "coordinates": [ [ [ 132.614940783984707, 33.169610087766387 ], [ 132.693746505521858, 33.141578452109179 ], [ 132.896929848520074, 33.314523897466913 ], [ 132.810013981349613, 33.464951704471559 ], [ 133.009605776989559, 33.47945165572272 ], [ 133.07529712574464, 33.650998037357837 ], [ 133.277266751162927, 33.830909983681025 ], [ 133.643786971292229, 33.883194468542229 ], [ 133.904697165793266, 33.795246724136064 ], [ 134.03288915688205, 33.828316562520811 ], [ 134.067361306224257, 33.693754369894918 ], [ 134.174825062953857, 33.684583364828832 ], [ 134.195713776211477, 33.568295945115871 ], [ 134.313969047161834, 33.538155381982207 ], [ 134.175624670802932, 33.243997175212137 ], [ 133.934560429473947, 33.486871867921103 ], [ 133.741646788589321, 33.537506381200146 ], [ 133.2772156036784, 33.374982662118548 ], [ 133.22331797241489, 33.153471577989258 ], [ 133.002306183650063, 32.989717724206066 ], [ 132.951801987094768, 32.817995342816396 ], [ 133.020788954043041, 32.723353865497948 ], [ 132.892428940041327, 32.789059077063314 ], [ 132.62514593367834, 32.755172963313022 ], [ 132.687654531767237, 32.973201205104999 ], [ 132.614940783984707, 33.169610087766387 ] ] ] } },
{ "type": "Feature", "properties": { "pref_code": "40", "pref_name_ja": "福岡県", "statistical_unit_count": 7835, "tile_id": "JP_PREF_40", "area_km2": 5249.8064200328108, "source": "e-Stat 2020 Census town/area statistical boundaries", "source_crs": "EPSG:4612 / JGD2000" }, "geometry": { "type": "Polygon", "coordinates": [ [ [ 130.039731243247132, 33.469878888688932 ], [ 130.224887843418685, 33.693538769648505 ], [ 130.344168796166372, 33.661537952715364 ], [ 130.450120647508982, 33.727840895678256 ], [ 130.468849302252721, 33.864821604217198 ], [ 130.724957296348123, 33.940305635758456 ], [ 130.727158420687488, 34.026266890818718 ], [ 130.90679829809693, 33.906748360710701 ], [ 131.030221546161869, 33.974845085356286 ], [ 131.038859146787928, 33.835436843685521 ], [ 130.97585204996912, 33.818759192564492 ], [ 131.095657104333299, 33.626129869673662 ], [ 131.184803780073651, 33.62039972072143 ], [ 131.177198667975802, 33.507191101337 ], [ 130.899006300871008, 33.444916083287374 ], [ 130.853419145633779, 33.10919570481957 ], [ 130.677358379665691, 33.162573308098445 ], [ 130.505556828132427, 33.002907859911637 ], [ 130.389839161711279, 32.998011238350479 ], [ 130.339433072028271, 33.203588657858177 ], [ 130.535228345465612, 33.347907229640114 ], [ 130.532612204230787, 33.439919332085523 ], [ 130.411289486834846, 33.395024150024959 ], [ 130.273453493068047, 33.47852525873035 ], [ 130.039731243247132, 33.469878888688932 ] ] ] } },
{ "type": "Feature", "properties": { "pref_code": "41", "pref_name_ja": "佐賀県", "statistical_unit_count": 2300, "tile_id": "JP_PREF_41", "area_km2": 2465.2527430876867, "source": "e-Stat 2020 Census town/area statistical boundaries", "source_crs": "EPSG:4612 / JGD2000" }, "geometry": { "type": "Polygon", "coordinates": [ [ [ 129.758943895234552, 33.290645675245329 ], [ 129.863964268259309, 33.378373804073213 ], [ 129.78285638960844, 33.451312919236791 ], [ 129.881046146077296, 33.567677150820501 ], [ 130.002265185366042, 33.44658912674052 ], [ 130.541112182147174, 33.420578760861254 ], [ 130.345570918806914, 33.141275389232007 ], [ 130.240702951475129, 33.192171858816884 ], [ 130.134883990748421, 33.108786637386679 ], [ 130.218074203169692, 32.950550142900369 ], [ 130.008541235284611, 33.019464323153201 ], [ 129.758943895234552, 33.290645675245329 ] ] ] } },
{ "type": "Feature", "properties": { "pref_code": "42", "pref_name_ja": "長崎県", "statistical_unit_count": 4231, "tile_id": "JP_PREF_42", "area_km2": 4189.9729969635673, "source": "e-Stat 2020 Census town/area statistical boundaries", "source_crs": "EPSG:4612 / JGD2000" }, "geometry": { "type": "MultiPolygon", "coordinates": [ [ [ [ 129.331792019042524, 33.178113095734936 ], [ 129.437051735487131, 33.297537758013867 ], [ 129.43437263749172, 33.442613538355452 ], [ 129.446986112659772, 33.350422085943165 ], [ 129.535479167608088, 33.414287287857256 ], [ 129.640371304331381, 33.369019738639381 ], [ 129.694970963332651, 33.430271180189173 ], [ 129.708108329564453, 33.349365628752714 ], [ 129.829971822171132, 33.406828707616107 ], [ 129.761602256230276, 33.295346079507624 ], [ 129.818805012784367, 33.184999790960163 ], [ 130.202887112370291, 32.95832908859451 ], [ 130.144168608710828, 32.85158245532844 ], [ 130.340997193568853, 32.855256841079822 ], [ 130.35938479536452, 32.688648914797433 ], [ 130.167572223132765, 32.590574159870783 ], [ 130.125559072771296, 32.687974251490608 ], [ 130.208927027045007, 32.7455035845664 ], [ 130.087685757617066, 32.793364939059579 ], [ 129.77517698412521, 32.549163649436622 ], [ 129.79303356949174, 32.776238992626304 ], [ 129.584541286985967, 32.937369148745141 ], [ 129.645041208682841, 33.024586847515415 ], [ 129.534292306639827, 33.007888774513212 ], [ 129.673440164398357, 33.08868579149032 ], [ 129.544901349680345, 33.230343296617647 ], [ 129.569275896961926, 33.350892155912653 ], [ 129.437753022756368, 33.193273894605518 ], [ 129.331792019042524, 33.178113095734936 ] ], [ [ 129.758621407561947, 33.034494929561284 ], [ 129.828551498995182, 32.853211056531478 ], [ 129.979399252293945, 32.85284671620353 ], [ 129.900286227310971, 32.928114162576009 ], [ 129.931530512945784, 33.026384351340219 ], [ 129.758621407561947, 33.034494929561284 ] ] ], [ [ [ 129.624237905925384, 33.728898380955847 ], [ 129.673592457553013, 33.868755988356227 ], [ 129.772900787971452, 33.842627736913443 ], [ 129.789393450926838, 33.741048046512162 ], [ 129.624237905925384, 33.728898380955847 ] ] ], [ [ [ 129.166404175729411, 34.098504067526143 ], [ 129.319612783850317, 34.647033414595249 ], [ 129.450204836598488, 34.726308105488933 ], [ 129.497512242253748, 34.668598697443983 ], [ 129.379566248580801, 34.450021759736288 ], [ 129.413279183637911, 34.31634714957584 ], [ 129.282337300842272, 34.130619683724511 ], [ 129.166404175729411, 34.098504067526143 ] ] ], [ [ [ 128.597989991273494, 32.613070441910857 ], [ 128.663785223336447, 32.78466810517655 ], [ 128.872354448387654, 32.748167257972774 ], [ 128.835089624926184, 32.835725266101868 ], [ 128.964890252201229, 32.882540930759426 ], [ 129.137250538624897, 33.22729227076865 ], [ 129.091814566913712, 33.012933088950952 ], [ 129.197486774127896, 33.009870990946325 ], [ 129.063548894396234, 32.813096391200268 ], [ 128.91163963992102, 32.817272122793824 ], [ 128.894469910756499, 32.643804824501217 ], [ 128.772726491179583, 32.643319142873985 ], [ 128.771832613834817, 32.573525652545868 ], [ 128.597989991273494, 32.613070441910857 ] ] ] ] } },
{ "type": "Feature", "properties": { "pref_code": "43", "pref_name_ja": "熊本県", "statistical_unit_count": 3101, "tile_id": "JP_PREF_43", "area_km2": 7427.5372866333601, "source": "e-Stat 2020 Census town/area statistical boundaries", "source_crs": "EPSG:4612 / JGD2000" }, "geometry": { "type": "Polygon", "coordinates": [ [ [ 129.989802256862902, 32.200019471432384 ], [ 130.011893875553199, 32.529682679837379 ], [ 130.188599592960543, 32.547892013480457 ], [ 130.234055158980993, 32.463274370664095 ], [ 130.603974774843294, 32.716353106207286 ], [ 130.413908244540096, 33.00250885532833 ], [ 130.679966790403512, 33.171375651818813 ], [ 130.983091968313602, 33.02407949998679 ], [ 130.990519267253688, 33.182751601788347 ], [ 131.1480399621922, 33.154882325464079 ], [ 131.329568120598424, 32.833026240883243 ], [ 131.019464339950474, 32.546671448312431 ], [ 131.108971417914006, 32.160184082419867 ], [ 130.820785354809658, 32.094936211258855 ], [ 130.604925471856262, 32.179274144894791 ], [ 130.402078967210542, 32.120589974395678 ], [ 130.360210434722347, 32.196437589180803 ], [ 130.56766879069994, 32.434027751348211 ], [ 130.522780584699206, 32.530641505427411 ], [ 130.607021051212371, 32.626573909796008 ], [ 130.442285066252083, 32.545358495499968 ], [ 130.436449740076398, 32.381902961948192 ], [ 130.344916085278896, 32.312322513503155 ], [ 130.276280194382821, 32.31598747112006 ], [ 130.325584698686839, 32.387638916519762 ], [ 130.266879647361264, 32.406509884959547 ], [ 130.051648067768923, 32.156750341004589 ], [ 129.989802256862902, 32.200019471432384 ] ] ] } },
{ "type": "Feature", "properties": { "pref_code": "44", "pref_name_ja": "大分県", "statistical_unit_count": 2427, "tile_id": "JP_PREF_44", "area_km2": 6422.5797955510943, "source": "e-Stat 2020 Census town/area statistical boundaries", "source_crs": "EPSG:4612 / JGD2000" }, "geometry": { "type": "Polygon", "coordinates": [ [ [ 130.824097970993279, 33.251174848102323 ], [ 130.926842323601988, 33.478504372983998 ], [ 131.162956409882014, 33.509608647854506 ], [ 131.214154458839374, 33.640271473370092 ], [ 131.395511693821362, 33.576409645467351 ], [ 131.636013510656454, 33.682129580930926 ], [ 131.739579990512624, 33.466324060740426 ], [ 131.593217907081907, 33.347302058969611 ], [ 131.509489663242533, 33.361930807618158 ], [ 131.518153302236897, 33.270060365931705 ], [ 131.902505761504358, 33.267838704289865 ], [ 131.811494449044517, 33.129656803022172 ], [ 132.017842959405044, 33.108864682991594 ], [ 131.939124954314053, 32.976529348527947 ], [ 132.085379326057961, 32.933028317386935 ], [ 131.875247564865788, 32.740787176680172 ], [ 131.767185513215679, 32.837020660513353 ], [ 131.536235313435412, 32.758814338899661 ], [ 131.261140530726607, 32.881245485544703 ], [ 131.106276379459246, 33.185941973178977 ], [ 130.98901497430839, 33.173463571648675 ], [ 130.991325677958883, 33.02414068932341 ], [ 130.842997509821572, 33.09397857439069 ], [ 130.824097970993279, 33.251174848102323 ] ] ] } },
{ "type": "Feature", "properties": { "pref_code": "45", "pref_name_ja": "宮崎県", "statistical_unit_count": 2602, "tile_id": "JP_PREF_45", "area_km2": 7751.9163968216008, "source": "e-Stat 2020 Census town/area statistical boundaries", "source_crs": "EPSG:4612 / JGD2000" }, "geometry": { "type": "Polygon", "coordinates": [ [ [ 130.703326852028169, 32.05832778957889 ], [ 131.103303782347979, 32.159158396612774 ], [ 131.009197233987152, 32.51511769652047 ], [ 131.265316873542787, 32.826367275569908 ], [ 131.475223447722186, 32.837204090580599 ], [ 131.561130427679331, 32.755405636575411 ], [ 131.858742096758874, 32.82140188606833 ], [ 131.885621725455763, 32.745889419028074 ], [ 131.695505148702722, 32.570047923778006 ], [ 131.731519184551274, 32.487870915705649 ], [ 131.5778845782161, 32.271720965276472 ], [ 131.34661257717147, 31.363523825217609 ], [ 131.160106895753216, 31.459404947646966 ], [ 131.185689234123373, 31.622625923360534 ], [ 131.054397414734979, 31.633247487797593 ], [ 130.703326852028169, 32.05832778957889 ] ] ] } },
{ "type": "Feature", "properties": { "pref_code": "46", "pref_name_ja": "鹿児島県", "statistical_unit_count": 2145, "tile_id": "JP_PREF_46", "area_km2": 9240.0385529955238, "source": "e-Stat 2020 Census town/area statistical boundaries", "source_crs": "EPSG:4612 / JGD2000" }, "geometry": { "type": "MultiPolygon", "coordinates": [ [ [ [ 130.090589331050239, 32.180506814362822 ], [ 130.249604147043783, 32.310675441067005 ], [ 130.18493696240597, 32.116432941097443 ], [ 130.610414832350273, 32.186767038922099 ], [ 131.030867431357194, 31.6643727242047 ], [ 131.188579720196913, 31.623578685650372 ], [ 131.199679294117857, 31.515352254845013 ], [ 131.018285729618441, 31.387872802011348 ], [ 131.131983303734387, 31.280463337922015 ], [ 130.962523484602769, 31.137692380071435 ], [ 130.658646199420275, 30.991692231597945 ], [ 130.803225461505292, 31.334421222287272 ], [ 130.704364562575421, 31.546487616691053 ], [ 130.603513423173041, 31.573020331935126 ], [ 130.517936177594407, 31.442048559376541 ], [ 130.573496759742056, 31.311507220245336 ], [ 130.681875657475587, 31.277822798358645 ], [ 130.635735136891469, 31.185477562637367 ], [ 130.214435251619733, 31.249658171489546 ], [ 130.107411985999505, 31.416653211537696 ], [ 130.271446733311194, 31.427639441242651 ], [ 130.333578409280136, 31.605193399772009 ], [ 130.166854770870941, 31.791536762169638 ], [ 130.206645855054262, 32.062675965665953 ], [ 130.090589331050239, 32.180506814362822 ] ], [ [ 130.575332712994054, 31.611391884668173 ], [ 130.724296993331393, 31.621319651609415 ], [ 130.75337505803347, 31.558592568464771 ], [ 130.822763984444492, 31.659659326982283 ], [ 130.683350084716722, 31.733073717383395 ], [ 130.575332712994054, 31.611391884668173 ] ] ], [ [ [ 130.848381692926637, 30.464586702518442 ], [ 131.056469119945234, 30.839888559831941 ], [ 131.082903454374616, 30.697320932605805 ], [ 130.961154988484395, 30.366862062733027 ], [ 130.870949752285327, 30.344926889721613 ], [ 130.848381692926637, 30.464586702518442 ] ] ], [ [ [ 130.376485026565376, 30.382915728298098 ], [ 130.498782701108496, 30.469419429240038 ], [ 130.662985391468197, 30.386111057840637 ], [ 130.663260921833057, 30.315203694814755 ], [ 130.448987372824433, 30.233970487052652 ], [ 130.376485026565376, 30.382915728298098 ] ] ], [ [ [ 129.913076043612222, 28.311609161079701 ], [ 130.033783724224577, 28.369336996206481 ], [ 129.964684681514456, 28.279548501012574 ], [ 129.913076043612222, 28.311609161079701 ] ] ], [ [ [ 129.658022346485467, 31.658800902007759 ], [ 129.835349214673442, 31.882074230069534 ], [ 129.964625959176061, 31.86517220624734 ], [ 129.80152413413856, 31.779526934832528 ], [ 129.713616766604588, 31.621780034443532 ], [ 129.658022346485467, 31.658800902007759 ] ] ], [ [ [ 129.134673874882083, 28.254266933864436 ], [ 129.544035792424097, 28.462807309225497 ], [ 129.62206072384879, 28.477862306936224 ], [ 129.636435338523455, 28.416671172679703 ], [ 129.689757560984731, 28.530716361039445 ], [ 129.710482252565782, 28.42195100014818 ], [ 129.459820521829442, 28.289608732956463 ], [ 129.476890532153362, 28.210620387997785 ], [ 129.319006210564964, 28.061978420312272 ], [ 129.215307306700282, 28.076954989008886 ], [ 129.164698822392438, 28.196595730906445 ], [ 129.24165987406414, 28.213282250766376 ], [ 129.134673874882083, 28.254266933864436 ] ] ], [ [ [ 128.879418063009638, 27.826440151683453 ], [ 128.972219028874576, 27.892105473102777 ], [ 129.037980490333126, 27.768927806423356 ], [ 128.987518732585443, 27.669648276018986 ], [ 128.881285052798518, 27.721576079908846 ], [ 128.879418063009638, 27.826440151683453 ] ] ], [ [ [ 128.520129253140936, 27.372979121714685 ], [ 128.713728325998005, 27.434878658466538 ], [ 128.576773753123604, 27.33063964761779 ], [ 128.520129253140936, 27.372979121714685 ] ] ] ] } },
{ "type": "Feature", "properties": { "pref_code": "47", "pref_name_ja": "沖縄県", "statistical_unit_count": 1471, "tile_id": "JP_PREF_47", "area_km2": 2786.4777803965458, "source": "e-Stat 2020 Census town/area statistical boundaries", "source_crs": "EPSG:4612 / JGD2000" }, "geometry": { "type": "MultiPolygon", "coordinates": [ [ [ [ 127.636182459400175, 26.220575130577714 ], [ 127.75650527741405, 26.29715141148052 ], [ 127.711530776765912, 26.440648834690577 ], [ 127.979727126606249, 26.565002491029464 ], [ 127.858877308670102, 26.630158916164728 ], [ 127.879967168329514, 26.709843852059819 ], [ 128.026377174006626, 26.711408284629417 ], [ 128.052907889368583, 26.635215374594598 ], [ 128.249784959303128, 26.870973867340158 ], [ 128.305866718035844, 26.844690936613851 ], [ 128.278377126134473, 26.675332659613755 ], [ 127.972045610886667, 26.46610949200517 ], [ 127.968171459622212, 26.209266275383175 ], [ 127.676922493209119, 26.074526850454891 ], [ 127.636182459400175, 26.220575130577714 ] ] ], [ [ [ 126.707827342228541, 26.358125109156688 ], [ 126.867373990616727, 26.341957491537279 ], [ 126.810282339672881, 26.29100888901117 ], [ 126.707827342228541, 26.358125109156688 ] ] ], [ [ [ 125.23104973627818, 24.934819871670076 ], [ 125.469206156648951, 24.718693404365737 ], [ 125.240970232902242, 24.71645621392177 ], [ 125.23104973627818, 24.934819871670076 ] ] ], [ [ [ 125.135034865195948, 24.824187762268796 ], [ 125.163214288737819, 24.865515507465599 ], [ 125.221678886553477, 24.813914550034248 ], [ 125.135034865195948, 24.824187762268796 ] ] ], [ [ [ 124.0691320360215, 24.431285933678499 ], [ 124.115238795233978, 24.485092083702078 ], [ 124.21747294759686, 24.45911162681243 ], [ 124.340741428569117, 24.605149663631483 ], [ 124.239211863657687, 24.346472986741333 ], [ 124.08197368991776, 24.312247762599394 ], [ 124.14212261407225, 24.407766001199942 ], [ 124.0691320360215, 24.431285933678499 ] ] ], [ [ [ 123.661629591980201, 24.308794386153128 ], [ 123.776624554854905, 24.438499226708203 ], [ 123.943919192661667, 24.367619556329636 ], [ 123.878067042203611, 24.255353235378838 ], [ 123.661629591980201, 24.308794386153128 ] ] ] ] } }
]
}
