{"type":"FeatureCollection","features":[
{"type":"Feature","geometry":{"type":"Point","coordinates":[-75.5713141,38.5565041]},"properties":{"ele":"8","gnis:feature_id":"214203","name":"Laurel","place":"town","population":"3821","population:date":"2006","source:population":"US Census","wikidata":"Q755128","wikipedia":"en:Laurel, Delaware"}},
{"type":"Feature","geometry":{"type":"Point","coordinates":[-75.3858753,38.6900507]},"properties":{"capital":"6","ele":"16","gnis:feature_id":"213993","name":"Georgetown","place":"town","population":"8291","population:date":"2025","source:population":"US Census","wikidata":"Q755587","wikipedia":"en:Georgetown, Delaware"}},
{"type":"Feature","geometry":{"type":"Point","coordinates":[-75.5679832,38.075684]},"properties":{"ele":"2","gnis:feature_id":"591031","name":"Pocomoke City","place":"town","population":"4295","population:date":"2020","source:population":"US Census 2020","wikidata":"Q755569","wikipedia":"en:Pocomoke City, Maryland"}},
{"type":"Feature","geometry":{"type":"Point","coordinates":[-75.2913018,38.5915023]},"properties":{"ele":"7","gnis:feature_id":"214319","name":"Millsboro","place":"town","population":"7890","population:date":"2025","source:population":"US Census","wikidata":"Q753693","wikipedia":"en:Millsboro, Delaware"}},
{"type":"Feature","geometry":{"type":"Point","coordinates":[-75.7731132,38.6940347]},"properties":{"ele":"1","gnis:feature_id":"593884","name":"Federalsburg","place":"town","population":"2833","population:date":"2020","source:population":"US Census 2020","start_date":"1823","website":"https://www.federalsburg.org/","wikidata":"Q753973","wikipedia":"en:Federalsburg, Maryland"}},
{"type":"Feature","geometry":{"type":"Point","coordinates":[-75.6114584,38.6413452]},"properties":{"ele":"7","gnis:feature_id":"214626","name":"Seaford","place":"town","population":"7080","population:date":"2006","source:population":"US Census","wikidata":"Q755663","wikipedia":"en:Seaford, Delaware"}},
{"type":"Feature","geometry":{"type":"Point","coordinates":[-75.3788141,37.9331799]},"properties":{"ele":"1","gnis:feature_id":"1492764","name":"Chincoteague","place":"town","population":"3344","population:date":"2020","source:population":"US Census 2020","wikidata":"Q1073686","wikipedia":"en:Chincoteague, Virginia"}},
{"type":"Feature","geometry":{"type":"Point","coordinates":[-76.077268,38.5700533]},"properties":{"capital":"6","ele":"6","gnis:feature_id":"589879","name":"Cambridge","place":"town","population":"13069","population:date":"2020","source:population":"US Census 2020","wikidata":"Q755862","wikipedia":"en:Cambridge, Maryland"}},
{"type":"Feature","geometry":{"type":"Point","coordinates":[-75.3926959,38.1770634]},"properties":{"capital":"6","ele":"5","gnis:feature_id":"587416","name":"Snow Hill","place":"town","population":"2156","population:date":"2020","source:population":"US Census","wikidata":"Q754519","wikipedia":"en:Snow Hill, Maryland"}},
{"type":"Feature","geometry":{"type":"Point","coordinates":[-75.5776007,38.4558814]},"properties":{"ele":"15","gnis:feature_id":"584085","name":"Delmar","place":"town","population":"5022","wikidata":"Q753759","wikipedia":"en:Delmar, Delaware"}},
{"type":"Feature","geometry":{"type":"Point","coordinates":[-75.620203,38.3220633]},"properties":{"ele":"11","gnis:feature_id":"584531","name":"Fruitland","place":"town","population":"5534","population:date":"2020","source:population":"US Census 2020","wikidata":"Q754982","wikipedia":"en:Fruitland, Maryland"}},
{"type":"Feature","geometry":{"type":"Point","coordinates":[-75.6009964,38.366027]},"properties":{"capital":"6","ele":"11","gnis:feature_id":"591221","name":"Salisbury","name:en":"Salisbury","name:ko":"솔즈베리","place":"city","population":"32693","population:date":"2020","source:population":"US Census","website":"https://salisbury.md/","wikidata":"Q755566","wikipedia":"en:Salisbury, Maryland"}},
{"type":"Feature","geometry":{"type":"Point","coordinates":[-75.852267,37.9842257]},"properties":{"name":"Crisfield","place":"town","population":"2475","population:date":"2020","source:population":"US Census 2020","wikidata":"Q49301","wikipedia":"en:Crisfield, Maryland"}}
]}
