{"type":"FeatureCollection","features":[
{"type":"Feature","geometry":{"type":"Point","coordinates":[-75.6032026,38.7427231]},"properties":{"ele":"13","gnis:feature_id":"213706","name":"Bridgeville","place":"village","population":"1585","population:date":"2006","source:population":"US Census","wikidata":"Q754373","wikipedia":"en:Bridgeville, Delaware"}},
{"type":"Feature","geometry":{"type":"Point","coordinates":[-75.9099361,38.7126151]},"properties":{"ele":"14","gnis:feature_id":"1681813","name":"Preston","place":"village","population":"719","wikidata":"Q611879","wikipedia":"en:Preston, Maryland"}},
{"type":"Feature","geometry":{"type":"Point","coordinates":[-75.6877222,38.4200703]},"properties":{"ele":"12","gnis:feature_id":"584921","name":"Hebron","place":"village","population":"1113","population:date":"2020","source:population":"United States Census","wikidata":"Q755030","wikipedia":"en:Hebron, Maryland"}},
{"type":"Feature","geometry":{"type":"Point","coordinates":[-75.7218743,37.9240145]},"properties":{"ele":"1","gnis:feature_id":"1500033","name":"Saxis","place":"village","population":"172","population:date":"2020","wikidata":"Q1376985","wikipedia":"en:Saxis, Virginia"}},
{"type":"Feature","geometry":{"type":"Point","coordinates":[-76.0229911,37.967902]},"properties":{"ele":"1","gnis:feature_id":"591450","name":"Tylerton","place":"village","population":"55","wikidata":"Q14692444","wikipedia":"en:Tylerton, Maryland"}},
{"type":"Feature","geometry":{"type":"Point","coordinates":[-75.4099198,38.0537322]},"properties":{"ele":"10","gnis:feature_id":"591353","name":"Stockton","place":"village","wikidata":"Q386089","wikipedia":"en:Stockton, Maryland"}},
{"type":"Feature","geometry":{"type":"Point","coordinates":[-75.3974189,38.0945648]},"properties":{"ele":"11","gnis:feature_id":"590303","name":"Girdletree","place":"village","wikidata":"Q754694","wikipedia":"en:Girdletree, Maryland"}},
{"type":"Feature","geometry":{"type":"Point","coordinates":[-76.1716108,38.6865072]},"properties":{"ele":"2","gnis:feature_id":"590961","name":"Oxford","place":"village","population":"739","population:date":"2006","source:population":"US Census","wikidata":"Q753781","wikipedia":"en:Oxford, Maryland"}},
{"type":"Feature","geometry":{"type":"Point","coordinates":[-76.0962064,38.5831601]},"properties":{"ele":"4","gnis:feature_id":"596419","name":"Algonquin","place":"village","population":"1220","population:date":"2020","source:population":"US Census","wikidata":"Q754683","wikipedia":"en:Algonquin, Maryland"}},
{"type":"Feature","geometry":{"type":"Point","coordinates":[-75.589094,37.8776256]},"properties":{"ele":"6","gnis:feature_id":"1495643","name":"Hallwood","place":"village","population":"287","population:date":"2006","source:population":"US Census","wikidata":"Q1376087","wikipedia":"en:Hallwood, Virginia"}},
{"type":"Feature","geometry":{"type":"Point","coordinates":[-75.5310365,37.9790117]},"properties":{"ele":"7","gnis:feature_id":"1495997","name":"New Church","place":"village","population":"256","population:date":"2020","source:population":"US Census","wikidata":"Q5483557","wikipedia":"en:New Church, Virginia"}},
{"type":"Feature","geometry":{"type":"Point","coordinates":[-75.5051441,37.9029581]},"properties":{"ele":"11","gnis:feature_id":"1495206","name":"Atlantic","place":"village","population":"808","population:date":"2020","source:population":"US Census","wikidata":"Q4816248","wikipedia":"en:Atlantic, Virginia"}},
{"type":"Feature","geometry":{"type":"Point","coordinates":[-75.6920008,38.2028428]},"properties":{"capital":"6","ele":"5","gnis:feature_id":"591074","name":"Princess Anne","place":"village","population":"2845","population:date":"2006","source:population":"US Census","wikidata":"Q754512","wikipedia":"en:Princess Anne, Maryland"}},
{"type":"Feature","geometry":{"type":"Point","coordinates":[-76.1520946,38.5021645]},"properties":{"ele":"1","gnis:feature_id":"589976","name":"Church Creek","place":"village","population":"102","population:date":"2020","source:population":"US Census","wikidata":"Q755407","wikipedia":"en:Church Creek, Maryland"}},
{"type":"Feature","geometry":{"type":"Point","coordinates":[-75.463812,37.9695672]},"properties":{"ele":"11","gnis:feature_id":"1468253","name":"Horntown","place":"village","population":"912","population:date":"2020","source:population":"US Census","wikidata":"Q5478849","wikipedia":"en:Horntown, Virginia"}},
{"type":"Feature","geometry":{"type":"Point","coordinates":[-75.3554714,38.4540039]},"properties":{"ele":"14","gnis:feature_id":"216031","name":"Bethel","place":"village","population":"196","population:date":"2006","source:population":"US Census"}},
{"type":"Feature","geometry":{"type":"Point","coordinates":[-76.0087604,38.3097003]},"properties":{"ele":"4","gnis:feature_id":"590156","name":"Elliott","place":"village","population":"43","wikidata":"Q5365603","wikipedia":"en:Elliott, Maryland"}},
{"type":"Feature","geometry":{"type":"Point","coordinates":[-76.0415318,37.9740904]},"properties":{"ele":"1","gnis:feature_id":"591121","name":"Rhodes Point","place":"village","wikidata":"Q7321028","wikipedia":"en:Rhodes Point, Maryland"}},
{"type":"Feature","geometry":{"type":"Point","coordinates":[-75.4996473,37.9340125]},"properties":{"ele":"8","gnis:feature_id":"1493762","name":"Wattsville","place":"village","population":"1341","population:date":"2020","source:population":"US Census","wikidata":"Q7975055","wikipedia":"en:Wattsville, Virginia"}},
{"type":"Feature","geometry":{"type":"Point","coordinates":[-75.3901972,38.0115107]},"properties":{"ele":"1","gnis:feature_id":"1494969","name":"Greenbackville","place":"village","population":"173","population:date":"2020","source:population":"US Census","wikidata":"Q5603668","wikipedia":"en:Greenbackville, Virginia"}},
{"type":"Feature","geometry":{"type":"Point","coordinates":[-76.0332707,37.9956776]},"properties":{"ele":"1","gnis:feature_id":"590177","name":"Ewell","place":"village","wikidata":"Q5418956","wikipedia":"en:Ewell, Maryland"}},
{"type":"Feature","geometry":{"type":"Point","coordinates":[-75.9474368,38.6092835]},"properties":{"ele":"6","gnis:feature_id":"591244","name":"Secretary","place":"village","population":"496","population:date":"2006","source:population":"US Census","wikidata":"Q753514","wikipedia":"en:Secretary, Maryland"}},
{"type":"Feature","geometry":{"type":"Point","coordinates":[-75.719376,38.5426155]},"properties":{"ele":"3","gnis:feature_id":"591265","name":"Sharptown","place":"village","population":"620","population:date":"2006","source:population":"US Census","wikidata":"Q753376","wikipedia":"en:Sharptown, Maryland"}},
{"type":"Feature","geometry":{"type":"Point","coordinates":[-75.9246216,38.5992145]},"properties":{"ele":"12","gnis:feature_id":"590123","name":"East New Market","place":"village","population":"245","population:date":"2006","source:population":"US Census","wikidata":"Q754735","wikipedia":"en:East New Market, Maryland"}},
{"type":"Feature","geometry":{"type":"Point","coordinates":[-75.6093632,38.6356605]},"properties":{"ele":"4","gnis:feature_id":"213680","name":"Blades","place":"village","population":"1000","population:date":"2006","source:population":"US Census","wikidata":"Q284303","wikipedia":"en:Blades, Delaware"}},
{"type":"Feature","geometry":{"type":"Point","coordinates":[-75.8637279,38.6346863]},"properties":{"gnis:feature_id":"590523","name":"Hurlock","place":"village","population":"1993","population:date":"2006","source:population":"US Census","website":"https://www.hurlock-md.gov/","wikidata":"Q755898","wikipedia":"en:Hurlock, Maryland"}},
{"type":"Feature","geometry":{"type":"Point","coordinates":[-75.2910256,38.2506724]},"properties":{"ele":"9","gnis:feature_id":"590878","name":"Newark","place":"village","wikidata":"Q754753","wikipedia":"en:Newark, Maryland"}},
{"type":"Feature","geometry":{"type":"Point","coordinates":[-75.8246563,38.4848393]},"properties":{"ele":"3","gnis:feature_id":"591474","name":"Vienna","place":"village","population":"270","population:date":"2020","source:population":"US Census 2020","wikidata":"Q755083","wikipedia":"en:Vienna, Maryland"}},
{"type":"Feature","geometry":{"type":"Point","coordinates":[-76.0579956,38.6584506]},"properties":{"ele":"16","gnis:feature_id":"591425","name":"Trappe","place":"village","population":"1181","population:date":"2006","source:population":"US Census","website":"https://trappemd.net/","wikidata":"Q753815","wikipedia":"en:Trappe, Maryland"}},
{"type":"Feature","geometry":{"type":"Point","coordinates":[-75.4130775,38.3954411]},"properties":{"ele":"16","gnis:feature_id":"591023","name":"Pittsville","place":"village","population":"1191","population:date":"2006","source:population":"US Census"}},
{"type":"Feature","geometry":{"type":"Point","coordinates":[-75.5471487,37.8929027]},"properties":{"ele":"13","gnis:feature_id":"1496299","name":"Temperanceville","place":"village","population":"308","population:date":"2020","source:population":"US Census","wikidata":"Q2893519","wikipedia":"en:Temperanceville, Virginia"}},
{"type":"Feature","geometry":{"type":"Point","coordinates":[-75.7590991,38.4598391]},"properties":{"ele":"8","gnis:feature_id":"590738","name":"Mardela Springs","place":"village","population":"360","population:date":"2006","source:population":"US Census"}},
{"type":"Feature","geometry":{"type":"Point","coordinates":[-75.3485269,38.3912268]},"properties":{"ele":"10","gnis:feature_id":"591557","name":"Willards","place":"village","population":"969","population:date":"2006","source:population":"US Census","wikidata":"Q753444","wikipedia":"en:Willards, Maryland"}},
{"type":"Feature","geometry":{"type":"Point","coordinates":[-75.6193717,38.5706707]},"properties":{"ele":"7","gnis:feature_id":"213641","name":"Bethel","place":"village","population":"196","population:date":"2006","source:population":"US Census"}},
{"type":"Feature","geometry":{"type":"Point","coordinates":[-75.4852759,37.9243107]},"properties":{"name":"Wallops Island","place":"village"}},
{"type":"Feature","geometry":{"type":"Point","coordinates":[-75.5487794,37.9269674]},"properties":{"name":"Oak Hall","place":"village","population":"226","population:date":"2020","source:population":"US Census","wikidata":"Q7073527","wikipedia":"en:Oak Hall, Virginia"}},
{"type":"Feature","geometry":{"type":"Point","coordinates":[-75.4179741,37.9982992]},"properties":{"name":"Captains Cove","place":"village","population":"1544","population:date":"2020","source:population":"US Census","wikidata":"Q5036891","wikipedia":"en:Captains Cove, Virginia"}}
]}
