{
  "features": [
    {
      "geometry": {
        "coordinates": [
          [
            [
              -77.89097374942857,
              36.95782555416086
            ],
            [
              -77.92484290284554,
              37.83373852108682
            ],
            [
              -78.80616681670563,
              37.80852768749893
            ],
            [
              -78.76214428818126,
              36.93339594532523
            ],
            [
              -77.89097374942857,
              36.95782555416086
            ]
          ]
        ],
        "type": "Polygon"
      },
      "id": "NEC_CM05_RM04",
      "properties": {
        "column": -5,
        "id": "NEC_CM05_RM04",
        "row": -4,
        "stateTouches": [
          "VA"
        ]
      },
      "type": "Feature"
    },
    {
      "geometry": {
        "coordinates": [
          [
            [
              -77.01888974695846,
              36.97586749787132
            ],
            [
              -77.04256296427977,
              37.85235775407402
            ],
            [
              -77.92484290284554,
              37.83373852108682
            ],
            [
              -77.89097374942857,
              36.95782555416086
            ],
            [
              -77.01888974695846,
              36.97586749787132
            ]
          ]
        ],
        "type": "Polygon"
      },
      "id": "NEC_CM04_RM04",
      "properties": {
        "column": -4,
        "id": "NEC_CM04_RM04",
        "row": -4,
        "stateTouches": [
          "VA"
        ]
      },
      "type": "Feature"
    },
    {
      "geometry": {
        "coordinates": [
          [
            [
              -76.14616683720207,
              36.98750395417385
            ],
            [
              -76.15961430430073,
              37.86436669316191
            ],
            [
              -77.04256296427977,
              37.85235775407402
            ],
            [
              -77.01888974695846,
              36.97586749787132
            ],
            [
              -76.14616683720207,
              36.98750395417385
            ]
          ]
        ],
        "type": "Polygon"
      },
      "id": "NEC_CM03_RM04",
      "properties": {
        "column": -3,
        "id": "NEC_CM03_RM04",
        "row": -4,
        "stateTouches": [
          "VA"
        ]
      },
      "type": "Feature"
    },
    {
      "geometry": {
        "coordinates": [
          [
            [
              -75.27308084063688,
              36.99272341231888
            ],
            [
              -75.27628559763436,
              37.86975326440367
            ],
            [
              -76.15961430430073,
              37.86436669316191
            ],
            [
              -76.14616683720207,
              36.98750395417385
            ],
            [
              -75.27308084063688,
              36.99272341231888
            ]
          ]
        ],
        "type": "Polygon"
      },
      "id": "NEC_CM02_RM04",
      "properties": {
        "column": -2,
        "id": "NEC_CM02_RM04",
        "row": -4,
        "stateTouches": [
          "VA"
        ]
      },
      "type": "Feature"
    },
    {
      "geometry": {
        "coordinates": [
          [
            [
              -77.92484290284554,
              37.83373852108682
            ],
            [
              -77.96021188936045,
              38.70949395001753
            ],
            [
              -78.85213683616487,
              38.68348352679369
            ],
            [
              -78.80616681670563,
              37.80852768749893
            ],
            [
              -77.92484290284554,
              37.83373852108682
            ]
          ]
        ],
        "type": "Polygon"
      },
      "id": "NEC_CM05_RM03",
      "properties": {
        "column": -5,
        "id": "NEC_CM05_RM03",
        "row": -3,
        "stateTouches": [
          "VA"
        ]
      },
      "type": "Feature"
    },
    {
      "geometry": {
        "coordinates": [
          [
            [
              -77.04256296427977,
              37.85235775407402
            ],
            [
              -77.06728528822926,
              38.728704076053106
            ],
            [
              -77.96021188936045,
              38.70949395001753
            ],
            [
              -77.92484290284554,
              37.83373852108682
            ],
            [
              -77.04256296427977,
              37.85235775407402
            ]
          ]
        ],
        "type": "Polygon"
      },
      "id": "NEC_CM04_RM03",
      "properties": {
        "column": -4,
        "id": "NEC_CM04_RM03",
        "row": -3,
        "stateTouches": [
          "MD",
          "VA"
        ]
      },
      "type": "Feature"
    },
    {
      "geometry": {
        "coordinates": [
          [
            [
              -76.15961430430073,
              37.86436669316191
            ],
            [
              -76.1736579985229,
              38.74109429033222
            ],
            [
              -77.06728528822926,
              38.728704076053106
            ],
            [
              -77.04256296427977,
              37.85235775407402
            ],
            [
              -76.15961430430073,
              37.86436669316191
            ]
          ]
        ],
        "type": "Polygon"
      },
      "id": "NEC_CM03_RM03",
      "properties": {
        "column": -3,
        "id": "NEC_CM03_RM03",
        "row": -3,
        "stateTouches": [
          "MD",
          "VA"
        ]
      },
      "type": "Feature"
    },
    {
      "geometry": {
        "coordinates": [
          [
            [
              -75.27628559763436,
              37.86975326440367
            ],
            [
              -75.27963247622316,
              38.74665192314781
            ],
            [
              -76.1736579985229,
              38.74109429033222
            ],
            [
              -76.15961430430073,
              37.86436669316191
            ],
            [
              -75.27628559763436,
              37.86975326440367
            ]
          ]
        ],
        "type": "Polygon"
      },
      "id": "NEC_CM02_RM03",
      "properties": {
        "column": -2,
        "id": "NEC_CM02_RM03",
        "row": -3,
        "stateTouches": [
          "DE",
          "MD",
          "VA"
        ]
      },
      "type": "Feature"
    },
    {
      "geometry": {
        "coordinates": [
          [
            [
              -74.39286629995523,
              37.868512047673306
            ],
            [
              -74.38551202600432,
              38.74537128674813
            ],
            [
              -75.27963247622316,
              38.74665192314781
            ],
            [
              -75.27628559763436,
              37.86975326440367
            ],
            [
              -74.39286629995523,
              37.868512047673306
            ]
          ]
        ],
        "type": "Polygon"
      },
      "id": "NEC_CM01_RM03",
      "properties": {
        "column": -1,
        "id": "NEC_CM01_RM03",
        "row": -3,
        "stateTouches": [
          "DE",
          "MD",
          "VA"
        ]
      },
      "type": "Feature"
    },
    {
      "geometry": {
        "coordinates": [
          [
            [
              -77.96021188936045,
              38.70949395001753
            ],
            [
              -77.99715231918846,
              39.58508938113485
            ],
            [
              -78.90014713285919,
              39.558259950252925
            ],
            [
              -78.85213683616487,
              38.68348352679369
            ],
            [
              -77.96021188936045,
              38.70949395001753
            ]
          ]
        ],
        "type": "Polygon"
      },
      "id": "NEC_CM05_RM02",
      "properties": {
        "column": -5,
        "id": "NEC_CM05_RM02",
        "row": -2,
        "stateTouches": [
          "MD",
          "VA",
          "WV"
        ]
      },
      "type": "Feature"
    },
    {
      "geometry": {
        "coordinates": [
          [
            [
              -77.06728528822926,
              38.728704076053106
            ],
            [
              -77.09310688757948,
              39.60490478575131
            ],
            [
              -77.99715231918846,
              39.58508938113485
            ],
            [
              -77.96021188936045,
              38.70949395001753
            ],
            [
              -77.06728528822926,
              38.728704076053106
            ]
          ]
        ],
        "type": "Polygon"
      },
      "id": "NEC_CM04_RM02",
      "properties": {
        "column": -4,
        "id": "NEC_CM04_RM02",
        "row": -2,
        "stateTouches": [
          "DC",
          "MD",
          "VA",
          "WV"
        ]
      },
      "type": "Feature"
    },
    {
      "geometry": {
        "coordinates": [
          [
            [
              -76.1736579985229,
              38.74109429033222
            ],
            [
              -76.18832646060429,
              39.61768557364158
            ],
            [
              -77.09310688757948,
              39.60490478575131
            ],
            [
              -77.06728528822926,
              38.728704076053106
            ],
            [
              -76.1736579985229,
              38.74109429033222
            ]
          ]
        ],
        "type": "Polygon"
      },
      "id": "NEC_CM03_RM02",
      "properties": {
        "column": -3,
        "id": "NEC_CM03_RM02",
        "row": -2,
        "stateTouches": [
          "DC",
          "MD",
          "VA"
        ]
      },
      "type": "Feature"
    },
    {
      "geometry": {
        "coordinates": [
          [
            [
              -75.27963247622316,
              38.74665192314781
            ],
            [
              -75.28312828269615,
              39.623418443938085
            ],
            [
              -76.18832646060429,
              39.61768557364158
            ],
            [
              -76.1736579985229,
              38.74109429033222
            ],
            [
              -75.27963247622316,
              38.74665192314781
            ]
          ]
        ],
        "type": "Polygon"
      },
      "id": "NEC_CM02_RM02",
      "properties": {
        "column": -2,
        "id": "NEC_CM02_RM02",
        "row": -2,
        "stateTouches": [
          "DE",
          "MD",
          "NJ"
        ]
      },
      "type": "Feature"
    },
    {
      "geometry": {
        "coordinates": [
          [
            [
              -74.38551202600432,
              38.74537128674813
            ],
            [
              -74.37783052205542,
              39.62209742534135
            ],
            [
              -75.28312828269615,
              39.623418443938085
            ],
            [
              -75.27963247622316,
              38.74665192314781
            ],
            [
              -74.38551202600432,
              38.74537128674813
            ]
          ]
        ],
        "type": "Polygon"
      },
      "id": "NEC_CM01_RM02",
      "properties": {
        "column": -1,
        "id": "NEC_CM01_RM02",
        "row": -2,
        "stateTouches": [
          "DE",
          "NJ"
        ]
      },
      "type": "Feature"
    },
    {
      "geometry": {
        "coordinates": [
          [
            [
              -73.49160015503122,
              38.737253692013766
            ],
            [
              -73.47275156729681,
              39.613723894093624
            ],
            [
              -74.37783052205542,
              39.62209742534135
            ],
            [
              -74.38551202600432,
              38.74537128674813
            ],
            [
              -73.49160015503122,
              38.737253692013766
            ]
          ]
        ],
        "type": "Polygon"
      },
      "id": "NEC_CP00_RM02",
      "properties": {
        "column": 0,
        "id": "NEC_CP00_RM02",
        "row": -2,
        "stateTouches": [
          "NJ"
        ]
      },
      "type": "Feature"
    },
    {
      "geometry": {
        "coordinates": [
          [
            [
              -77.99715231918846,
              39.58508938113485
            ],
            [
              -78.03574103681576,
              40.46052237504122
            ],
            [
              -78.95029725984718,
              40.43285339418729
            ],
            [
              -78.90014713285919,
              39.558259950252925
            ],
            [
              -77.99715231918846,
              39.58508938113485
            ]
          ]
        ],
        "type": "Polygon"
      },
      "id": "NEC_CM05_RM01",
      "properties": {
        "column": -5,
        "id": "NEC_CM05_RM01",
        "row": -1,
        "stateTouches": [
          "MD",
          "PA",
          "WV"
        ]
      },
      "type": "Feature"
    },
    {
      "geometry": {
        "coordinates": [
          [
            [
              -77.09310688757948,
              39.60490478575131
            ],
            [
              -77.12008160427442,
              40.48095827852969
            ],
            [
              -78.03574103681576,
              40.46052237504122
            ],
            [
              -77.99715231918846,
              39.58508938113485
            ],
            [
              -77.09310688757948,
              39.60490478575131
            ]
          ]
        ],
        "type": "Polygon"
      },
      "id": "NEC_CM04_RM01",
      "properties": {
        "column": -4,
        "id": "NEC_CM04_RM01",
        "row": -1,
        "stateTouches": [
          "MD",
          "PA",
          "WV"
        ]
      },
      "type": "Feature"
    },
    {
      "geometry": {
        "coordinates": [
          [
            [
              -76.18832646060429,
              39.61768557364158
            ],
            [
              -76.20365032318202,
              40.49413947885038
            ],
            [
              -77.12008160427442,
              40.48095827852969
            ],
            [
              -77.09310688757948,
              39.60490478575131
            ],
            [
              -76.18832646060429,
              39.61768557364158
            ]
          ]
        ],
        "type": "Polygon"
      },
      "id": "NEC_CM03_RM01",
      "properties": {
        "column": -3,
        "id": "NEC_CM03_RM01",
        "row": -1,
        "stateTouches": [
          "MD",
          "PA"
        ]
      },
      "type": "Feature"
    },
    {
      "geometry": {
        "coordinates": [
          [
            [
              -75.28312828269615,
              39.623418443938085
            ],
            [
              -75.28678032245674,
              40.50005200544032
            ],
            [
              -76.20365032318202,
              40.49413947885038
            ],
            [
              -76.18832646060429,
              39.61768557364158
            ],
            [
              -75.28312828269615,
              39.623418443938085
            ]
          ]
        ],
        "type": "Polygon"
      },
      "id": "NEC_CM02_RM01",
      "properties": {
        "column": -2,
        "id": "NEC_CM02_RM01",
        "row": -1,
        "stateTouches": [
          "DE",
          "MD",
          "NJ",
          "PA"
        ]
      },
      "type": "Feature"
    },
    {
      "geometry": {
        "coordinates": [
          [
            [
              -74.37783052205542,
              39.62209742534135
            ],
            [
              -74.36980573812328,
              40.498689586118495
            ],
            [
              -75.28678032245674,
              40.50005200544032
            ],
            [
              -75.28312828269615,
              39.623418443938085
            ],
            [
              -74.37783052205542,
              39.62209742534135
            ]
          ]
        ],
        "type": "Polygon"
      },
      "id": "NEC_CM01_RM01",
      "properties": {
        "column": -1,
        "id": "NEC_CM01_RM01",
        "row": -1,
        "stateTouches": [
          "NJ",
          "PA"
        ]
      },
      "type": "Feature"
    },
    {
      "geometry": {
        "coordinates": [
          [
            [
              -73.47275156729681,
              39.613723894093624
            ],
            [
              -73.45306094651934,
              40.49005366648574
            ],
            [
              -74.36980573812328,
              40.498689586118495
            ],
            [
              -74.37783052205542,
              39.62209742534135
            ],
            [
              -73.47275156729681,
              39.613723894093624
            ]
          ]
        ],
        "type": "Polygon"
      },
      "id": "NEC_CP00_RM01",
      "properties": {
        "column": 0,
        "id": "NEC_CP00_RM01",
        "row": -1,
        "stateTouches": [
          "NJ",
          "NY"
        ]
      },
      "type": "Feature"
    },
    {
      "geometry": {
        "coordinates": [
          [
            [
              -78.03574103681576,
              40.46052237504122
            ],
            [
              -78.07606058276083,
              41.33579050399204
            ],
            [
              -79.00269413205326,
              41.30726022900041
            ],
            [
              -78.95029725984718,
              40.43285339418729
            ],
            [
              -78.03574103681576,
              40.46052237504122
            ]
          ]
        ],
        "type": "Polygon"
      },
      "id": "NEC_CM05_RP00",
      "properties": {
        "column": -5,
        "id": "NEC_CM05_RP00",
        "row": 0,
        "stateTouches": [
          "PA"
        ]
      },
      "type": "Feature"
    },
    {
      "geometry": {
        "coordinates": [
          [
            [
              -77.12008160427442,
              40.48095827852969
            ],
            [
              -77.14826727821361,
              41.35686301919034
            ],
            [
              -78.07606058276083,
              41.33579050399204
            ],
            [
              -78.03574103681576,
              40.46052237504122
            ],
            [
              -77.12008160427442,
              40.48095827852969
            ]
          ]
        ],
        "type": "Polygon"
      },
      "id": "NEC_CM04_RP00",
      "properties": {
        "column": -4,
        "id": "NEC_CM04_RP00",
        "row": 0,
        "stateTouches": [
          "PA"
        ]
      },
      "type": "Feature"
    },
    {
      "geometry": {
        "coordinates": [
          [
            [
              -76.20365032318202,
              40.49413947885038
            ],
            [
              -76.21966249603433,
              41.37045504866167
            ],
            [
              -77.14826727821361,
              41.35686301919034
            ],
            [
              -77.12008160427442,
              40.48095827852969
            ],
            [
              -76.20365032318202,
              40.49413947885038
            ]
          ]
        ],
        "type": "Polygon"
      },
      "id": "NEC_CM03_RP00",
      "properties": {
        "column": -3,
        "id": "NEC_CM03_RP00",
        "row": 0,
        "stateTouches": [
          "PA"
        ]
      },
      "type": "Feature"
    },
    {
      "geometry": {
        "coordinates": [
          [
            [
              -75.28678032245674,
              40.50005200544032
            ],
            [
              -75.2905964442446,
              41.37655191014284
            ],
            [
              -76.21966249603433,
              41.37045504866167
            ],
            [
              -76.20365032318202,
              40.49413947885038
            ],
            [
              -75.28678032245674,
              40.50005200544032
            ]
          ]
        ],
        "type": "Polygon"
      },
      "id": "NEC_CM02_RP00",
      "properties": {
        "column": -2,
        "id": "NEC_CM02_RP00",
        "row": 0,
        "stateTouches": [
          "PA"
        ]
      },
      "type": "Feature"
    },
    {
      "geometry": {
        "coordinates": [
          [
            [
              -74.36980573812328,
              40.498689586118495
            ],
            [
              -74.36142043065041,
              41.3751470116748
            ],
            [
              -75.2905964442446,
              41.37655191014284
            ],
            [
              -75.28678032245674,
              40.50005200544032
            ],
            [
              -74.36980573812328,
              40.498689586118495
            ]
          ]
        ],
        "type": "Polygon"
      },
      "id": "NEC_CM01_RP00",
      "properties": {
        "column": -1,
        "id": "NEC_CM01_RP00",
        "row": 0,
        "stateTouches": [
          "NJ",
          "NY",
          "PA"
        ]
      },
      "type": "Feature"
    },
    {
      "geometry": {
        "coordinates": [
          [
            [
              -73.45306094651934,
              40.49005366648574
            ],
            [
              -73.4324860255007,
              41.36624187257424
            ],
            [
              -74.36142043065041,
              41.3751470116748
            ],
            [
              -74.36980573812328,
              40.498689586118495
            ],
            [
              -73.45306094651934,
              40.49005366648574
            ]
          ]
        ],
        "type": "Polygon"
      },
      "id": "NEC_CP00_RP00",
      "properties": {
        "column": 0,
        "id": "NEC_CP00_RP00",
        "row": 0,
        "stateTouches": [
          "CT",
          "NJ",
          "NY"
        ]
      },
      "type": "Feature"
    },
    {
      "geometry": {
        "coordinates": [
          [
            [
              -72.5368797960823,
              40.474153405451695
            ],
            [
              -72.50414422253851,
              41.34984611859816
            ],
            [
              -73.4324860255007,
              41.36624187257424
            ],
            [
              -73.45306094651934,
              40.49005366648574
            ],
            [
              -72.5368797960823,
              40.474153405451695
            ]
          ]
        ],
        "type": "Polygon"
      },
      "id": "NEC_CP01_RP00",
      "properties": {
        "column": 1,
        "id": "NEC_CP01_RP00",
        "row": 0,
        "stateTouches": [
          "CT",
          "NY"
        ]
      },
      "type": "Feature"
    },
    {
      "geometry": {
        "coordinates": [
          [
            [
              -71.6215948422536,
              40.45100564691924
            ],
            [
              -71.57674460358231,
              41.32597745133483
            ],
            [
              -72.50414422253851,
              41.34984611859816
            ],
            [
              -72.5368797960823,
              40.474153405451695
            ],
            [
              -71.6215948422536,
              40.45100564691924
            ]
          ]
        ],
        "type": "Polygon"
      },
      "id": "NEC_CP02_RP00",
      "properties": {
        "column": 2,
        "id": "NEC_CP02_RP00",
        "row": 0,
        "stateTouches": [
          "CT",
          "NY",
          "RI"
        ]
      },
      "type": "Feature"
    },
    {
      "geometry": {
        "coordinates": [
          [
            [
              -70.70753659000286,
              40.42063486781544
            ],
            [
              -70.65063451173415,
              41.29466159203282
            ],
            [
              -71.57674460358231,
              41.32597745133483
            ],
            [
              -71.6215948422536,
              40.45100564691924
            ],
            [
              -70.70753659000286,
              40.42063486781544
            ]
          ]
        ],
        "type": "Polygon"
      },
      "id": "NEC_CP03_RP00",
      "properties": {
        "column": 3,
        "id": "NEC_CP03_RP00",
        "row": 0,
        "stateTouches": [
          "MA",
          "RI"
        ]
      },
      "type": "Feature"
    },
    {
      "geometry": {
        "coordinates": [
          [
            [
              -69.79503274839057,
              40.383073102815125
            ],
            [
              -69.72615823821367,
              41.255932200255145
            ],
            [
              -70.65063451173415,
              41.29466159203282
            ],
            [
              -70.70753659000286,
              40.42063486781544
            ],
            [
              -69.79503274839057,
              40.383073102815125
            ]
          ]
        ],
        "type": "Polygon"
      },
      "id": "NEC_CP04_RP00",
      "properties": {
        "column": 4,
        "id": "NEC_CP04_RP00",
        "row": 0,
        "stateTouches": [
          "MA"
        ]
      },
      "type": "Feature"
    },
    {
      "geometry": {
        "coordinates": [
          [
            [
              -77.14826727821361,
              41.35686301919034
            ],
            [
              -77.17772610777429,
              42.23261753737785
            ],
            [
              -78.11819970601218,
              42.210891341987114
            ],
            [
              -78.07606058276083,
              41.33579050399204
            ],
            [
              -77.14826727821361,
              41.35686301919034
            ]
          ]
        ],
        "type": "Polygon"
      },
      "id": "NEC_CM04_RP01",
      "properties": {
        "column": -4,
        "id": "NEC_CM04_RP01",
        "row": 1,
        "stateTouches": [
          "NY",
          "PA"
        ]
      },
      "type": "Feature"
    },
    {
      "geometry": {
        "coordinates": [
          [
            [
              -76.21966249603433,
              41.37045504866167
            ],
            [
              -76.23639837173774,
              42.24663143157807
            ],
            [
              -77.17772610777429,
              42.23261753737785
            ],
            [
              -77.14826727821361,
              41.35686301919034
            ],
            [
              -76.21966249603433,
              41.37045504866167
            ]
          ]
        ],
        "type": "Polygon"
      },
      "id": "NEC_CM03_RP01",
      "properties": {
        "column": -3,
        "id": "NEC_CM03_RP01",
        "row": 1,
        "stateTouches": [
          "NY",
          "PA"
        ]
      },
      "type": "Feature"
    },
    {
      "geometry": {
        "coordinates": [
          [
            [
              -75.2905964442446,
              41.37655191014284
            ],
            [
              -75.29458508923994,
              42.25291758477143
            ],
            [
              -76.23639837173774,
              42.24663143157807
            ],
            [
              -76.21966249603433,
              41.37045504866167
            ],
            [
              -75.2905964442446,
              41.37655191014284
            ]
          ]
        ],
        "type": "Polygon"
      },
      "id": "NEC_CM02_RP01",
      "properties": {
        "column": -2,
        "id": "NEC_CM02_RP01",
        "row": 1,
        "stateTouches": [
          "NY",
          "PA"
        ]
      },
      "type": "Feature"
    },
    {
      "geometry": {
        "coordinates": [
          [
            [
              -74.36142043065041,
              41.3751470116748
            ],
            [
              -74.35265605465452,
              42.25146906459063
            ],
            [
              -75.29458508923994,
              42.25291758477143
            ],
            [
              -75.2905964442446,
              41.37655191014284
            ],
            [
              -74.36142043065041,
              41.3751470116748
            ]
          ]
        ],
        "type": "Polygon"
      },
      "id": "NEC_CM01_RP01",
      "properties": {
        "column": -1,
        "id": "NEC_CM01_RP01",
        "row": 1,
        "stateTouches": [
          "NY",
          "PA"
        ]
      },
      "type": "Feature"
    },
    {
      "geometry": {
        "coordinates": [
          [
            [
              -73.4324860255007,
              41.36624187257424
            ],
            [
              -73.4109813494552,
              42.2422874688255
            ],
            [
              -74.35265605465452,
              42.25146906459063
            ],
            [
              -74.36142043065041,
              41.3751470116748
            ],
            [
              -73.4324860255007,
              41.36624187257424
            ]
          ]
        ],
        "type": "Polygon"
      },
      "id": "NEC_CP00_RP01",
      "properties": {
        "column": 0,
        "id": "NEC_CP00_RP01",
        "row": 1,
        "stateTouches": [
          "CT",
          "MA",
          "NY"
        ]
      },
      "type": "Feature"
    },
    {
      "geometry": {
        "coordinates": [
          [
            [
              -72.50414422253851,
              41.34984611859816
            ],
            [
              -72.46993042445492,
              42.225382920187
            ],
            [
              -73.4109813494552,
              42.2422874688255
            ],
            [
              -73.4324860255007,
              41.36624187257424
            ],
            [
              -72.50414422253851,
              41.34984611859816
            ]
          ]
        ],
        "type": "Polygon"
      },
      "id": "NEC_CP01_RP01",
      "properties": {
        "column": 1,
        "id": "NEC_CP01_RP01",
        "row": 1,
        "stateTouches": [
          "CT",
          "MA"
        ]
      },
      "type": "Feature"
    },
    {
      "geometry": {
        "coordinates": [
          [
            [
              -71.57674460358231,
              41.32597745133483
            ],
            [
              -71.52987118605168,
              42.20077403316495
            ],
            [
              -72.46993042445492,
              42.225382920187
            ],
            [
              -72.50414422253851,
              41.34984611859816
            ],
            [
              -71.57674460358231,
              41.32597745133483
            ]
          ]
        ],
        "type": "Polygon"
      },
      "id": "NEC_CP02_RP01",
      "properties": {
        "column": 2,
        "id": "NEC_CP02_RP01",
        "row": 1,
        "stateTouches": [
          "CT",
          "MA",
          "RI"
        ]
      },
      "type": "Feature"
    },
    {
      "geometry": {
        "coordinates": [
          [
            [
              -70.65063451173415,
              41.29466159203282
            ],
            [
              -70.59116909226361,
              42.16848785321648
            ],
            [
              -71.52987118605168,
              42.20077403316495
            ],
            [
              -71.57674460358231,
              41.32597745133483
            ],
            [
              -70.65063451173415,
              41.29466159203282
            ]
          ]
        ],
        "type": "Polygon"
      },
      "id": "NEC_CP03_RP01",
      "properties": {
        "column": 3,
        "id": "NEC_CP03_RP01",
        "row": 1,
        "stateTouches": [
          "MA",
          "RI"
        ]
      },
      "type": "Feature"
    },
    {
      "geometry": {
        "coordinates": [
          [
            [
              -69.72615823821367,
              41.255932200255145
            ],
            [
              -69.65418626422105,
              42.12855976871948
            ],
            [
              -70.59116909226361,
              42.16848785321648
            ],
            [
              -70.65063451173415,
              41.29466159203282
            ],
            [
              -69.72615823821367,
              41.255932200255145
            ]
          ]
        ],
        "type": "Polygon"
      },
      "id": "NEC_CP04_RP01",
      "properties": {
        "column": 4,
        "id": "NEC_CP04_RP01",
        "row": 1,
        "stateTouches": [
          "MA"
        ]
      },
      "type": "Feature"
    },
    {
      "geometry": {
        "coordinates": [
          [
            [
              -76.23639837173774,
              42.24663143157807
            ],
            [
              -76.25389605439668,
              43.12266788045562
            ],
            [
              -77.20852505070881,
              43.108220422294174
            ],
            [
              -77.17772610777429,
              42.23261753737785
            ],
            [
              -76.23639837173774,
              42.24663143157807
            ]
          ]
        ],
        "type": "Polygon"
      },
      "id": "NEC_CM03_RP02",
      "properties": {
        "column": -3,
        "id": "NEC_CM03_RP02",
        "row": 2,
        "stateTouches": [
          "NY"
        ]
      },
      "type": "Feature"
    },
    {
      "geometry": {
        "coordinates": [
          [
            [
              -75.29458508923994,
              42.25291758477143
            ],
            [
              -75.29875534568087,
              43.12914858057401
            ],
            [
              -76.25389605439668,
              43.12266788045562
            ],
            [
              -76.23639837173774,
              42.24663143157807
            ],
            [
              -75.29458508923994,
              42.25291758477143
            ]
          ]
        ],
        "type": "Polygon"
      },
      "id": "NEC_CM02_RP02",
      "properties": {
        "column": -2,
        "id": "NEC_CM02_RP02",
        "row": 2,
        "stateTouches": [
          "NY"
        ]
      },
      "type": "Feature"
    },
    {
      "geometry": {
        "coordinates": [
          [
            [
              -74.35265605465452,
              42.25146906459063
            ],
            [
              -74.3434926437689,
              43.12765522731695
            ],
            [
              -75.29875534568087,
              43.12914858057401
            ],
            [
              -75.29458508923994,
              42.25291758477143
            ],
            [
              -74.35265605465452,
              42.25146906459063
            ]
          ]
        ],
        "type": "Polygon"
      },
      "id": "NEC_CM01_RP02",
      "properties": {
        "column": -1,
        "id": "NEC_CM01_RP02",
        "row": 2,
        "stateTouches": [
          "NY"
        ]
      },
      "type": "Feature"
    },
    {
      "geometry": {
        "coordinates": [
          [
            [
              -73.4109813494552,
              42.2422874688255
            ],
            [
              -73.38849798249363,
              43.11818950214902
            ],
            [
              -74.3434926437689,
              43.12765522731695
            ],
            [
              -74.35265605465452,
              42.25146906459063
            ],
            [
              -73.4109813494552,
              42.2422874688255
            ]
          ]
        ],
        "type": "Polygon"
      },
      "id": "NEC_CP00_RP02",
      "properties": {
        "column": 0,
        "id": "NEC_CP00_RP02",
        "row": 2,
        "stateTouches": [
          "MA",
          "NY"
        ]
      },
      "type": "Feature"
    },
    {
      "geometry": {
        "coordinates": [
          [
            [
              -72.46993042445492,
              42.225382920187
            ],
            [
              -72.4341607045739,
              43.100762057652496
            ],
            [
              -73.38849798249363,
              43.11818950214902
            ],
            [
              -73.4109813494552,
              42.2422874688255
            ],
            [
              -72.46993042445492,
              42.225382920187
            ]
          ]
        ],
        "type": "Polygon"
      },
      "id": "NEC_CP01_RP02",
      "properties": {
        "column": 1,
        "id": "NEC_CP01_RP02",
        "row": 2,
        "stateTouches": [
          "MA",
          "NH",
          "NY",
          "VT"
        ]
      },
      "type": "Feature"
    },
    {
      "geometry": {
        "coordinates": [
          [
            [
              -71.52987118605168,
              42.20077403316495
            ],
            [
              -71.48086846043266,
              43.075392481580224
            ],
            [
              -72.4341607045739,
              43.100762057652496
            ],
            [
              -72.46993042445492,
              42.225382920187
            ],
            [
              -71.52987118605168,
              42.20077403316495
            ]
          ]
        ],
        "type": "Polygon"
      },
      "id": "NEC_CP02_RP02",
      "properties": {
        "column": 2,
        "id": "NEC_CP02_RP02",
        "row": 2,
        "stateTouches": [
          "MA",
          "NH"
        ]
      },
      "type": "Feature"
    },
    {
      "geometry": {
        "coordinates": [
          [
            [
              -70.59116909226361,
              42.16848785321648
            ],
            [
              -70.52900621815004,
              43.04210923090773
            ],
            [
              -71.48086846043266,
              43.075392481580224
            ],
            [
              -71.52987118605168,
              42.20077403316495
            ],
            [
              -70.59116909226361,
              42.16848785321648
            ]
          ]
        ],
        "type": "Polygon"
      },
      "id": "NEC_CP03_RP02",
      "properties": {
        "column": 3,
        "id": "NEC_CP03_RP02",
        "row": 2,
        "stateTouches": [
          "MA",
          "ME",
          "NH"
        ]
      },
      "type": "Feature"
    },
    {
      "geometry": {
        "coordinates": [
          [
            [
              -74.3434926437689,
              43.12765522731695
            ],
            [
              -74.33390867656932,
              44.003705101884066
            ],
            [
              -75.30311700972578,
              44.00524457347418
            ],
            [
              -75.29875534568087,
              43.12914858057401
            ],
            [
              -74.3434926437689,
              43.12765522731695
            ]
          ]
        ],
        "type": "Polygon"
      },
      "id": "NEC_CM01_RP03",
      "properties": {
        "column": -1,
        "id": "NEC_CM01_RP03",
        "row": 3,
        "stateTouches": [
          "NY"
        ]
      },
      "type": "Feature"
    },
    {
      "geometry": {
        "coordinates": [
          [
            [
              -73.38849798249363,
              43.11818950214902
            ],
            [
              -73.36498318059392,
              43.993947106795716
            ],
            [
              -74.33390867656932,
              44.003705101884066
            ],
            [
              -74.3434926437689,
              43.12765522731695
            ],
            [
              -73.38849798249363,
              43.11818950214902
            ]
          ]
        ],
        "type": "Polygon"
      },
      "id": "NEC_CP00_RP03",
      "properties": {
        "column": 0,
        "id": "NEC_CP00_RP03",
        "row": 3,
        "stateTouches": [
          "NY",
          "VT"
        ]
      },
      "type": "Feature"
    },
    {
      "geometry": {
        "coordinates": [
          [
            [
              -72.4341607045739,
              43.100762057652496
            ],
            [
              -72.39675132862544,
              43.975981806710045
            ],
            [
              -73.36498318059392,
              43.993947106795716
            ],
            [
              -73.38849798249363,
              43.11818950214902
            ],
            [
              -72.4341607045739,
              43.100762057652496
            ]
          ]
        ],
        "type": "Polygon"
      },
      "id": "NEC_CP01_RP03",
      "properties": {
        "column": 1,
        "id": "NEC_CP01_RP03",
        "row": 3,
        "stateTouches": [
          "NH",
          "NY",
          "VT"
        ]
      },
      "type": "Feature"
    },
    {
      "geometry": {
        "coordinates": [
          [
            [
              -71.48086846043266,
              43.075392481580224
            ],
            [
              -71.4296220698061,
              43.94982982873338
            ],
            [
              -72.39675132862544,
              43.975981806710045
            ],
            [
              -72.4341607045739,
              43.100762057652496
            ],
            [
              -71.48086846043266,
              43.075392481580224
            ]
          ]
        ],
        "type": "Polygon"
      },
      "id": "NEC_CP02_RP03",
      "properties": {
        "column": 2,
        "id": "NEC_CP02_RP03",
        "row": 3,
        "stateTouches": [
          "NH",
          "VT"
        ]
      },
      "type": "Feature"
    },
    {
      "geometry": {
        "coordinates": [
          [
            [
              -70.52900621815004,
              43.04210923090773
            ],
            [
              -70.46400140934001,
              43.91552113693085
            ],
            [
              -71.4296220698061,
              43.94982982873338
            ],
            [
              -71.48086846043266,
              43.075392481580224
            ],
            [
              -70.52900621815004,
              43.04210923090773
            ]
          ]
        ],
        "type": "Polygon"
      },
      "id": "NEC_CP03_RP03",
      "properties": {
        "column": 3,
        "id": "NEC_CP03_RP03",
        "row": 3,
        "stateTouches": [
          "ME",
          "NH"
        ]
      },
      "type": "Feature"
    },
    {
      "geometry": {
        "coordinates": [
          [
            [
              -69.57895529099112,
              43.000949536372026
            ],
            [
              -69.50029134227023,
              43.873094928641954
            ],
            [
              -70.46400140934001,
              43.91552113693085
            ],
            [
              -70.52900621815004,
              43.04210923090773
            ],
            [
              -69.57895529099112,
              43.000949536372026
            ]
          ]
        ],
        "type": "Polygon"
      },
      "id": "NEC_CP04_RP03",
      "properties": {
        "column": 4,
        "id": "NEC_CP04_RP03",
        "row": 3,
        "stateTouches": [
          "ME"
        ]
      },
      "type": "Feature"
    },
    {
      "geometry": {
        "coordinates": [
          [
            [
              -68.63109238873385,
              42.95195927819912
            ],
            [
              -68.53888881436893,
              43.82259949954931
            ],
            [
              -69.50029134227023,
              43.873094928641954
            ],
            [
              -69.57895529099112,
              43.000949536372026
            ],
            [
              -68.63109238873385,
              42.95195927819912
            ]
          ]
        ],
        "type": "Polygon"
      },
      "id": "NEC_CP05_RP03",
      "properties": {
        "column": 5,
        "id": "NEC_CP05_RP03",
        "row": 3,
        "stateTouches": [
          "ME"
        ]
      },
      "type": "Feature"
    },
    {
      "geometry": {
        "coordinates": [
          [
            [
              -72.39675132862544,
              43.975981806710045
            ],
            [
              -72.35761194776086,
              44.85104046201471
            ],
            [
              -73.34038002653259,
              44.86955950074715
            ],
            [
              -73.36498318059392,
              43.993947106795716
            ],
            [
              -72.39675132862544,
              43.975981806710045
            ]
          ]
        ],
        "type": "Polygon"
      },
      "id": "NEC_CP01_RP04",
      "properties": {
        "column": 1,
        "id": "NEC_CP01_RP04",
        "row": 4,
        "stateTouches": [
          "NY",
          "VT"
        ]
      },
      "type": "Feature"
    },
    {
      "geometry": {
        "coordinates": [
          [
            [
              -71.4296220698061,
              43.94982982873338
            ],
            [
              -71.3760086447419,
              44.824083032171146
            ],
            [
              -72.35761194776086,
              44.85104046201471
            ],
            [
              -72.39675132862544,
              43.975981806710045
            ],
            [
              -71.4296220698061,
              43.94982982873338
            ]
          ]
        ],
        "type": "Polygon"
      },
      "id": "NEC_CP02_RP04",
      "properties": {
        "column": 2,
        "id": "NEC_CP02_RP04",
        "row": 4,
        "stateTouches": [
          "NH",
          "VT"
        ]
      },
      "type": "Feature"
    },
    {
      "geometry": {
        "coordinates": [
          [
            [
              -70.46400140934001,
              43.91552113693085
            ],
            [
              -70.3959988341681,
              44.78871878715636
            ],
            [
              -71.3760086447419,
              44.824083032171146
            ],
            [
              -71.4296220698061,
              43.94982982873338
            ],
            [
              -70.46400140934001,
              43.91552113693085
            ]
          ]
        ],
        "type": "Polygon"
      },
      "id": "NEC_CP03_RP04",
      "properties": {
        "column": 3,
        "id": "NEC_CP03_RP04",
        "row": 4,
        "stateTouches": [
          "ME",
          "NH"
        ]
      },
      "type": "Feature"
    },
    {
      "geometry": {
        "coordinates": [
          [
            [
              -69.50029134227023,
              43.873094928641954
            ],
            [
              -69.41800682459255,
              44.7449890270821
            ],
            [
              -70.3959988341681,
              44.78871878715636
            ],
            [
              -70.46400140934001,
              43.91552113693085
            ],
            [
              -69.50029134227023,
              43.873094928641954
            ]
          ]
        ],
        "type": "Polygon"
      },
      "id": "NEC_CP04_RP04",
      "properties": {
        "column": 4,
        "id": "NEC_CP04_RP04",
        "row": 4,
        "stateTouches": [
          "ME"
        ]
      },
      "type": "Feature"
    },
    {
      "geometry": {
        "coordinates": [
          [
            [
              -68.53888881436893,
              43.82259949954931
            ],
            [
              -68.44245137628505,
              44.69294462945755
            ],
            [
              -69.41800682459255,
              44.7449890270821
            ],
            [
              -69.50029134227023,
              43.873094928641954
            ],
            [
              -68.53888881436893,
              43.82259949954931
            ]
          ]
        ],
        "type": "Polygon"
      },
      "id": "NEC_CP05_RP04",
      "properties": {
        "column": 5,
        "id": "NEC_CP05_RP04",
        "row": 4,
        "stateTouches": [
          "ME"
        ]
      },
      "type": "Feature"
    }
  ],
  "name": "NEC ownership grid",
  "type": "FeatureCollection"
}
